DBN,NAME,TYPE,GRADES,DISTRICT,TEL,WEBSITE,SUBWAY,BUS,URL,LAT,LON,address
17K002,Parkside Preparatory Academy,Junior High-Intermediate-Middle,"06,07,08,SE","17",718-462-6992,https://www.facebook.com/parkside-preparatory-academy-at-MS-2-121181564636872,"2, 5 to Winthrop St","B12, B35, B41, B44, B44-SBS, B49",https://tools.nycenet.edu/snapshot/2019/17K002/EMS,40.656372,-73.951784,"655 Parkside Avenue, Brooklyn NY 11226"
13K008,P.S. 008 Robert Fulton,K-8,"0K,01,02,03,04,05,08,SE","13",718-834-6740,https://www.ps8brooklyn.org,"F to York St; A, C to High St; 4, 5, R to Court St - CITY Hall; 2, 3 to Clark St","B103, B25, B26, B38, B41, B52, B54, B57, B62, B67, B69",https://tools.nycenet.edu/snapshot/2019/13K008/EMS,40.700475,-73.99313,"105 Tech Place, Brooklyn NY 11201"
22K014,J.H.S. 014 Shell Bank,Junior High-Intermediate-Middle,"06,07,08,SE","22",718-743-0220,https://www.shellbank.weebly.com,N/A,"B3, B31, B36, B4, B44, B44-SBS, BM3, BM4",https://tools.nycenet.edu/snapshot/2019/22K014/EMS,40.59349,-73.938086,"2424 Batchelder Street, Brooklyn NY 11235"
20K030,P.S./I.S. 30 Mary White Ovington,K-8,"0K,01,02,03,04,05,06,07,08,SE","20",718-491-8440,https://www.psis30pta.org,R to Bay Ridge Ave,"B37, B4, B63, B64, B70, B9, X1, X10, X10B, X11, X12, X14, X15, X17, X17A, X19, X2, X27, X28, X3, X31, X37, X38, X4, X42, X5, X7, X8, X9",https://tools.nycenet.edu/snapshot/2019/20K030/EMS,40.633572,-74.023737,"7002 4th Avenue, Brooklyn NY 11209"
16K035,M.S. 035 Stephen Decatur,Junior High-Intermediate-Middle,"06,07,08,SE","16",718-574-2345,https://www.schools.nyc.gov/Find-a-School,"A, C to Utica Ave","B15, B25, B26, B43, B46, B46-SBS, B52, B65",https://tools.nycenet.edu/snapshot/2019/16K035/EMS,40.681327,-73.936186,"272 Macdonough Street, Brooklyn NY 11233"
23K041,P.S. 041 Francis White,K-8,"0K,01,02,03,04,05,06,07,08,SE","23",718-495-7732,https://www.schools.nyc.gov/Find-a-School,"L to New Lots Ave; 3 to Rockaway Ave","B14, B15, B35, B60, B7, B8",https://tools.nycenet.edu/snapshot/2019/23K041/EMS,40.660513,-73.907034,"411 Thatford Avenue, Brooklyn NY 11212"
23K041,P.S. 041 Francis White,K-8,"0K,01,02,03,04,05,06,07,08,SE","23",718-495-7732,https://www.schools.nyc.gov/Find-a-School,"L to New Lots Ave; 3 to Rockaway Ave","B14, B15, B35, B60, B7, B8",https://tools.nycenet.edu/snapshot/2019/23K041/EMS,40.660649,-73.906648,"411 Thatford Avenue, Brooklyn NY 11212"
32K045,P.S./I.S. 045 Horace E. Greene,K-8,"PK,0K,01,02,03,04,05,06,07,08,SE","32",718-574-0235,https://www.schools.nyc.gov/Find-a-School,"L to Wilson Ave; J to Chauncey St","B20, B26, B60, B7, Q24",https://tools.nycenet.edu/snapshot/2019/32K045/EMS,40.686457,-73.910245,"84 Schaefer Street, Brooklyn NY 11207"
14K050,J.H.S. 050 John D. Wells,Junior High-Intermediate-Middle,"06,07,08,SE","14",718-387-4184,https://www.schools.nyc.gov/Find-a-School,"L to Bedford Ave; J, M, Z to Marcy Ave; G to Metropolitan Ave-Lorimer St","B24, B32, B39, B44, B44-SBS, B46, B60, B62, Q54, Q59",https://tools.nycenet.edu/snapshot/2019/14K050/EMS,40.711701,-73.960155,"183 South 3rd Street, Brooklyn NY 11211"
15K051,M.S. 51 William Alexander,Junior High-Intermediate-Middle,"06,07,08,SE","15",718-369-7603,https://www.ms51.org,"F, G, R to 4th Ave - 9th St","B103, B37, B61, B63, B67, B69",https://tools.nycenet.edu/snapshot/2019/15K051/EMS,40.67227,-73.985121,"350 5th Avenue, Brooklyn NY 11215"
16K057,Whitelaw Reid Academy of Arts and Business,Junior High-Intermediate-Middle,"06,07,08,SE","16",718-574-2357,https://www.schools.nyc.gov/Find-a-School,"M, Z to Myrtle Ave; J to Kosciusko St","B15, B38, B43, B46, B46-SBS, B47, B52, B54, Q24",https://tools.nycenet.edu/snapshot/2019/16K057/EMS,40.691494,-73.932352,"125 Stuyvesant Avenue, Brooklyn NY 11221"
17K061,M.S. 061 Dr. Gladstone H. Atwell,Junior High-Intermediate-Middle,"06,07,08,SE","17",718-774-1002,https://www.ms61.net,"3 to Nostrand Ave; 2, 5 to Sterling St","B12, B43, B44, B44-SBS, B49",https://tools.nycenet.edu/snapshot/2019/17K061/EMS,40.663624,-73.949163,"400 Empire Boulevard, Brooklyn NY 11225"
20K062,J.H.S. 062 Ditmas,Junior High-Intermediate-Middle,"06,07,08,SE","20",718-941-5450,https://www.ditmas.org,"Q to Cortelyou Rd; F to Ditmas Ave","B103, B35, B67, B68, B69, B8, BM1, BM2, BM3, BM4",https://tools.nycenet.edu/snapshot/2019/20K062/EMS,40.638338,-73.971406,"700 Cortelyou Road, Brooklyn NY 11218"
18K066,P.S. 66,K-8,"PK,0K,01,02,03,04,05,06,07,08,SE","18",718-922-3505,https://www.schools.nyc.gov/Find-a-School,N/A,"B17, B42, B6, B60, B8, B82",https://tools.nycenet.edu/snapshot/2019/18K066/EMS,40.648607,-73.906897,"845 East 96th Street, Brooklyn NY 11236"
18K068,I.S. 068 Isaac Bildersee,Junior High-Intermediate-Middle,"06,07,08,SE","18",718-241-4800,https://www.is68.org,N/A,"B103, B17, B47, B6, B82, BM2",https://tools.nycenet.edu/snapshot/2019/18K068/EMS,40.635236,-73.911275,"956 East 82nd Street, Brooklyn NY 11236"
14K071,Juan Morel Campos Secondary School,Secondary School,"06,07,08,09,10,11,12,SE","14",718-302-7900,https://www.juanmorelcampos.com,"Z to Marcy Ave; J, M to Hewes St; G to Broadway","B24, B32, B39, B43, B44, B44-SBS, B46, B48, B57, B60, B62, Q54, Q59",https://tools.nycenet.edu/snapshot/2019/14K071/EMS,40.704254,-73.953187,"215 Heyward Street, Brooklyn NY 11206"
22K078,J.H.S. 078 Roy H. Mann,Junior High-Intermediate-Middle,"06,07,08,SE","22",718-763-4701,https://www.RoyHMann.com,N/A,"B100, B3, B41, B46, B47, BM1",https://tools.nycenet.edu/snapshot/2019/22K078/EMS,40.620252,-73.913058,"1420 East 68th Street, Brooklyn NY 11234"
14K084,P.S. 084 Jose De Diego,K-8,"PK,0K,01,02,03,04,05,06,07,08,SE","14",718-384-8063,https://www.ps84k.org,"L to Bedford Ave; J, M, Z to Marcy Ave","B24, B32, B39, B44, B44-SBS, B46, B60, B62, Q54, Q59",https://tools.nycenet.edu/snapshot/2019/14K084/EMS,40.715124,-73.963666,"250 Berry Street, Brooklyn NY 11211"
15K088,J.H.S. 088 Peter Rouget,Junior High-Intermediate-Middle,"06,07,08,SE","15",718-788-4482,https://www.ms88.org,"R to Prospect Ave; F, G to 15th St-Prospect Park","B37, B61, B63, B67, B68, B69",https://tools.nycenet.edu/snapshot/2019/15K088/EMS,40.660562,-73.988808,"544 7th Avenue, Brooklyn NY 11215"
19K089,P.S. 089 Cypress Hills,K-8,"PK,0K,01,02,03,04,05,06,07,08,SE","19",718-964-1180,https://www.cypresshillscommunityschool.org,"J to Cleveland St; C, Z to Van Siclen Ave","B14, Q24, Q56",https://tools.nycenet.edu/snapshot/2019/19K089/EMS,40.677627,-73.886947,"265 Warwick Street, Brooklyn NY 11207"
21K095,P.S. 095 The Gravesend,K-8,"PK,0K,01,02,03,04,05,06,07,08,SE","21",718-449-5050,https://www.ps95bk.org,"F, N to Ave U","B1, B3, B4",https://tools.nycenet.edu/snapshot/2019/21K095/EMS,40.596261,-73.974402,"345 Van Sicklen Street, Brooklyn NY 11223"
21K096,I.S. 096 Seth Low,Junior High-Intermediate-Middle,"06,07,08,SE","21",718-236-1344,https://www.sethlowis96.wix.com/home,N to Bay Parkway-22nd Ave,"B4, B6, B82",https://tools.nycenet.edu/snapshot/2019/21K096/EMS,40.608226,-73.984684,"99 Avenue P, Brooklyn NY 11204"
21K098,I.S. 98 Bay Academy,Junior High-Intermediate-Middle,"06,07,08,SE","21",718-891-9005,https://www.is98.info,"B, Q to Sheepshead Bay","B1, B36, B4, B49, B68, BM3",https://tools.nycenet.edu/snapshot/2019/21K098/EMS,40.583755,-73.954113,"1401 Emmons Avenue, Brooklyn NY 11235"
21K099,P.S. 099 Isaac Asimov,K-8,"PK,0K,01,02,03,04,05,06,07,08,SE","21",718-338-9201,https://www.schools.nyc.gov/Find-a-School,"F to Bay Parkway-22nd Ave; B, Q to Ave J","B11, B6, B68, B9",https://tools.nycenet.edu/snapshot/2019/21K099/EMS,40.621261,-73.965793,"1120 East 10th Street, Brooklyn NY 11230"
20K104,P.S./I.S. 104 The Fort Hamilton School,K-8,"0K,01,02,03,04,05,06,07,08,SE","20",718-836-4630,https://www.psis104.com,R to Bay RidgeÂ—95th St,"B1, B16, B37, B63, B70, B8, S53, S79-SBS, S93, X17, X27, X28, X37, X38",https://tools.nycenet.edu/snapshot/2019/20K104/EMS,40.618251,-74.028219,"9115 5th Avenue, Brooklyn NY 11209"
22K109,P.S. 109,K-8,"PK,0K,01,02,03,04,05,06,07,08,SE","22",718-693-3426,https://www.schools.nyc.gov/Find-a-School,N/A,"B103, B46, B46-SBS, B6, B7, B8, BM2",https://tools.nycenet.edu/snapshot/2019/22K109/EMS,40.635815,-73.932986,"1001 East 45th Street, Brooklyn NY 11203"
22K109,P.S. 109,K-8,"PK,0K,01,02,03,04,05,06,07,08,SE","22",718-693-3426,https://www.schools.nyc.gov/Find-a-School,N/A,"B103, B46, B46-SBS, B6, B7, B8, BM2",https://tools.nycenet.edu/snapshot/2019/22K109/EMS,40.635912,-73.932855,"1001 East 45th Street, Brooklyn NY 11203"
13K113,M.S. 113 Ronald Edmonds Learning Center,Junior High-Intermediate-Middle,"06,07,08,SE","13",718-834-6734,https://www.relc113bk.com,"G to Clinton-Washington; C to Lafayette Ave; 2, 3, 4, 5, B, D, N, Q, R to Atlantic Ave - Barclays Center","B103, B25, B26, B38, B41, B45, B52, B54, B63, B67, B69",https://tools.nycenet.edu/snapshot/2019/13K113/EMS,40.689037,-73.97147,"300 Adelphi Street, Brooklyn NY 11205"
21K121,P.S. 121 Nelson A. Rockefeller,K-8,"0K,01,02,03,04,05,06,07,08,SE","21",718-377-8845,https://www.publicschool121.weebly.com,"N to 20th Ave; F to Ave I","B11, B6, B8, B9",https://tools.nycenet.edu/snapshot/2019/21K121/EMS,40.622846,-73.97866,"5301 20th Avenue, Brooklyn NY 11204"
14K126,John Ericsson Middle School 126,Junior High-Intermediate-Middle,"06,07,08,SE","14",718-782-2527,https://www.ms126magnet.org,"L to Metropolitan Ave-Lorimer St; G to Nassau Ave","B24, B43, B48, B62, Q59",https://tools.nycenet.edu/snapshot/2019/14K126/EMS,40.719809,-73.948059,"424 Leonard Street, Brooklyn NY 11222"
15K136,I.S. 136 Charles O. Dewey,Junior High-Intermediate-Middle,"06,07,08,SE","15",718-840-1950,https://www.ms136brooklyn.com,"R to 45th St; D, N, R to 36th St - 4 Ave","B11, B35, B37, B63, B70",https://tools.nycenet.edu/snapshot/2019/15K136/EMS,40.652274,-74.007747,"4004 4th Avenue, Brooklyn NY 11232"
17K138,P.S. 138 Brooklyn,K-8,"PK,0K,01,02,03,04,05,06,07,08,SE","17",718-467-0800,https://www.schools.nyc.gov/Find-a-School,"F, S to Park Place; 3, A, C to Nostrand Ave; 2, 5 to President St; 2, 4, 5 to Franklin Ave","B25, B43, B44, B44-SBS, B45, B48, B49, B65",https://tools.nycenet.edu/snapshot/2019/17K138/EMS,40.674132,-73.95181,"760 Prospect Place, Brooklyn NY 11216"
17K138,P.S. 138 Brooklyn,K-8,"PK,0K,01,02,03,04,05,06,07,08,SE","17",718-467-0800,https://www.schools.nyc.gov/Find-a-School,"F, S to Park Place; 3, A, C to Nostrand Ave; 2, 5 to President St; 2, 4, 5 to Franklin Ave","B25, B43, B44, B44-SBS, B45, B48, B49, B65",https://tools.nycenet.edu/snapshot/2019/17K138/EMS,40.673904,-73.951813,"760 Prospect Place, Brooklyn NY 11216"
23K155,P.S./ I.S. 155 Nicholas Herkimer,K-8,"PK,0K,01,02,03,04,05,06,07,08,SE","23",718-240-4340,https://www.schools.nyc.gov/Find-a-School,"C to Rockaway Ave; A, J, L, Z to Broadway Junction","B12, B20, B25, B60, B7, B83, Q24, Q56",https://tools.nycenet.edu/snapshot/2019/23K155/EMS,40.677479,-73.908756,"1355 Herkimer Street, Brooklyn NY 11233"
14K157,P.S./I.S. 157 The Benjamin Franklin Health & Scien,K-8,"PK,0K,01,02,03,04,05,06,07,08,SE","14",718-622-9285,https://www.schools.nyc.gov/Find-a-School,G to Classon Ave,"B38, B44, B44-SBS, B48, B54, B57, B62",https://tools.nycenet.edu/snapshot/2019/14K157/EMS,40.69519,-73.960049,"850 Kent Avenue, Brooklyn NY 11205"
32K162,J.H.S. 162 The Willoughby,Junior High-Intermediate-Middle,"06,07,08,SE","32",718-821-4860,https://www.IS162.com,L to Jefferson St,"B13, B38, B57, Q54",https://tools.nycenet.edu/snapshot/2019/32K162/EMS,40.706865,-73.919513,"1390 Willoughby Avenue, Brooklyn NY 11237"
20K163,P.S. 163 Bath Beach,K-8,"0K,01,02,03,04,05,06,07,08,SE","20",718-236-9003,https://www.schools.nyc.gov/Find-a-School,D to 18th Ave,"B1, B64, B8, X28, X38",https://tools.nycenet.edu/snapshot/2019/20K163/EMS,40.606658,-74.007232,"109 Bay 14th Street, Brooklyn NY 11214"
19K171,I.S. 171 Abraham Lincoln,Junior High-Intermediate-Middle,"06,07,08,SE","19",718-647-0111,https://www.schools.nyc.gov/Find-a-School,"J, Z to Crescent St","B13, Q24, Q56",https://tools.nycenet.edu/snapshot/2019/19K171/EMS,40.685851,-73.869284,"528 Ridgewood Avenue, Brooklyn NY 11208"
23K178,P.S. 178 Saint Clair Mckelway,K-8,"PK,0K,01,02,03,04,05,06,07,08,SE","23",718-495-7768,https://www.schools.nyc.gov/Find-a-School,C to Rockaway Ave,"B12, B14, B25, B45, B47, B60, B65, B7",https://tools.nycenet.edu/snapshot/2019/23K178/EMS,40.675603,-73.915566,"2163 Dean Street, Brooklyn NY 11233"
20K180,The SEEALL Academy,K-8,"PK,0K,01,02,03,04,05,06,07,08,SE","20",718-851-8070,https://www.seeallacademy.com,"D, N to 62nd St - New Utrecht Ave","B11, B16, B8, B9",https://tools.nycenet.edu/snapshot/2019/20K180/EMS,40.626531,-73.989473,"5601 16th Avenue, Brooklyn NY 11204"
17K181,P.S. 181 Brooklyn,K-8,"PK,0K,01,02,03,04,05,06,07,08,SE","17",718-462-5298,https://www.schools.nyc.gov/Find-a-School,"2, 5 to Church Ave","B35, B44, B44-SBS, B49, B8",https://tools.nycenet.edu/snapshot/2019/17K181/EMS,40.648475,-73.946105,"1023 New York Avenue, Brooklyn NY 11203"
23K184,P.S. 184 Newport,K-8,"PK,0K,01,02,03,04,05,06,07,08,SE","23",718-495-7775,https://www.schools.nyc.gov/Find-a-School,"L to New Lots Ave; 3 to Junius St","B14, B15, B35, B60, B8",https://tools.nycenet.edu/snapshot/2019/23K184/EMS,40.660145,-73.9049,"273 Newport Street, Brooklyn NY 11212"
20K187,The Christa McAuliffe School\I.S. 187,Junior High-Intermediate-Middle,"06,07,08,SE","20",718-236-3394,https://www.is187.com,"N to Fort Hamilton Parkway; D to 62nd St - New Utrecht Ave","B16, B64, B9",https://tools.nycenet.edu/snapshot/2019/20K187/EMS,40.628031,-74.003802,"1171 65th Street, Brooklyn NY 11219"
17K189,P.S. 189 The Bilingual Center,K-8,"0K,01,02,03,04,05,06,07,08,SE","17",718-756-0210,https://www.schools.nyc.gov/Find-a-School,"4 to Crown Hts-Utica Ave; 3 to Sutter Ave-Rutland Road","B12, B14, B15, B17, B45, B46, B46-SBS, B47, B65, B7",https://tools.nycenet.edu/snapshot/2019/17K189/EMS,40.665052,-73.925365,"1100 East New York Avenue, Brooklyn NY 11212"
20K192,P.S. 192 - The Magnet School for Math and Science,K-8,"PK,0K,01,02,03,04,05,06,07,08,SE","20",718-633-3061,https://www.ps-is192.org,F to 18th Ave,"B11, B8",https://tools.nycenet.edu/snapshot/2019/20K192/EMS,40.628617,-73.979489,"4715 18th Avenue, Brooklyn NY 11204"
20K201,J.H.S. 201 The Dyker Heights,Junior High-Intermediate-Middle,"06,07,08,SE","20",718-833-9363,https://www.is201k.org,N/A,"B1, B16, B4, B64, B70, X28, X38",https://tools.nycenet.edu/snapshot/2019/20K201/EMS,40.619081,-74.014027,"8010 12th Avenue, Brooklyn NY 11228"
22K206,P.S. 206 Joseph F Lamb,K-8,"0K,01,02,03,04,05,06,07,08,SE","22",718-743-5598,https://www.ps206brooklyn.org,Q to Neck Rd,"B3, B36, B44, B44-SBS, B49, BM3",https://tools.nycenet.edu/snapshot/2019/22K206/EMS,40.59693,-73.948416,"2200 Gravesend Neck Road, Brooklyn NY 11229"
22K207,P.S. 207 Elizabeth G. Leary,K-8,"PK,0K,01,02,03,04,05,06,07,08,SE","22",718-645-8667,https://www.schools.nyc.gov/Find-a-School,N/A,"B100, B2, B3, B41, B46, B46-SBS, B9, Q35",https://tools.nycenet.edu/snapshot/2019/22K207/EMS,40.613707,-73.930776,"4011 Fillmore Avenue, Brooklyn NY 11234"
21K209,P.S. 209 Margaret Mead,K-8,"PK,0K,01,02,03,04,05,06,07,08,SE","21",718-743-1954,https://www.schools.nyc.gov/Find-a-School,"B, Q to Sheepshead Bay","B1, B36, B4, B49, B68, BM3",https://tools.nycenet.edu/snapshot/2019/21K209/EMS,40.586816,-73.961462,"2609 East 7th Street, Brooklyn NY 11235"
18K211,I.S. 211 John Wilson,Junior High-Intermediate-Middle,"06,07,08,SE","18",718-251-4411,https://www.schools.nyc.gov/Find-a-School,L to Canarsie - Rockaway Parkway,"B103, B17, B42, B6, B60, B82, BM2",https://tools.nycenet.edu/snapshot/2019/18K211/EMS,40.643017,-73.89494,"1001 East 100th Street, Brooklyn NY 11236"
19K218,J.H.S. 218 James P. Sinnott,Junior High-Intermediate-Middle,"06,07,08,SE","19",718-647-9050,https://www.schools.nyc.gov/Find-a-School,"A, C to Euclid Ave","B13, B14, B15, B20, BM5, Q7, Q8",https://tools.nycenet.edu/snapshot/2019/19K218/EMS,40.669976,-73.87466,"370 Fountain Avenue, Brooklyn NY 11208"
20K220,J.H.S. 220 John J. Pershing,Junior High-Intermediate-Middle,"06,07,08,SE","20",718-633-8200,https://www.parent-portal.pershing220.org,D to Fort Hamilton Parkway,"B11, B16, B35, B70",https://tools.nycenet.edu/snapshot/2019/20K220/EMS,40.641136,-74.001197,"4812 9th Avenue, Brooklyn NY 11220"
20K223,J.H.S. 223 The Montauk,Junior High-Intermediate-Middle,"06,07,08,SE","20",718-438-0155,https://www.schools.nyc.gov/Find-a-School,F to Ditmas Ave,"B11, B16, B35, B67, B69, B8",https://tools.nycenet.edu/snapshot/2019/20K223/EMS,40.635253,-73.982267,"4200 16th Avenue, Brooklyn NY 11204"
21K225,P.S. K225 - The Eileen E. Zaglin,K-8,"PK,0K,01,02,03,04,05,06,07,08,SE","21",718-743-9793,https://www.schools.nyc.gov/Find-a-School,"B, Q to Brighton Beach","B1, B4, B49, B68, BM3",https://tools.nycenet.edu/snapshot/2019/21K225/EMS,40.580125,-73.955883,"1075 Ocean View Avenue, Brooklyn NY 11235"
21K226,P.S. 226 Alfred De B. Mason,K-8,"PK,0K,01,02,03,04,05,06,07,08,SE","21",718-234-4940,https://www.PSIS226.com,"N to Bay Parkway-22nd Ave; F to Ave N",B6,https://tools.nycenet.edu/snapshot/2019/21K226/EMS,40.615326,-73.976995,"6006 23rd Avenue, Brooklyn NY 11204"
20K227,J.H.S. 227 Edward B. Shallow,Junior High-Intermediate-Middle,"06,07,08,SE","20",718-256-8218,https://www.schools.nyc.gov/Find-a-School,"D, N to 62nd St - New Utrecht Ave","B4, B64, B8, B9",https://tools.nycenet.edu/snapshot/2019/20K227/EMS,40.622164,-73.995843,"6500 16th Avenue, Brooklyn NY 11204"
21K228,I.S. 228 David A. Boody,Junior High-Intermediate-Middle,"06,07,08,SE","21",718-375-7635,https://www.schools.nyc.gov/Find-a-School,"N to Ave U; F to Kings Highway","B3, B4, B82",https://tools.nycenet.edu/snapshot/2019/21K228/EMS,40.600425,-73.976607,"228 Avenue S, Brooklyn NY 11223"
20K229,P.S. 229 Dyker,K-8,"PK,0K,01,02,03,04,05,06,07,08,SE","20",718-236-5447,https://www.ps229.org,N/A,"B1, B64, B8, X28, X38",https://tools.nycenet.edu/snapshot/2019/20K229/EMS,40.610057,-74.013846,"1400 Benson Avenue, Brooklyn NY 11228"
22K234,J.H.S. 234 Arthur W. Cunningham,Junior High-Intermediate-Middle,"06,07,08,SE","22",718-645-1334,https://www.is234.com,"B, Q to Kings Highway","B100, B2, B3, B31, B49, B68, B7, B82, BM3",https://tools.nycenet.edu/snapshot/2019/22K234/EMS,40.604562,-73.955363,"1875 East 17th Street, Brooklyn NY 11229"
18K235,P.S. 235 Janice Marie Knight School,K-8,"PK,0K,01,02,03,04,05,06,07,08,SE","18",718-773-4869,https://www.schools.nyc.gov/Find-a-School,N/A,"B12, B35, B44, B44-SBS",https://tools.nycenet.edu/snapshot/2019/18K235/EMS,40.655162,-73.941096,"755 East 100th Street, Brooklyn NY 11236"
21K238,P.S. 238 Anne Sullivan,K-8,"PK,0K,01,02,03,04,05,06,07,08,SE","21",718-339-4355,https://www.schools.nyc.gov/Find-a-School,"F to Ave P; B, Q to Kings Highway","B100, B2, B31, B68, B7, B82, B9",https://tools.nycenet.edu/snapshot/2019/21K238/EMS,40.608795,-73.96451,"1633 East 8th Street, Brooklyn NY 11223"
21K239,Mark Twain I.S. 239 for the Gifted & Talented,Junior High-Intermediate-Middle,"06,07,08,SE","21",718-266-0814,https://www.is239.schoolwires.com,N/A,"B36, B74, B82, X28, X38",https://tools.nycenet.edu/snapshot/2019/21K239/EMS,40.578516,-73.992699,"2401 Neptune Avenue, Brooklyn NY 11224"
22K240,Andries Hudde,Junior High-Intermediate-Middle,"06,07,08,SE","22",718-253-3700,https://www.tinyurl.com/is240stemmagnet,N/A,"B11, B41, B44, B44-SBS, B49, B6, B7, B82, B9, BM1, BM3, BM4",https://tools.nycenet.edu/snapshot/2019/22K240/EMS,40.624017,-73.946714,"2500 Nostrand Avenue, Brooklyn NY 11210"
17K246,M.S. 246 Walt Whitman,Junior High-Intermediate-Middle,"06,07,08,SE","17",718-282-5230,https://www.schools.nyc.gov/Find-a-School,"2, 5 to Church Ave","B12, B35, B41, B44, B44-SBS, B49",https://tools.nycenet.edu/snapshot/2019/17K246/EMS,40.648644,-73.953585,"72 Veronica Place, Brooklyn NY 11226"
20K259,J.H.S. 259 William McKinley,Junior High-Intermediate-Middle,"06,07,08,SE","20",718-833-1000,https://www.mckinley259.org,N/A,"B16, B4, B63, B64, B70, X12, X14, X15, X17, X17A, X19, X3, X31, X4, X42, X5, X8, X9",https://tools.nycenet.edu/snapshot/2019/20K259/EMS,40.625895,-74.014655,"7305 Ft Hamilton Parkway, Brooklyn NY 11228"
13K265,Dr. Susan S. McKinney Secondary School of the Arts,Secondary School,"06,07,08,09,10,11,12,SE","13",718-834-6760,https://www.mckinneyssa.com,"B, Q, R to DeKalb Ave","B38, B54, B57, B62, B67, B69",https://tools.nycenet.edu/snapshot/2019/13K265/EMS,40.696954,-73.975927,"101 Park Avenue, Brooklyn NY 11205"
13K266,M.S. K266 - Park Place Community Middle School,Junior High-Intermediate-Middle,"06,07,08,SE","13",718-245-8766,https://www.parkplace266.org,"Q to 7th Ave; 4, 5, D, N, R to Atlantic Ave - Barclays Center; 2, 3 to Bergen St","B103, B37, B41, B45, B63, B65, B67, B69",https://tools.nycenet.edu/snapshot/2019/13K266/EMS,40.678904,-73.976505,"62 Park Place, Brooklyn NY 11217"
16K267,"M.S. 267 Math, Science & Technology",Junior High-Intermediate-Middle,"06,07,08,SE","16",718-574-2318,https://www.ms267.org,"Z to Gates Ave; J to Kosciusko St","B15, B26, B38, B43, B46, B46-SBS, B47, B52, Q24",https://tools.nycenet.edu/snapshot/2019/16K267/EMS,40.688072,-73.932268,"800 Gates Avenue, Brooklyn NY 11221"
22K278,J.H.S. 278 Marine Park,Junior High-Intermediate-Middle,"06,07,08,SE","22",718-375-3523,https://www.schools.nyc.gov/Find-a-School,N/A,"B100, B2, B3, B31, B36, B41, B44, B44-SBS, BM4",https://tools.nycenet.edu/snapshot/2019/22K278/EMS,40.606896,-73.938528,"1925 Stuart Street, Brooklyn NY 11229"
21K281,I.S. 281 Joseph B Cavallaro,Junior High-Intermediate-Middle,"06,07,08,SE","21",718-996-6706,https://www.is281.com,D to 25th Ave,"B1, B3, B4, B6, B64, B82, X28, X38",https://tools.nycenet.edu/snapshot/2019/21K281/EMS,40.594795,-73.993536,"8787 24th Avenue, Brooklyn NY 11214"
18K285,I.S. 285 Meyer Levin,Junior High-Intermediate-Middle,"06,07,08,SE","18",718-451-2200,https://www.meyerlevin18k285.com,N/A,"B17, B35, B46, B47, B7, B8",https://tools.nycenet.edu/snapshot/2019/18K285/EMS,40.647577,-73.920846,"5909 Beverly Road, Brooklyn NY 11203"
18K285,I.S. 285 Meyer Levin,Junior High-Intermediate-Middle,"06,07,08,SE","18",718-451-2200,https://www.meyerlevin18k285.com,N/A,"B17, B35, B46, B47, B7, B8",https://tools.nycenet.edu/snapshot/2019/18K285/EMS,40.648029,-73.920762,"5909 Beverly Road, Brooklyn NY 11203"
21K288,P.S. 288 The Shirley Tanyhill,K-8,"PK,0K,01,02,03,04,05,06,07,08,SE","21",718-382-2100,https://www.Facebook.com/288Eagles,N/A,"B36, B74, B82, X28, X38",https://tools.nycenet.edu/snapshot/2019/21K288/EMS,40.574272,-73.992274,"2950 West 25th Street, Brooklyn NY 11224"
32K291,J.H.S. 291 Roland Hayes,Junior High-Intermediate-Middle,"06,07,08,SE","32",718-574-0361,https://www.schools.nyc.gov/Find-a-School,"M to Knickerbocker Ave; L to Myrtle Ave-Wyckoff Ave","B13, B26, B52, B54, B60, Q55, Q58",https://tools.nycenet.edu/snapshot/2019/32K291/EMS,40.695937,-73.915515,"231 Palmetto Street, Brooklyn NY 11221"
19K292,J.H.S. 292 Margaret S. Douglas,Junior High-Intermediate-Middle,"06,07,08,SE","19",718-498-6562,https://www.schools.nyc.gov/Find-a-School,"L to Sutter Ave; C, J, Z to Van Siclen Ave; 3 to Pennsylvania Ave","B12, B14, B20, B25, B83, Q24, Q56",https://tools.nycenet.edu/snapshot/2019/19K292/EMS,40.671352,-73.893395,"301 Vermont Street, Brooklyn NY 11207"
19K292,J.H.S. 292 Margaret S. Douglas,Junior High-Intermediate-Middle,"06,07,08,SE","19",718-498-6562,https://www.schools.nyc.gov/Find-a-School,"L to Sutter Ave; C, J, Z to Van Siclen Ave; 3 to Pennsylvania Ave","B12, B14, B20, B25, B83, Q24, Q56",https://tools.nycenet.edu/snapshot/2019/19K292/EMS,40.67183,-73.893604,"301 Vermont Street, Brooklyn NY 11207"
13K301,Satellite East Middle School,Junior High-Intermediate-Middle,"06,07,08,SE","13",718-789-4251,https://www.schools.nyc.gov/Find-a-School,"G to Bedford-Nostrand; A, C to Nostrand Ave","B15, B25, B26, B38, B43, B44, B44-SBS, B52",https://tools.nycenet.edu/snapshot/2019/13K301/EMS,40.678787,-73.946233,"344 Monroe Street, Brooklyn NY 11216"
21K303,I.S. 303 Herbert S. Eisenberg,Junior High-Intermediate-Middle,"06,07,08,SE","21",718-996-0100,https://www.schools.nyc.gov/Find-a-School,"Q to West 8th St - NY Aquarium; Q to Ocean Parkway; F to Neptune Ave-Van Siclen","B1, B36, B4, B68, S54, S61, S62, S66, S91, S92, S93, X10, X10B, X11, X12, X42",https://tools.nycenet.edu/snapshot/2019/21K303/EMS,40.58234,-73.97202,"501 West Avenue, Brooklyn NY 11224"
21K303,I.S. 303 Herbert S. Eisenberg,Junior High-Intermediate-Middle,"06,07,08,SE","21",718-996-0100,https://www.schools.nyc.gov/Find-a-School,"Q to West 8th St - NY Aquarium; Q to Ocean Parkway; F to Neptune Ave-Van Siclen","B1, B36, B4, B68, S54, S61, S62, S66, S91, S92, S93, X10, X10B, X11, X12, X42",https://tools.nycenet.edu/snapshot/2019/21K303/EMS,40.582398,-73.971804,"501 West Avenue, Brooklyn NY 11224"
16K308,P.S. 308 Clara Cardwell,K-8,"PK,0K,01,02,03,04,05,06,07,08,SE","16",718-571-6960,https://www.schools.nyc.gov/Find-a-School,J to Kosciusko St,"B15, B26, B38, B43, B46, B46-SBS, B47, B52, Q24",https://tools.nycenet.edu/snapshot/2019/16K308/EMS,40.688526,-73.935712,"616 Quincy Street, Brooklyn NY 11221"
13K313,Dock Street School for STEAM Studies,Junior High-Intermediate-Middle,"06,07,08,SE","13",718-834-6774,https://www.dockstreetschool.nyc,"F to York St; A, C to High St; 2, 3 to Clark St","B103, B25, B26, B38, B52, B67, B69, X14, X2, X42, X5",https://tools.nycenet.edu/snapshot/2019/13K313/EMS,40.702829,-73.991939,"19 Dock Street, Brooklyn NY 11201"
14K318,I.S. 318 Eugenio Maria De Hostos,Junior High-Intermediate-Middle,"06,07,08,SE","14",718-782-0589,https://www.is318.com,"J, M to Lorimer St; G to Broadway","B15, B43, B44, B44-SBS, B46, B47, B48, B57, B60",https://tools.nycenet.edu/snapshot/2019/14K318/EMS,40.702878,-73.948925,"101 Walton Street, Brooklyn NY 11206"
23K323,P.S./I.S. 323,K-8,"PK,0K,01,02,03,04,05,06,07,08,SE","23",718-495-7781,https://www.schools.nyc.gov/Find-a-School,3 to Rockaway Ave,"B12, B14, B60, B7",https://tools.nycenet.edu/snapshot/2019/23K323/EMS,40.66636,-73.911019,"210 Chester Street, Brooklyn NY 11212"
17K340,I.S. 340,Junior High-Intermediate-Middle,"06,07,08,SE","17",718-857-5516,https://www.schools.nyc.gov/Find-a-School,"B, Q to 7th Ave; 2, 3 to Grand Army Plaza","B41, B45, B65, B67, B69",https://tools.nycenet.edu/snapshot/2019/17K340/EMS,40.676618,-73.970409,"227 Sterling Place, Brooklyn NY 11238"
32K347,I.S. 347 School of Humanities,Junior High-Intermediate-Middle,"06,07,08,SE","32",718-821-4248,https://www.schools.nyc.gov/Find-a-School,"M to Central Ave; L to Morgan Ave; J, Z to Myrtle Ave","B13, B38, B46, B47, B54, B57, B60",https://tools.nycenet.edu/snapshot/2019/32K347/EMS,40.700617,-73.927941,"35 Starr Street, Brooklyn NY 11221"
32K349,"I.S. 349 Math, Science & Tech.",Junior High-Intermediate-Middle,"06,07,08,09,SE","32",718-418-6389,https://www.schools.nyc.gov/Find-a-School,"M to Central Ave; L to Morgan Ave; J, Z to Myrtle Ave","B13, B38, B46, B47, B54, B57, B60",https://tools.nycenet.edu/snapshot/2019/32K349/EMS,40.700972,-73.927652,"35 Starr Street, Brooklyn NY 11221"
13K351,The Urban Assembly Unison School,Junior High-Intermediate-Middle,"06,07,08,SE","13",718-399-1061,https://www.uaunisonschool.org,"S to Franklin Ave; G to Classon Ave; C to Clinton-Washington","B25, B26, B38, B44, B44-SBS, B45, B48, B49, B52, B65, B69",https://tools.nycenet.edu/snapshot/2019/13K351/EMS,40.684562,-73.96063,"170 Gates Avenue, Brooklyn NY 11238"
17K352,Ebbets Field Middle School,Junior High-Intermediate-Middle,"06,07,08,SE","17",718-941-5097,https://www.efms352.org,"B, F, Q, S to Prospect Park; 2, 3, 4, 5 to Franklin Ave","B16, B41, B43, B44, B44-SBS, B48, B49",https://tools.nycenet.edu/snapshot/2019/17K352/EMS,40.664952,-73.959617,"46 Mckeever Place, Brooklyn NY 11225"
17K353,Elijah Stroud Middle School,Junior High-Intermediate-Middle,"05,06,07,08,SE","17",718-638-3067,https://www.ms353.org,"F, S to Park Place; 4, 5, C to Franklin Ave; 2, 3 to Eastern Parkway-Brooklyn Museum","B25, B41, B44-SBS, B45, B48, B49, B65, B69",https://tools.nycenet.edu/snapshot/2019/17K353/EMS,40.674798,-73.961356,"750 Classon Avenue, Brooklyn NY 11238"
17K354,The School of Integrated Learning,Junior High-Intermediate-Middle,"06,07,08,SE","17",718-774-0362,https://www.ms354.com,"3, 4 to Crown Hts-Utica Ave","B14, B15, B17, B25, B43, B45, B46, B46-SBS, B65",https://tools.nycenet.edu/snapshot/2019/17K354/EMS,40.67231,-73.937454,"1224 Park Place, Brooklyn NY 11213"
23K363,Brownsville Collaborative Middle School,Junior High-Intermediate-Middle,"0K,06,07,08,SE","23",718-495-1202,https://www.schools.nyc.gov/Find-a-School,L to Sutter Ave,"B12, B14, B25, B60, B7",https://tools.nycenet.edu/snapshot/2019/23K363/EMS,40.671293,-73.907616,"85 Watkins Street, Brooklyn NY 11212"
19K364,I.S. 364 Gateway,Junior High-Intermediate-Middle,"06,07,08,SE","19",718-642-3007,https://www.GatewayIS364.org,N/A,"B103, B13, B17, B82, B83, BM2, BM5",https://tools.nycenet.edu/snapshot/2019/19K364/EMS,40.64592,-73.880952,"1426 Freeport Loop, Brooklyn NY 11239"
18K366,The Science And Medicine Middle School,Junior High-Intermediate-Middle,"06,07,08,SE","18",718-688-6400,https://www.schools.nyc.gov/Find-a-School,L to East 105th St,"B103, B6, B60, B82, B83, BM2, BM5",https://tools.nycenet.edu/snapshot/2019/18K366/EMS,40.647168,-73.891857,"965 East 107th Street, Brooklyn NY 11236"
22K381,I. S. 381,Junior High-Intermediate-Middle,"06,07,08,SE","22",718-252-0058,https://www.schools.nyc.gov/Find-a-School,N/A,"B11, B41, B44, B44-SBS, B49, B6, B7, B82, B9, BM1, BM3, BM4",https://tools.nycenet.edu/snapshot/2019/22K381/EMS,40.623501,-73.946591,"2500 Nostrand Avenue, Brooklyn NY 11210"
17K382,Academy for College Preparation and Career Explora,Secondary School,"06,07,08,09,10,11,12,SE","17",718-564-2566,https://www.schools.nyc.gov/Find-a-School,"2, 5, B, Q to Church Ave","B103, B12, B16, B35, B41, B44, B44-SBS, B49, BM1, BM2, BM3, BM4",https://tools.nycenet.edu/snapshot/2019/17K382/EMS,40.649654,-73.957243,"911 Flatbush Avenue, Brooklyn NY 11226"
32K383,J.H.S. 383 Philippa Schuyler,Junior High-Intermediate-Middle,"05,06,07,08,SE","32",718-574-0390,https://www.philippaschuyler383.org,"M to Knickerbocker Ave; L to DeKalb Ave","B13, B26, B38, B52, B54, B60, Q55, Q58",https://tools.nycenet.edu/snapshot/2019/32K383/EMS,40.697912,-73.918882,"1300 Greene Avenue, Brooklyn NY 11237"
32K384,P.S. /I.S. 384 Frances E. Carter,K-8,"PK,0K,01,02,03,04,05,06,07,08,SE","32",718-642-4890,https://www.schools.nyc.gov/Find-a-School,L to Wilson Ave,"B20, B26",https://tools.nycenet.edu/snapshot/2019/32K384/EMS,40.690031,-73.904793,"242 Cooper Street, Brooklyn NY 11207"
23K392,I.S. 392,Junior High-Intermediate-Middle,"06,07,08,SE","23",718-498-2491,https://www.schools.nyc.gov/Find-a-School,3 to Sutter Ave - Rutland Road,"B12, B14, B15, B45, B47, B60, B65, B7",https://tools.nycenet.edu/snapshot/2019/23K392/EMS,40.665488,-73.918024,"104 Sutter Avenue, Brooklyn NY 11212"
17K394,M.S. K394,K-8,"PK,0K,01,02,03,04,05,06,07,08,SE","17",718-756-3164,https://www.schools.nyc.gov/Find-a-School,"A, C to Utica Ave; 3, 4 to Crown Hts-Utica Ave","B12, B14, B15, B17, B25, B45, B46, B46-SBS, B47, B65",https://tools.nycenet.edu/snapshot/2019/17K394/EMS,40.672681,-73.928742,"188 Rochester Avenue, Brooklyn NY 11213"
19K404,Academy for Young Writers,Secondary School,"06,07,08,09,10,11,12,SE","19",718-688-7230,https://www.young-writers.squarespace.com,N/A,"B100, B13, B20, B3, B41, B47, B6, B83, B84, BM1, BM5, Q8",https://tools.nycenet.edu/snapshot/2019/19K404/EMS,40.657192,-73.873798,"1065 Elton Street, Brooklyn NY 11208"
19K409,East New York Family Academy,Secondary School,"06,07,08,09,10,11,12,SE","19",718-927-0012,https://www.schools.nyc.gov/Find-a-School,3 to Van Siclen Ave,"B15, B20, B6, B83, B84, BM5",https://tools.nycenet.edu/snapshot/2019/19K409/EMS,40.673866,-73.896249,"2057 Linden Boulevard, Brooklyn NY 11207"
19K422,Spring Creek Community School,Secondary School,"06,07,08,09,10,11,12,SE","19",718-688-7200,https://www.sccsbrooklyn.org,N/A,"B100, B13, B20, B3, B41, B47, B6, B83, B84, BM1, BM5, Q8",https://tools.nycenet.edu/snapshot/2019/19K422/EMS,40.657174,-73.874029,"1065 Elton Street, Brooklyn NY 11208"
15K442,M.S. 442 Carroll Gardens School for Innovation,Junior High-Intermediate-Middle,"06,07,08,SE","15",718-222-6420,https://www.ms442.org,"F, G to 15th St-Prospect Park","B61, B63, B67, B68, B69",https://tools.nycenet.edu/snapshot/2019/15K442/EMS,40.657091,-73.982859,"500 19th Street, Brooklyn NY 11231"
15K443,New Voices School of Academic & Creative Arts,Junior High-Intermediate-Middle,"06,07,08,SE","15",718-965-0390,https://www.newvoicesbrooklyn.org,"R to Prospect Ave; F, G to 15th St-Prospect Park","B37, B61, B63, B67, B68, B69",https://tools.nycenet.edu/snapshot/2019/15K443/EMS,40.660921,-73.988461,"330 18th Street, Brooklyn NY 11215"
15K447,The Math & Science Exploratory School,Junior High-Intermediate-Middle,"06,07,08,SE","15",718-330-9328,https://www.ms447.org,"G to Fulton St; C to Lafayette Ave; A to Hoyt & Schermerhorn; 2, 3, 4, 5, B, D, N, Q, R to Atlantic Ave - Barclays Center","B103, B25, B26, B37, B38, B41, B45, B52, B63, B65, B67",https://tools.nycenet.edu/snapshot/2019/15K447/EMS,40.683749,-73.980566,"345 Dean Street, Brooklyn NY 11217"
15K448,Brooklyn Collaborative Studies,Secondary School,"06,07,08,09,10,11,12,SE","15",718-923-4700,https://www.bcs448.org,"F, G to Carroll St","B57, B61, X12, X14, X17, X17A, X19, X3, X31, X42, X5, X8, X9",https://tools.nycenet.edu/snapshot/2019/15K448/EMS,40.679541,-74.001797,"610 Henry Street, Brooklyn NY 11231"
19K452,Frederick Douglass Academy VIII Middle School,Junior High-Intermediate-Middle,"06,07,08,SE","19",718-348-2465,https://www.fdaviii.org,N/A,"B103, B13, B82, B83, BM2, BM5, Q8",https://tools.nycenet.edu/snapshot/2019/19K452/EMS,40.646909,-73.882094,"1400 Pennsylvania Avenue, Brooklyn NY 11239"
15K464,Park Slope Collegiate,Secondary School,"06,07,08,09,10,11,12,SE","15",718-832-4300,https://www.parkslopecollegiate.org,"R to 4th Ave - 9th St; F, G to 7th Ave","B103, B61, B63, B67, B69",https://tools.nycenet.edu/snapshot/2019/15K464/EMS,40.668966,-73.978637,"237 7 Avenue, Brooklyn NY 11215"
21K468,Kingsborough Early College School,Secondary School,"06,07,08,09,10,11,12,SE","21",718-333-7850,https://www.kecss.info,"N to Gravesend - 86th St; N to Ave U; D to 25th Ave","B1, B3, B4, B6, B64, B82, X28, X38",https://tools.nycenet.edu/snapshot/2019/21K468/EMS,40.592902,-73.986461,"2630 Benson Avenue, Brooklyn NY 11214"
17K484,Ronald Edmonds Learning Center II,Junior High-Intermediate-Middle,"06,07,08,SE","17",718-467-0306,https://www.schools.nyc.gov/Find-a-School,C to Ralph Ave,"B12, B14, B15, B25, B45, B47, B60, B65, B7",https://tools.nycenet.edu/snapshot/2019/17K484/EMS,40.673253,-73.920286,"430 Howard Avenue, Brooklyn NY 11233"
13K492,Academy of Arts and Letters,K-8,"0K,01,02,03,04,05,06,07,08,SE","13",718-222-1605,https://www.artsandlettersbklyn.org,"G to Clinton-Washington; C to Lafayette Ave","B25, B26, B38, B52, B54, B57, B62, B69",https://tools.nycenet.edu/snapshot/2019/13K492/EMS,40.69045,-73.970851,"225 Adelphi Street, Brooklyn NY 11205"
15K497,The Boerum Hill School for International Studies,Secondary School,"06,07,08,09,10,11,12,SE","15",718-330-9390,https://www.k497.org,"F, G to Bergen St; A, C to Hoyt & Schermerhorn","B103, B41, B45, B57, B61, B62, B63, B65, B67",https://tools.nycenet.edu/snapshot/2019/15K497/EMS,40.684898,-73.99329,"284 Baltic Street, Brooklyn NY 11201"
23K518,Kappa V (Knowledge and Power Preparatory Academy),Junior High-Intermediate-Middle,"06,07,08,SE","23",718-922-4690,https://www.schools.nyc.gov/Find-a-School,"L to New Lots Ave; 3 to Rockaway Ave","B15, B35, B60, B8",https://tools.nycenet.edu/snapshot/2019/23K518/EMS,40.655643,-73.906768,"985 Rockaway Avenue, Brooklyn NY 11212"
23K522,Mott Hall IV,Junior High-Intermediate-Middle,"06,07,08,SE","23",718-485-5240,https://www.schools.nyc.gov/Find-a-School,"J to Chauncey St; C to Rockaway Ave; A, L, Z to Broadway Junction","B12, B20, B25, B45, B47, B60, B65, B7, Q24",https://tools.nycenet.edu/snapshot/2019/23K522/EMS,40.678282,-73.915167,"1137 Herkimer Street, Brooklyn NY 11233"
13K527,Urban Assembly Institute of Math and Science for Y,Secondary School,"06,07,08,09,10,11,12,SE","13",718-260-2300,https://www.uainstitute.org,"G to Hoyt & Schermerhorn; B, Q to DeKalb Ave; A, C, F, R to Jay St-MetroTech; 2, 3, 4, 5 to Court St - CITY Hall","B103, B25, B26, B38, B41, B45, B52, B54, B57, B61, B62, B63, B65, B67, B69",https://tools.nycenet.edu/snapshot/2019/13K527/EMS,40.694881,-73.988556,"283 Adams Street, Brooklyn NY 11201"
17K543,"Science, Technology and Research Early College Hig",Secondary School,"06,07,08,09,10,11,12","17",718-564-2540,https://www.starearlycollege.org,"2, 5, B, Q to Church Ave","B103, B12, B16, B35, B41, B44, B44-SBS, B49, BM1, BM2, BM3, BM4",https://tools.nycenet.edu/snapshot/2019/17K543/EMS,40.649505,-73.956958,"911 Flatbush Avenue, Brooklyn NY 11226"
32K554,All City Leadership Secondary School,Secondary School,"06,07,08,09,10,11,12,SE","32",718-246-6500,https://www.schools.nyc.gov/Find-a-School,"L, M to Myrtle Ave-Wyckoff Ave","B13, B26, B38, B52, B54, B60, Q55, Q58",https://tools.nycenet.edu/snapshot/2019/32K554/EMS,40.697563,-73.913194,"321 Palmetto Street, Brooklyn NY 11237"
32K562,Evergreen Middle School for Urban Exploration,Junior High-Intermediate-Middle,"06,07,08,SE","32",718-455-0180,https://www.evergreen562.weebly.com,"L to Wilson Ave; J to Halsey St","B20, B26, B60, B7, Q24",https://tools.nycenet.edu/snapshot/2019/32K562/EMS,40.688741,-73.91072,"125 Covert Street, Brooklyn NY 11207"
14K577,Conselyea Preparatory School,Junior High-Intermediate-Middle,"06,07,08,SE","14",718-486-6211,https://www.ms577.net,"L to Bedford Ave; J, M, Z to Marcy Ave; G to Metropolitan Ave-Lorimer St","B24, B32, B39, B44, B44-SBS, B46, B48, B60, B62, Q54, Q59",https://tools.nycenet.edu/snapshot/2019/14K577/EMS,40.715118,-73.957181,"208 North 5th Street, Brooklyn NY 11211"
18K581,"The Middle School of Media, Law and Fine Arts",Junior High-Intermediate-Middle,"06,07,08,SE","18",718-773-3059,https://www.eastflatBUShcrs.org,N/A,"B12, B15, B17, B35, B46, B46-SBS, B47, B7",https://tools.nycenet.edu/snapshot/2019/18K581/EMS,40.659224,-73.928507,"905 Winthrop Street, Brooklyn NY 11203"
14K582,M.S. 582,Junior High-Intermediate-Middle,"06,07,08,SE","14",718-456-8218,https://www.Magnet582.com,L to Montrose Ave,"B24, B43, B48, B57, B60, Q54, Q59",https://tools.nycenet.edu/snapshot/2019/14K582/EMS,40.708785,-73.939369,"207 Bushwick Avenue, Brooklyn NY 11206"
14K586,Lyons Community School,Secondary School,"06,07,08,09,10,11,12,SE","14",718-782-0918,https://www.lyonscommunityschool.org,"L to Grand St; J, M to Lorimer St; G to Metropolitan Ave-Lorimer St","B24, B43, B46, B48, B60, Q54, Q59, S54, S57, S61, X10, X10B, X11",https://tools.nycenet.edu/snapshot/2019/14K586/EMS,40.709542,-73.944308,"223 Graham Avenue, Brooklyn NY 11206"
18K588,Middle School for Art and Philosophy,Junior High-Intermediate-Middle,"06,07,08,SE","18",718-342-7563,https://www.ms-ap.org,3 to Saratoga Ave,"B15, B17, B35, B47, B7, B8",https://tools.nycenet.edu/snapshot/2019/18K588/EMS,40.657913,-73.92003,"1084 Lenox Road, Brooklyn NY 11212"
17K590,Medgar Evers College Preparatory School,Secondary School,"06,07,08,09,10,11,12,SE","17",718-703-5400,https://www.mecps.org,"4, S to Franklin Ave; 3toNostrand Ave; 2, 5 to President St","B43, B44, B44-SBS, B45, B48, B49",https://tools.nycenet.edu/snapshot/2019/17K590/EMS,40.666914,-73.951553,"1186 Carroll Street, Brooklyn NY 11225"
20K609,Urban Assembly School for Criminal Justice,Secondary School,"06,07,08,09,10,11,12,SE","20",718-438-3893,https://www.uascriminaljustice.org,F to Ditmas Ave,"B11, B16, B35, B67, B69, B8",https://tools.nycenet.edu/snapshot/2019/20K609/EMS,40.63521,-73.982496,"4200 16th Avenue, Brooklyn NY 11204"
14K614,Young Women's Leadership School of Brooklyn,Secondary School,"06,07,08,09,10,11,12,SE","14",718-387-5641,https://www.tywlsbrooklyn.org,"L to Montrose Ave; J, M to Flushing Ave","B15, B43, B46, B47, B48, B57, B60, Q54, Q59",https://tools.nycenet.edu/snapshot/2019/14K614/EMS,40.705284,-73.938901,"325 Bushwick Avenue, Brooklyn NY 11206"
23K644,Eagle Academy for Young Men II,Secondary School,"06,07,08,09,10,11,12,SE","23",718-495-0863,https://www.eagleny.org,"J to Chauncey St; C to Rockaway Ave; A, L, Z to Broadway Junction","B12, B20, B25, B45, B47, B60, B65, B7, Q24",https://tools.nycenet.edu/snapshot/2019/23K644/EMS,40.677859,-73.914917,"1137 Herkimer Street, Brooklyn NY 11233"
19K654,Van Siclen Community Middle School,Junior High-Intermediate-Middle,"06,07,08,SE","19",718-927-4701,https://www.vscschool.org,3 to Van Siclen Ave,"B15, B20, B6, B82, B83, B84, BM2, BM5",https://tools.nycenet.edu/snapshot/2019/19K654/EMS,40.659863,-73.885918,"800 Van Siclen Ave, Brooklyn NY 11207"
19K661,Vista Academy,Junior High-Intermediate-Middle,"06,07,08,SE","19",718-647-0913,https://www.vistaacademybrooklyn.com,"Z to Norwood Ave; J to Cleveland St; C to Shepherd Ave","B14, Q24, Q56, Q8",https://tools.nycenet.edu/snapshot/2019/19K661/EMS,40.677197,-73.884181,"350 Linwood Street, Brooklyn NY 11208"
19K662,Liberty Avenue Middle School,Junior High-Intermediate-Middle,"06,07,08,SE","19",718-647-1301,https://www.libertyavems.com,"Z to Norwood Ave; J to Cleveland St; C to Shepherd Ave","B14, Q24, Q56, Q8",https://tools.nycenet.edu/snapshot/2019/19K662/EMS,40.677164,-73.884236,"350 Linwood Street, Brooklyn NY 11208"
19K663,School of the Future Brooklyn,Junior High-Intermediate-Middle,"06,07,08,SE","19",718-345-5190,https://www.sofbrooklyn.org,"L to Livonia Ave; 3 to Pennsylvania Ave","B14, B15, B20, B83",https://tools.nycenet.edu/snapshot/2019/19K663/EMS,40.665325,-73.897533,"574 Dumont Avenue, Brooklyn NY 11207"
23K664,Brooklyn Environmental Exploration School (BEES),Junior High-Intermediate-Middle,"06,07,08,SE","23",718-453-3039,https://www.brooklynbees.org,"L to Bushwick - Aberdeen; J to Chauncey St; C to Rockaway Ave; A, Z to Broadway Junction","B12, B20, B25, B26, B60, B7, B83, Q24, Q56",https://tools.nycenet.edu/snapshot/2019/23K664/EMS,40.680771,-73.910562,"251 Mac Dougal Street, Brooklyn NY 11233"
23K668,Riverdale Avenue Middle School,Junior High-Intermediate-Middle,"06,07,08,SE","23",718-346-0764,https://www.schools.nyc.gov/Find-a-School,3 to Saratoga Ave,"B15, B35, B47, B60, B7, B8",https://tools.nycenet.edu/snapshot/2019/23K668/EMS,40.65954,-73.913671,"76 Riverdale Avenue, Brooklyn NY 11212"
23K671,Mott Hall Bridges Academy,Junior High-Intermediate-Middle,"06,07,08,SE","23",718-345-6912,https://www.mhbabrooklyn.com,3 to Rockaway Ave,"B12, B14, B60, B7",https://tools.nycenet.edu/snapshot/2019/23K671/EMS,40.666177,-73.911492,"210 Chester Street, Brooklyn NY 11212"
19K678,East New York Middle School of Excellence,Junior High-Intermediate-Middle,"06,07,08,SE","19",718-257-4061,https://www.schools.nyc.gov/Find-a-School,"C to Shepherd Ave; 3 to New Lots Ave","B13, B14, B15, B20, B6, B84, BM5, Q8",https://tools.nycenet.edu/snapshot/2019/19K678/EMS,40.669119,-73.879219,"605 Shepherd Avenue, Brooklyn NY 11208"
16K681,Madiba Prep Middle School,Junior High-Intermediate-Middle,"06,07,08,SE","16",718-574-2804,https://www.MadibaPrep.com,"M, Z to Myrtle Ave; J to Kosciusko St","B15, B38, B46, B46-SBS, B47, B52, B54, Q24",https://tools.nycenet.edu/snapshot/2019/16K681/EMS,40.692277,-73.931764,"1014 Lafayette Avenue, Brooklyn NY 11221"
16K681,Madiba Prep Middle School,Junior High-Intermediate-Middle,"06,07,08,SE","16",718-574-2804,https://www.MadibaPrep.com,"M, Z to Myrtle Ave; J to Kosciusko St","B15, B38, B46, B46-SBS, B47, B52, B54, Q24",https://tools.nycenet.edu/snapshot/2019/16K681/EMS,40.692229,-73.931803,"1014 Lafayette Avenue, Brooklyn NY 11221"
20K686,Brooklyn School of Inquiry,K-8,"0K,01,02,03,04,05,06,07,08,SE","20",718-621-5730,https://www.bsi686.org,N to Kings Highway,"B4, B6, B82",https://tools.nycenet.edu/snapshot/2019/20K686/EMS,40.606955,-73.986656,"50 Avenue P, Brooklyn NY 11204"
21K690,Brooklyn Studio Secondary School,Secondary School,"06,07,08,09,10,11,12,SE","21",718-266-5032,https://www.brooklynstudio.org,D to 20th Ave,"B1, B4, B6, B64, B8, B82",https://tools.nycenet.edu/snapshot/2019/21K690/EMS,40.60523,-73.994926,"8310 21st Avenue, Brooklyn NY 11214"
13K691,Fort Greene Preparatory Academy,Junior High-Intermediate-Middle,"06,07,08,SE","13",718-254-9401,https://www.fortgreeneprep.org,G to Clinton-Washington,"B38, B54, B57, B62, B67, B69",https://tools.nycenet.edu/snapshot/2019/13K691/EMS,40.694255,-73.971511,"100 Clermont Avenue, Brooklyn NY 11205"
17K722,New Heights Middle School,Junior High-Intermediate-Middle,"06,07,08,SE","17",718-467-4501,https://www.newheightsms.org,"3, 4 to Crown Hts-Utica Ave","B12, B17, B43, B46, B46-SBS",https://tools.nycenet.edu/snapshot/2019/17K722/EMS,40.662297,-73.936314,"790 East New York Avenue, Brooklyn NY 11203"
19K760,Highland Park Community School,Junior High-Intermediate-Middle,"06,07,08,SE","19",718-235-1785,https://www.highlandparkschool.org,"J, Z to Crescent St","B13, Q24, Q56",https://tools.nycenet.edu/snapshot/2019/19K760/EMS,40.685772,-73.869562,"528 Ridgewood Avenue, Brooklyn NY 11208"
18K763,Brooklyn Science and Engineering Academy,Junior High-Intermediate-Middle,"06,07,08,SE","18",718-240-3790,https://www.brooklynsea.org,N/A,"B17, B35, B46, B46-SBS, B47, B7, B8",https://tools.nycenet.edu/snapshot/2019/18K763/EMS,40.648002,-73.925889,"5404 Tilden Avenue, Brooklyn NY 11203"
15K821,Sunset Park Prep,Junior High-Intermediate-Middle,"06,07,08,SE","15",718-840-1951,https://www.sunsetparkprep.com,"R to 45th St; D, N, R to 36th St - 4 Ave","B11, B35, B37, B63, B70",https://tools.nycenet.edu/snapshot/2019/15K821/EMS,40.652059,-74.007675,"4004 4th Avenue, Brooklyn NY 11232"
15K839,M.S. 839,Junior High-Intermediate-Middle,"06,07,08,SE","15",718-686-2730,https://www.ms839.org,"F, G to Fort Hamilton Parkway","B103, B16, B35, B67, B68, B69, BM3, BM4",https://tools.nycenet.edu/snapshot/2019/15K839/EMS,40.647609,-73.973425,"713 Caton Avenue, Brooklyn NY 11218"
22K890,M.S. 890,Junior High-Intermediate-Middle,"06,07,08,SE","22",929-397-9200,https://www.ms890.org,"F, G, to Fort Hamilton Parkway; Q to Beverley Road","B103, B16, B35, B68, BM3, BM4",https://tools.nycenet.edu/snapshot/2019/22K890/EMS,40.644958,-73.971158,"510 Coney Island Avenue, Brooklyn NY 11218"
16K898,The Brooklyn Green School,Junior High-Intermediate-Middle,"06,07,SE","16",718-574-2834,https://www.d16brooklyn.com/new-middle-school-16k898,"A, C to Utica Ave","B15,B25,B26,B43,B46,B46-SBS,B52,B65",https://tools.nycenet.edu/snapshot/2019/16K898/EMS,40.674773,-73.928917,"130RochesterAve,BrooklynNY11213"
19K907,Legacy School of the Arts,Junior High-Intermediate-Middle,"06,07,SE","19","718-240-2700, ext. 2034",https://www.schools.nyc.gov/Find-a-School,"L to New Lots Ave; 3 to Pennsylvania Ave",": B14, B15, B20, B83",https://tools.nycenet.edu/snapshot/2019/19K907/EMS,40.662196,-73.894854,"590 Sheffield Ave, Brooklyn, NY 11207"
04M007,P.S. 007 Samuel Stern,K-8,"PK,0K,01,02,03,04,05,06,07,08,SE","4",212-860-5827,https://www.schools.nyc.gov/Find-a-School,"6 to 116th St; 4, 5 to 125th St","Bx15, BxM10, BxM3, BxM4, BxM6, BxM7, BxM8, BxM9, M1, M100, M101, M102, M103, M116, M15, M15-SBS, M35, M60-SBS, M98",https://tools.nycenet.edu/snapshot/2019/04M007/EMS,40.800834,-73.939212,"160 East 120th Street, Manhattan NY 10035"
04M012,Tag Young Scholars,K-8,"0K,01,02,03,04,05,06,07,08","4",212-860-6003,https://www.tagscholars.com,6 to 110th St,"M1, M101, M102, M103, M106, M116, M15, M15-SBS, M2, M3, M4, M96, M98",https://tools.nycenet.edu/snapshot/2019/04M012/EMS,40.792449,-73.942406,"240 East 109th Street, Manhattan NY 10029"
06M018,P.S. 018 Park Terrace,K-8,"0K,01,02,03,04,05,06,07,08,SE","6",917-521-2220,https://www.schools.nyc.gov/Find-a-School,"A to Inwood - 207th St; 1 to Marble Hill - 225th St","Bx12, Bx12-SBS, Bx20, Bx3, Bx32, Bx7, Bx9, BxM1, BxM18, BxM2, BxM3, M100",https://tools.nycenet.edu/snapshot/2019/06M018/EMS,40.871287,-73.91176,"4124 9th Avenue, Manhattan NY 10034"
01M034,P.S. 034 Franklin D. Roosevelt,K-8,"PK,0K,01,02,03,04,05,06,07,08,SE","1",212-228-4433,https://www.sites.google.com/site/fdracademy34,L to 1st Ave,"M14A, M14D, M21, M23, M8, M9, X14, X2, X42, X5",https://tools.nycenet.edu/snapshot/2019/01M034/EMS,40.726253,-73.975332,"730 East 12th Street, Manhattan NY 10009"
05M046,P.S. 046 Arthur Tappan,K-8,"PK,0K,01,02,03,04,05,06,07,08,SE","5",212-360-1519,https://www.schools.nyc.gov/Find-a-School,"B, C, D to 155th St; 1 to 157th St","Bx13, Bx6, M10, M100, M101, M2, M3, M4, M5",https://tools.nycenet.edu/snapshot/2019/05M046/EMS,40.830136,-73.93613,"2987 Frederick Douglass Boulevard, Manhattan NY 10039"
06M052,Harold O. Levy School,Junior High-Intermediate-Middle,"06,07,08,SE","6",212-567-9162,https://www.inwood52.com & www.apple.com/connectED/,"A to Dyckman St-200th St; 1 to Dyckman St","Bx12, Bx12-SBS, Bx20, Bx7, BxM1, M100, M3, M4",https://tools.nycenet.edu/snapshot/2019/06M052/EMS,40.865764,-73.925358,"650 Academy Street, Manhattan NY 10034"
03M054,J.H.S. 054 Booker T. Washington,Junior High-Intermediate-Middle,"06,07,08,SE","3",212-678-2861,https://www.ms54.org,"B, C to Cathedral Parkway-110th St; 1 to 103rd St","M10, M104, M11, M116, M2, M3, M4, M5, M60-SBS, M7",https://tools.nycenet.edu/snapshot/2019/03M054/EMS,40.800411,-73.963242,"103 West 107th Street, Manhattan NY 10025"
04M057,James Weldon Johnson,K-8,"PK,0K,01,02,03,04,05,06,07,08,SE","4",212-876-5522,https://www.schools.nyc.gov/Find-a-School,6 to 116th St,"BxM10, BxM6, BxM7, BxM8, BxM9, M1, M101, M102, M103, M106, M116, M15, M15-SBS, M2, M3, M35, M4, M98",https://tools.nycenet.edu/snapshot/2019/04M057/EMS,40.797187,-73.941679,"176 East 115th Street, Manhattan NY 10029"
04M072,The Lexington Academy,K-8,"PK,0K,01,02,03,04,05,06,07,08,SE","4",212-860-5831,https://www.lexingtonacademy.info,6 to 103rd St,"BxM1, BxM11, BxM2, BxM3, BxM4, M1, M101, M102, M103, M106, M15, M15-SBS, M2, M3, M4, M96, M98",https://tools.nycenet.edu/snapshot/2019/04M072/EMS,40.791366,-73.947603,"131 East 104th Street, Manhattan NY 10029"
03M076,P.S. 076 A. Philip Randolph,K-8,"PK,0K,01,02,03,04,05,06,07,08,SE","3",212-678-2865,https://www.schools.nyc.gov/Find-a-School,"B, C to 116th St; 2, 3, A, D to 125th St","Bx15, BxM3, BxM4, M1, M10, M100, M101, M102, M104, M11, M116, M2, M3, M60-SBS, M7",https://tools.nycenet.edu/snapshot/2019/03M076/EMS,40.80641,-73.951467,"220 West 121st Street, Manhattan NY 10027"
04M096,P.S. 096 Joseph Lanzetta,K-8,"PK,0K,01,02,03,04,05,06,07,08,SE","4",212-860-5851,https://www.ps96school.com,"6 to 116th St; 4, 5 to 125th St","Bx15, BxM10, BxM3, BxM4, BxM6, BxM7, BxM8, BxM9, M1, M100, M101, M102, M103, M116, M15, M15-SBS, M35, M60-SBS, M98",https://tools.nycenet.edu/snapshot/2019/04M096/EMS,40.799716,-73.93688,"216 East 120nd Street, Manhattan NY 10035"
02M104,J.H.S. 104 Simon Baruch,Junior High-Intermediate-Middle,"06,07,08,SE","2",212-674-4545,https://www.104m.org,"L to 1st Ave; 6 to 23rd St; 4, 5, N, Q, R to 14th St-Union Square","BM1, BM2, BM3, BM4, M1, M101, M102, M103, M14A, M14D, M15, M15-SBS, M2, M23, M3, M34A-SBS, M9, QM21, X1, X10, X10B, X12, X14, X17, X2, X37, X38, X42, X5, X63, X64, X68, X7",https://tools.nycenet.edu/snapshot/2019/02M104/EMS,40.736078,-73.980759,"330 East 21st Street, Manhattan NY 10010"
04M108,P.S. 108 Assemblyman Angelo Del Toro Educational C,K-8,"PK,0K,01,02,03,04,05,06,07,08,SE","4",212-860-5803,https://www.108schoolofauthors.org,"6 to 110th St; 2, 3 to Central Park North-110th St","BxM11, BxM2, BxM3, BxM4, M1, M101, M102, M103, M106, M116, M15, M15-SBS, M2, M3, M4, M98",https://tools.nycenet.edu/snapshot/2019/04M108/EMS,40.79501,-73.947689,"1615 Madison Avenue, Manhattan NY 10029"
02M114,East Side Middle School,Junior High-Intermediate-Middle,"06,07,08,SE","2",212-360-0114,https://www.esms.org,"6 to 96th St; 4, 5 to 86th St","BxM1, BxM10, BxM6, BxM7, BxM8, BxM9, M101, M102, M103, M15, M15-SBS, M31, M86-SBS, M96, M98",https://tools.nycenet.edu/snapshot/2019/02M114/EMS,40.780606,-73.947413,"331 East 91st Street, Manhattan NY 10128"
05M123,P.S. 123 Mahalia Jackson,K-8,"PK,0K,01,02,03,04,05,06,07,08,SE","5",212-342-6200,https://www.ps123.org,"3, A, D to 145th St; 2, B, C to 135th St; 1 to 137th St - City College","Bx19, Bx33, M1, M10, M100, M101, M102, M11, M2, M3, M4, M5, M7",https://tools.nycenet.edu/snapshot/2019/05M123/EMS,40.820235,-73.944683,"301 West 140th Street, Manhattan NY 10030"
02M126,P.S. 126 Jacob August Riis,K-8,"PK,0K,01,02,03,04,05,06,07,08,SE","2",212-962-2188,https://www.ps126mat.com,"F to East Broadway; 4, 5, 6, J, Z to Chambers St","BM1, BM2, BM3, BM4, M103, M15, M15-SBS, M22, M9, QM11, QM25, QM7, QM8, X14, X15, X2, X42, X5, X8",https://tools.nycenet.edu/snapshot/2019/02M126/EMS,40.710487,-73.997619,"80 Catherine Street, Manhattan NY 10038"
05M129,P.S. 129 John H. Finley,K-8,"PK,0K,01,02,03,04,05,06,07,08,SE","5",212-690-5932,https://www.schools.nyc.gov/Find-a-School,"1, A, B, C, D to 125th St","Bx15, Bx33, M10, M100, M101, M104, M11, M2, M3, M4, M5, M60-SBS",https://tools.nycenet.edu/snapshot/2019/05M129/EMS,40.814643,-73.952277,"425 West 130th Street, Manhattan NY 10027"
02M131,M.S. 131,Junior High-Intermediate-Middle,"06,07,08,SE","2",212-219-1204,https://www.ms131.org,"M to Delancey St-Essex St; J, Z to Bowery; F to East Broadway; B, D to Grand St; 6, N, Q, R to Canal St","B39, BxM18, M103, M14A, M15, M15-SBS, M22, M5, M9, X1, X10, X12, X17, X27, X28",https://tools.nycenet.edu/snapshot/2019/02M131/EMS,40.716472,-73.993652,"100 Hester Street, Manhattan NY 10002"
01M140,P.S. 140 Nathan Straus,K-8,"PK,0K,01,02,03,04,05,06,07,08,SE","1",212-677-4680,https://www.schools.nyc.gov/Find-a-School,"F, J, M, Z to Delancey St-Essex St","B39, M14A, M14D, M15, M15-SBS, M21, M22, M9",https://tools.nycenet.edu/snapshot/2019/01M140/EMS,40.719286,-73.983727,"123 Ridge Street, Manhattan NY 10002"
06M143,J.H.S. 143 Eleanor Roosevelt,Junior High-Intermediate-Middle,"06,07,08,SE","6",212-927-7739,https://www.is143.org,"1, A to 181st St","Bx11, Bx13, Bx18, Bx3, Bx35, Bx36, Bx7, M100, M101, M3, M4, M5, M98",https://tools.nycenet.edu/snapshot/2019/06M143/EMS,40.849113,-73.93112,"511 West 182nd Street, Manhattan NY 10033"
05M148,Eagle Academy for Young Men of Harlem,Secondary School,"06,07,08,09,10,11,12,SE","5",212-694-6001,https://www.eagleharlem.org,"A, D to 125th St; 2, 3, B, C to 135th St; 1 to 137th St - City College","Bx19, Bx33, M1, M10, M100, M101, M102, M104, M11, M2, M3, M4, M5, M7",https://tools.nycenet.edu/snapshot/2019/05M148/EMS,40.817136,-73.94727,"6 Edgecombe Avenue, Manhattan NY 10030"
03M149,P.S. 149 Sojourner Truth,K-8,"PK,0K,01,02,03,04,05,06,07,08,SE","3",646-672-9020,https://www.sojournertruthschool.org,"2, 3, 6, B, C to 116th St","Bx15, BxM3, BxM4, M1, M10, M100, M101, M102, M103, M116, M2, M3, M4, M60-SBS, M7, M98",https://tools.nycenet.edu/snapshot/2019/03M149/EMS,40.802787,-73.948341,"41 West 117th Street, Manhattan NY 10026"
05M161,P.S. 161 Pedro Albizu Campos,K-8,"0K,01,02,03,04,05,06,07,08,SE","5",212-690-5945,https://www.psms161.org,"B, C to 135th St; A, D to 125th St; 1 to 137th St - City College","Bx15, Bx33, M10, M100, M101, M104, M11, M2, M3, M4, M5, M60-SBS",https://tools.nycenet.edu/snapshot/2019/05M161/EMS,40.817728,-73.952553,"499 West 133rd Street, Manhattan NY 10027"
02M167,J.H.S. 167 Robert F. Wagner,Junior High-Intermediate-Middle,"06,07,08,SE","2",212-535-8610,https://www.wagner167.org,6 to 77th St,"BxM1, BxM10, BxM11, BxM2, BxM3, BxM4, BxM6, BxM7, BxM8, BxM9, M1, M101, M102, M103, M15, M15-SBS, M2, M3, M31, M4, M66, M72, M79, M98",https://tools.nycenet.edu/snapshot/2019/02M167/EMS,40.771428,-73.957745,"220 East 76th Street, Manhattan NY 10021"
04M171,P.S. 171 Patrick Henry,K-8,"PK,0K,01,02,03,04,05,06,07,08,SE","4",212-860-5801,https://www.ps171.org,"6 to 103rd St; 2, 3 to Central Park North-110th St","BxM1, BxM11, BxM2, BxM3, BxM4, M1, M101, M102, M103, M106, M15, M15-SBS, M2, M3, M4, M96, M98",https://tools.nycenet.edu/snapshot/2019/04M171/EMS,40.792463,-73.951367,"19 East 103rd Street, Manhattan NY 10029"
02M177,Yorkville East Middle School,Junior High-Intermediate-Middle,"06,07,08,SE","2",917-432-5413,https://www.ms177.org,N/A,"BxM1, M101, M102, M103, M15, M15-SBS, M31, M66, M72, M79, M86-SBS, M98, Q102",https://tools.nycenet.edu/snapshot/2019/02M177/EMS,40.770388,-73.950725,"1458 York Avenue, Manhattan NY 10075"
03M180,P.S. 180 Hugo Newman,K-8,"PK,0K,01,02,03,04,05,06,07,08,SE","3",212-678-2849,https://www.hugonewmanprep.org,"A, D to 125th St; 2, 3, B, C to 116th St; 1 to 116th St - Columbia University","Bx15, M10, M100, M101, M102, M104, M11, M116, M2, M3, M4, M5, M60-SBS, M7",https://tools.nycenet.edu/snapshot/2019/03M180/EMS,40.807568,-73.955699,"370 West 120th Street, Manhattan NY 10027"
01M184,P.S. 184m Shuang Wen,K-8,"PK,0K,01,02,03,04,05,06,07,08,SE","1",212-602-9700,https://www.ps184m.org,"J, M, Z to Delancey St-Essex St; F to East Broadway","M14A, M14D, M15, M15-SBS, M21, M22, M9, X14, X37, X38",https://tools.nycenet.edu/snapshot/2019/01M184/EMS,40.710888,-73.985567,"327 Cherry Street, Manhattan NY 10002"
06M187,P.S./I.S. 187 Hudson Cliffs,K-8,"PK,0K,01,02,03,04,05,06,07,08,SE","6",212-927-8218,https://www.187hudsoncliffs.org,"A to 190th St; 1 to 191st St","Bx11, Bx13, Bx3, Bx35, Bx36, Bx7, M100, M101, M3, M4, M98",https://tools.nycenet.edu/snapshot/2019/06M187/EMS,40.856491,-73.936945,"349 Cabrini Boulevard, Manhattan NY 10040"
01M188,P.S. 188 The Island School,K-8,"PK,0K,01,02,03,04,05,06,07,08,SE","1",212-677-5710,https://www.island188.org,N/A,"M14A, M14D, M21, M22, M8, M9",https://tools.nycenet.edu/snapshot/2019/01M188/EMS,40.719713,-73.977662,"442 East Houston Street, New York NY 10002"
03M191,The Riverside School for Makers and Artists,K-8,"PK,0K,01,02,03,04,05,06,07,08,SE","3",212-757-4343,https://www.museummagnet.com,"2, A, B, C, D to 59th St-ColumBUS Circle; 1 to 66th St - Lincoln Center","BxM2, M10, M104, M11, M12, M20, M31, M5, M57, M66, M7, M72, X12, X14, X30, X42",https://tools.nycenet.edu/snapshot/2019/03M191/EMS,40.772115,-73.990993,"210 West 61st Street, New York NY 10023"
04M206,P.S. 206 Jose Celso Barbosa,K-8,"03,04,05,06,07,08,SE","4",212-860-5809,https://www.schools.nyc.gov/Find-a-School,N/A,"Bx15, BxM10, BxM6, BxM7, BxM8, BxM9, M100, M101, M103, M116, M15, M15-SBS, M35, M60-SBS",https://tools.nycenet.edu/snapshot/2019/04M206/EMS,40.79699,-73.930683,"508 East 120th Street, Manhattan NY 10035"
06M209,Hamilton Grange Middle School,Junior High-Intermediate-Middle,"06,07,08,SE","6",212-775-9600,https://www.thehamiltongrangeschool.org,"B, C to 135th St; A, D to 145th St; 1 to 137th St - City College","Bx15, Bx19, Bx33, M10, M100, M101, M104, M11, M3, M4, M5",https://tools.nycenet.edu/snapshot/2019/06M209/EMS,40.820678,-73.952185,"500 West 138th Street, Manhattan NY 10031"
06M210,P.S./I.S. 210 - Twenty-first Century Academy for C,K-8,"PK,0K,01,02,03,04,05,06,07,08,SE","6",212-283-0012,https://www.schools.nyc.gov/Find-a-School,"C to 155th St; A, B, D to 145th St; 1 to 157th St","Bx19, Bx6, M10, M100, M101, M11, M2, M3, M4, M5",https://tools.nycenet.edu/snapshot/2019/06M210/EMS,40.829864,-73.944663,"501-503 West 152nd Street, Manhattan NY 10031"
02M217,P.S./I.S. 217 Roosevelt Island,K-8,"PK,0K,01,02,03,04,05,06,07,08","2",212-980-0294,https://www.217pta.com,F to Roosevelt Island,"M15, M31, M66, M72, M79, Q102, Q103, Q104",https://tools.nycenet.edu/snapshot/2019/02M217/EMS,40.75374,-73.956315,"645 Main Street, Manhattan NY 10044"
06M223,The Mott Hall School,Junior High-Intermediate-Middle,"06,07,08,SE","6",212-281-5028,https://www.themotthall.org,"B, C to 135th St; 1, A, D to 125th St","Bx15, Bx33, M10, M100, M101, M104, M11, M2, M3, M4, M5, M60-SBS",https://tools.nycenet.edu/snapshot/2019/06M223/EMS,40.816738,-73.951583,"71-111 Convent Ave, Manhattan NY 10027"
04M224,M.S. 224 Manhattan East School for Arts & Academic,Junior High-Intermediate-Middle,"06,07,08,SE","4",212-860-6047,https://www.manhattaneastschool.nyc,"6 to 96th St; 6 to 103rd St","BxM1, M101, M102, M103, M106, M15, M15-SBS, M31, M86-SBS, M96, M98",https://tools.nycenet.edu/snapshot/2019/04M224/EMS,40.784953,-73.942099,"410 East 100th Street, Manhattan NY 10029"
02M225,Ella Baker School,K-8,"PK,0K,01,02,03,04,05,06,07,08,SE","2",212-717-8809,https://www.ellabakerschool.net,"F to Lexington Ave-63 St; 6 to 68th St - Hunter College; 4, 5, N, Q, R to Lexington Ave-59 St","BxM1, BxM10, BxM11, BxM3, BxM4, BxM6, BxM7, BxM8, BxM9, M1, M101, M102, M103, M15, M15-SBS, M2, M3, M31, M4, M57, M66, M72, M98, Q101, Q32, Q60, QM2, QM20, QM3",https://tools.nycenet.edu/snapshot/2019/02M225/EMS,40.76541,-73.960016,"317 East 67th Street, Manhattan NY 10065"
03M243,M.S. 243 Center School,Junior High-Intermediate-Middle,"05,06,07,08,SE","3",212-799-1477,https://www.schools.nyc.gov/Find-a-School,"B, C to 81st St-Museum of Nat Hist; 1, B, C to 86th St","BxM2, M10, M104, M11, M5, M7, M79, M86-SBS",https://tools.nycenet.edu/snapshot/2019/03M243/EMS,40.785437,-73.974462,"100 West 84th Street, Manhattan NY 10024"
03M245,M.S. M245 The Computer School,Junior High-Intermediate-Middle,"06,07,08,SE","3",917-441-0873,https://www.thecomputerschool.org,"B, C to 81st St-Museum of Nat Hist; 2, 3 to 72nd St; 1 to 79th St","BxM2, M10, M104, M11, M5, M57, M7, M72, M79, M86-SBS",https://tools.nycenet.edu/snapshot/2019/03M245/EMS,40.78072,-73.977565,"100 West 77th Street, Manhattan NY 10024"
03M247,M.S. M247 Dual Language Middle School,Junior High-Intermediate-Middle,"05,06,07,08,SE","3",212-799-2653,https://www.duallanguagemiddleschool.org,"B, C to 86th St; 1, 2, 3 to 96th St","M10, M104, M106, M11, M7, M86-SBS, M96",https://tools.nycenet.edu/snapshot/2019/03M247/EMS,40.780835,-73.97769,"32 West 92nd Street, Manhattan NY 10025"
03M250,M.S. 250 West Side Collaborative Middle School,Junior High-Intermediate-Middle,"06,07,08,SE","3",212-866-6313,https://www.wscnyc.org,"1, 2, 3 to 96th St","M104, M106, M11, M5, M7, M86-SBS, M96",https://tools.nycenet.edu/snapshot/2019/03M250/EMS,40.794935,-73.973893,"735 West End Avenue, Manhattan NY 10025"
02M255,M.S. 255 Salk School of Science,Junior High-Intermediate-Middle,"06,07,08,SE","2",212-614-8785,https://www.salkschool.org,"L to 1st Ave; 6 to 23rd St; 4, 5, N, Q, R to 14th St-Union Square","BM1, BM2, BM3, BM4, BxM7, M1, M101, M102, M103, M14A, M14D, M15, M15-SBS, M2, M23, M3, M34A-SBS, M9, QM21, X1, X10, X10B, X12, X14, X17, X2, X27, X28, X37, X38, X42, X5, X63, X64, X68, X7, X9",https://tools.nycenet.edu/snapshot/2019/02M255/EMS,40.735272,-73.981361,"319 East 19th Street, Manhattan NY 10003"
02M255,M.S. 255 Salk School of Science,Junior High-Intermediate-Middle,"06,07,08,SE","2",212-614-8785,https://www.salkschool.org,"L to 1st Ave; 6 to 23rd St; 4, 5, N, Q, R to 14th St-Union Square","BM1, BM2, BM3, BM4, BxM7, M1, M101, M102, M103, M14A, M14D, M15, M15-SBS, M2, M23, M3, M34A-SBS, M9, QM21, X1, X10, X10B, X12, X14, X17, X2, X27, X28, X37, X38, X42, X5, X63, X64, X68, X7, X9",https://tools.nycenet.edu/snapshot/2019/02M255/EMS,40.735064,-73.981258,"319 East 19th Street, Manhattan NY 10003"
03M256,Lafayette Academy,Junior High-Intermediate-Middle,"06,07,08,SE","3",212-222-2857,https://www.ms256.net,"1, 2, 3, B, C to 96th St","M10, M104, M106, M11, M5, M7, M86-SBS, M96",https://tools.nycenet.edu/snapshot/2019/03M256/EMS,40.791554,-73.970748,"154 West 93rd Street, Manhattan NY 10025"
03M258,Community Action School - MS 258,Junior High-Intermediate-Middle,"06,07,08,SE","3",212-678-5888,https://www.communityactionschool.org,"1, 2, 3, B, C to 96th St","M10, M104, M106, M11, M5, M7, M86-SBS, M96",https://tools.nycenet.edu/snapshot/2019/03M258/EMS,40.79134,-73.97114,"154 West 93rd Street, Manhattan NY 10025"
02M260,The Clinton School,Secondary School,"06,07,08,09,10,11,12,SE","2",212-524-4360,https://www.theclintonschool.net,"A, B, C, D, E to West 4th St; 4, 5, 6, L, N, Q, R to 14th St-Union Square; 1, 2, 3, F, M to 14th St - 6th Ave","BM1, BM2, BM3, BM4, BxM10, BxM6, BxM7, BxM8, BxM9, M1, M101, M102, M103, M14A, M14D, M15, M15-SBS, M2, M20, M23, M3, M5, M7, M8, QM21, X1, X10, X10B, X12, X14, X17, X2, X27, X28, X37, X38, X42, X5, X63, X64, X68, X7, X9",https://tools.nycenet.edu/snapshot/2019/02M260/EMS,40.736824,-73.992993,"10 East 15th Street, Manhattan NY 10003"
02M276,Battery Park City School,K-8,"PK,0K,01,02,03,04,05,06,07,08,SE","2",212-266-5800,https://www.bpcschool.org,"N to South Ferry; J, Z to Broad St; A, C to Fulton St-Broadway-Nassau; 4, 5 to Bowling Green; 2, 3 to Wall St; 1, R to Rector St","BM1, BM2, BM3, BM4, BxM18, M15, M15-SBS, M20, M5, M9, QM11, QM25, QM7, QM8, X1, X10, X10B, X11, X12, X14, X15, X17, X17A, X19, X2, X27, X28, X3, X37, X38, X4, X42, X5, X7, X8, X9",https://tools.nycenet.edu/snapshot/2019/02M276/EMS,40.706674,-74.017746,"55 Battery Place, Manhattan NY 10280"
06M278,Paula Hedbavny School,K-8,"0K,01,02,03,04,05,06,07,08,SE","6",917-521-2060,https://www.psms278.org,"A to Inwood - 207th St; 1 to 215th St","Bx12, Bx12-SBS, Bx20, Bx3, Bx32, Bx7, Bx9, BxM1, BxM18, BxM2, BxM3, M100",https://tools.nycenet.edu/snapshot/2019/06M278/EMS,40.871806,-73.912355,"421 W 219th St, Manhattan NY 10034"
05M286,Urban Assembly Academy for Future Leaders,Junior High-Intermediate-Middle,"06,07,08,SE","5",212-543-4960,https://www.uafutureleaders.com,"1, A, B, C, D to 125th St","Bx15, Bx33, M10, M100, M101, M104, M11, M3, M4, M5, M60-SBS",https://tools.nycenet.edu/snapshot/2019/05M286/EMS,40.815939,-73.955677,"509 West 129th Street, Manhattan NY 10027"
02M289,I.S. 289,Junior High-Intermediate-Middle,"06,07,08,SE","2",212-571-9268,https://www.is289.org,"R to City Hall; E to World Trade Center; 4, 5, J, Z to Fulton St-Broadway-Nassau; 1, 2, 3, A, C to Chambers St","BM1, BM2, BM3, BM4, BxM18, M103, M20, M22, M5, M9, QM11, QM25, QM7, QM8, X1, X10, X10B, X11, X12, X15, X17, X17A, X19, X27, X28, X3, X4, X7, X8, X9",https://tools.nycenet.edu/snapshot/2019/02M289/EMS,40.717285,-74.013895,"201 Warren Street, Manhattan NY 10282"
03M291,West End Secondary School,Secondary School,"06,07,08,09,10,SE","3",212-245-1506,https://www.westendsecondary.com,"2, A, B, C, D to 59th St-ColumBUS Circle; 1 to 66th St - Lincoln Center","BxM2, M10, M104, M11, M12, M20, M31, M5, M57, M66, M7, M72, X12, X14, X30, X42",https://tools.nycenet.edu/snapshot/2019/03M291/EMS,40.772462,-73.988488,"227-243 West 61st Street, Manhattan NY 10023"
06M293,City College Academy of the Arts,Secondary School,"06,07,08,09,10,11,12,SE","6",212-567-3164,https://www.schools.nyc.gov/Find-a-School,"A to 190th St; 1 to Dyckman St","Bx7, BxM1, M100, M101, M3, M4, M98",https://tools.nycenet.edu/snapshot/2019/06M293/EMS,40.861046,-73.930298,"4600 Broadway, Manhattan NY 10040"
02M297,M.S. 297,Junior High-Intermediate-Middle,"06,07,08,SE","2",212-524-4380,https://www.ms297.org,"A, B, C, D, E, F, M to West 4th St; 2, 3, L to 14th St; 1 to Christopher St Sheridan Sq","M11, M12, M14A, M14D, M20, M21, M5, M8, X1, X10, X10B, X12, X17, X27, X28, X7, X9",https://tools.nycenet.edu/snapshot/2019/02M297/EMS,40.731132,-74.007452,"75 Morton Street, Manhattan NY 10014"
06M311,Amistad Dual Language School,K-8,"0K,01,02,03,04,05,06,07,08,SE","6",212-544-8021,https://www.amistadschool.org,"A to Inwood - 207th St; 1 to 207th St","Bx12, Bx12-SBS, Bx20, Bx7, BxM1, M100, M4",https://tools.nycenet.edu/snapshot/2019/06M311/EMS,40.866425,-73.923828,"4862 Broadway, Manhattan NY 10034"
02M312,New York City Lab Middle School for Collaborative,Junior High-Intermediate-Middle,"06,07,08,SE","2",212-691-6119,https://www.nyclabschool.net,"A, C, E, L to 14th St-8th Ave; 2, 3, F, M to 14th St; 1 to 18th St","M11, M12, M14A, M14D, M20, M23, M5, M7, X1, X10, X10B, X12, X17, X27, X28",https://tools.nycenet.edu/snapshot/2019/02M312/EMS,40.742539,-74.002218,"333 West 17th Street, Manhattan NY 10011"
06M319,M.S. 319 - Maria Teresa,Junior High-Intermediate-Middle,"06,07,08,SE","6",212-923-3827,https://www.ms319.org,"1, A, C to 168th St - Washington Hts","Bx13, Bx7, M100, M101, M2, M3, M4, M5, M98",https://tools.nycenet.edu/snapshot/2019/06M319/EMS,40.839047,-73.935919,"21 Jumel Place, Manhattan NY 10032"
06M322,Middle School 322,Junior High-Intermediate-Middle,"06,07,08,SE","6",212-304-0853,https://www.m322.org,"A to 190th St; 1 to Dyckman St","Bx7, BxM1, M100, M101, M3, M4, M98",https://tools.nycenet.edu/snapshot/2019/06M322/EMS,40.860737,-73.929813,"4600 Broadway, Manhattan NY 10040"
06M324,M.S. 324 - Patria Mirabal,Junior High-Intermediate-Middle,"06,07,08,SE","6",212-923-4057,https://www.sites.google.com/a/ms324.org/ms324communitysite,"1, A, C to 168th St - Washington Hts","Bx13, Bx7, M100, M101, M2, M3, M4, M5, M98",https://tools.nycenet.edu/snapshot/2019/06M324/EMS,40.83915,-73.935754,"21 Jumel Place, Manhattan NY 10032"
06M328,Community Math & Science Prep,Junior High-Intermediate-Middle,"06,07,08,SE","6",917-521-2508,https://www.06M328.org,"C to 163rd St - Amsterdam Ave; B, D to 155th St; 1, A to 168th St - Washington Hts","Bx13, Bx6, Bx7, M10, M100, M101, M2, M3, M4, M5",https://tools.nycenet.edu/snapshot/2019/06M328/EMS,40.836694,-73.937351,"401 West 164th Street, Manhattan NY 10032"
01M332,University Neighborhood Middle School,Junior High-Intermediate-Middle,"06,07,08,SE","1",212-267-5701,https://www.unmslearns.net,"J, M, Z to Delancey St-Essex St; F to East Broadway; B, D to Grand St","B39, M14A, M14D, M15, M15-SBS, M21, M22, M9, X14, X37, X38",https://tools.nycenet.edu/snapshot/2019/01M332/EMS,40.713525,-73.986298,"220 Henry Street, Manhattan NY 10002"
03M333,P.S. 333 Manhattan School for Children,K-8,"0K,01,02,03,04,05,06,07,08,SE","3",212-222-1450,https://www.ps333.org,"1, 2, 3, B, C to 96th St","M10, M104, M106, M11, M5, M7, M86-SBS, M96",https://tools.nycenet.edu/snapshot/2019/03M333/EMS,40.791505,-73.970809,"154 West 93rd Street, Manhattan NY 10025"
03M334,The Anderson School,K-8,"0K,01,02,03,04,05,06,07,08,SE","3",212-595-7193,https://www.ps334school.org,"B, C to 81st St-Museum of Nat Hist; 2, 3 to 72nd St; 1 to 79th St","BxM2, M10, M104, M11, M5, M57, M7, M72, M79, M86-SBS",https://tools.nycenet.edu/snapshot/2019/03M334/EMS,40.780302,-73.977728,"100 West 77th Street, Manhattan NY 10024"
06M346,Community Health Academy of the Heights,Secondary School,"06,07,08,09,10,11,12,SE","6",212-342-6600,https://www.chah.nyc,"B, C, D to 155th St; 1 to 157th St","Bx6, Bx7, M10, M100, M101, M2, M3, M4, M5",https://tools.nycenet.edu/snapshot/2019/06M346/EMS,40.833471,-73.941912,"504 West 158th Street, Manhattan NY 10032"
02M347,The 47 American Sign Language & English Lower Scho,K-8,"PK,0K,01,02,03,04,05,06,07,08,SE","2",917-326-6609,https://www.ps347.org,"L to 3rd Ave; 6, N, R to 23rd St; 4, 5, Q to 14th St-Union Square","BM1, BM2, BM3, BM4, BxM1, BxM10, BxM11, BxM18, BxM3, BxM4, BxM6, BxM7, BxM8, BxM9, M1, M101, M102, M103, M14A, M14D, M15, M15-SBS, M2, M23, M3, M34A-SBS, M5, M9, QM21, X1, X10, X10B, X12, X14, X17, X2, X27, X28, X37, X38, X42, X5, X63, X64, X68, X7, X9",https://tools.nycenet.edu/snapshot/2019/02M347/EMS,40.738439,-73.981572,"223 East 23rd Street, Manhattan NY 10010"
06M348,Washington Heights Expeditionary Learning School,K-12 all grades,"PK,0K,01,02,03,04,05,06,07,08,09,10,11,12,SE","6",212-781-0524,https://www.wheelsnyc.org,"1, A to 181st St","Bx11, Bx13, Bx18, Bx3, Bx35, Bx36, Bx7, M100, M101, M3, M4, M5, M98",https://tools.nycenet.edu/snapshot/2019/06M348/EMS,40.849406,-73.930736,"511 West 182nd Street, Manhattan NY 10033"
06M349,Harbor Heights,Junior High-Intermediate-Middle,"06,07,08","6",212-568-6052,https://www.schools.nyc.gov/Find-a-School,"A to 175th St; 1, C to 168th St - Washington Hts","Bx11, Bx13, Bx3, Bx35, Bx36, Bx7, M100, M101, M2, M3, M4, M5, M98",https://tools.nycenet.edu/snapshot/2019/06M349/EMS,40.845603,-73.939952,"306 Fort Washington Avenue, Manhattan NY 10033"
05M362,Columbia Secondary School,Secondary School,"06,07,08,09,10,11,12,SE","5",212-666-1278,https://www.columbiasecondary.org,"1, A, B, C, D to 125th St","Bx15, M10, M100, M101, M104, M11, M116, M2, M3, M4, M5, M60-SBS, M7",https://tools.nycenet.edu/snapshot/2019/05M362/EMS,40.810713,-73.955699,"425 West 123rd Street, Manhattan NY 10027"
05M362,Columbia Secondary School,Secondary School,"06,07,08,09,10,11,12,SE","5",212-666-1278,https://www.columbiasecondary.org,"1, A, B, C, D to 125th St","Bx15, M10, M100, M101, M104, M11, M116, M2, M3, M4, M5, M60-SBS, M7",https://tools.nycenet.edu/snapshot/2019/05M362/EMS,40.810659,-73.955882,"425 West 123rd Street, Manhattan NY 10027"
06M366,Washington Heights Academy,K-8,"PK,0K,01,02,03,04,05,06,07,08,SE","6",212-304-3320,https://www.whacademy.org,"A to Inwood - 207th St; 1 to 207th St","Bx12, Bx12-SBS, Bx20, Bx7, BxM1, M100",https://tools.nycenet.edu/snapshot/2019/06M366/EMS,40.865382,-73.921563,"202 Sherman Ave, Manhattan NY 10034"
04M372,Esperanza Preparatory Academy,Secondary School,"06,07,08,09,10,11,12,SE","4",212-722-6507,https://www.epaschool.org,6 to 110th St,"M1, M101, M102, M103, M106, M116, M15, M15-SBS, M2, M3, M4, M96, M98",https://tools.nycenet.edu/snapshot/2019/04M372/EMS,40.792407,-73.942062,"240 East 109th Street, Manhattan NY 10029"
04M377,Renaissance School of the Arts,Junior High-Intermediate-Middle,"06,07,08,SE","4",212-534-6072,https://www.schools.nyc.gov/Find-a-School,"6 to 116th St; 4, 5 to 125th St","Bx15, BxM10, BxM6, BxM7, BxM8, BxM9, M1, M100, M101, M102, M103, M116, M15, M15-SBS, M35, M60-SBS, M98",https://tools.nycenet.edu/snapshot/2019/04M377/EMS,40.79732,-73.93574,"319 East 117th Street, Manhattan NY 10035"
01M378,School for Global Leaders,Junior High-Intermediate-Middle,"06,07,08,SE","1",212-260-5375,https://www.SGL378.org,"F, J, M, Z to Delancey St-Essex St; B, D to Grand St","B39, M103, M14A, M14D, M15, M15-SBS, M21, M22, M8, M9",https://tools.nycenet.edu/snapshot/2019/01M378/EMS,40.720261,-73.985994,"145 Stanton Street, Manhattan NY 10002"
02M397,Spruce Street School,K-8,"PK,0K,01,02,03,04,05,06,07,08,SE","2",212-266-4800,https://www.sprucestreetnyc.org,"R to City Hall; E to Park Place; 4, 5, 6, J, Z to Brooklyn Bridge - City Hall; 2, 3, A, C to Fulton St-Broadway-Nassau; 1 to Chambers St","BM1, BM2, BM3, BM4, BxM18, M103, M15, M15-SBS, M20, M22, M5, M9, QM11, QM25, QM7, QM8, X1, X10, X10B, X11, X12, X14, X15, X17, X17A, X19, X2, X27, X28, X3, X4, X42, X5, X7, X8, X9",https://tools.nycenet.edu/snapshot/2019/02M397/EMS,40.711208,-74.005393,"12 Spruce Street, Manhattan NY 10038"
02M407,Institute for Collaborative Education,Secondary School,"06,07,08,09,10,11,12","2",212-475-7972,https://www.iceschoolnyc.org,"L to 1st Ave; 4, 5, 6, N, Q, R to 14th St-Union Square","BM1, BM2, BM3, BM4, M1, M101, M102, M103, M14A, M14D, M15, M15-SBS, M2, M23, M3, M34A-SBS, M8, M9, X1, X10, X10B, X12, X14, X17, X2, X27, X28, X37, X38, X42, X5, X63, X64, X68, X7, X9",https://tools.nycenet.edu/snapshot/2019/02M407/EMS,40.732508,-73.98272,"345 East 15th Street, Manhattan NY 10003"
02M408,Professional Performing Arts High School,Secondary School,"06,07,08,09,10,11,12,SE","2",212-247-8652,https://www.ppasnyc.org,"N, Q, R to 49th St; F, M to 47-50th Sts Rockefeller Center; B, D to 7th Ave; A to 42nd St-Port Authority Bus Terminal; 2, 3, 7, S to Times Square-42nd St; 1, C, E to 50th St","BxM2, M10, M104, M11, M12, M20, M31, M34A-SBS, M42, M5, M50, M57, M7, QM1, QM10, QM12, QM15, QM16, QM17, QM18, QM2, QM20, QM24, QM3, QM4, QM5, QM6, X1, X12, X14, X17J, X21, X22, X22A, X30, X31, X42, X7, X9",https://tools.nycenet.edu/snapshot/2019/02M408/EMS,40.761073,-73.988382,"328 West 48th Street, Manhattan NY 10036"
02M413,School of the Future High School,Secondary School,"06,07,08,09,10,11,12,SE","2",212-475-8086,https://www.sof.edu,"6, F, M, N, R to 23rd St; 4, 5, L, Q to 14th St-Union Square","BM1, BM2, BM3, BM4, BxM10, BxM11, BxM18, BxM3, BxM4, BxM6, BxM7, BxM8, BxM9, M1, M101, M102, M103, M14A, M14D, M15, M15-SBS, M2, M23, M3, M34A-SBS, M5, M7, M9, QM21, X1, X10, X10B, X12, X14, X17, X2, X27, X28, X37, X38, X42, X5, X63, X64, X68, X7, X9",https://tools.nycenet.edu/snapshot/2019/02M413/EMS,40.739301,-73.985441,"127 East 22nd Street, Manhattan NY 10010"
03M415,Wadleigh Secondary School for the Performing & Vis,Secondary School,"06,07,08,09,10,11,12,SE","3",212-749-5800,https://www.wadleigharts.org,"2, 3, B, C to 116th St","M1, M10, M102, M11, M116, M2, M3, M4, M7",https://tools.nycenet.edu/snapshot/2019/03M415/EMS,40.802345,-73.954034,"215 West 114th Street, Manhattan NY 10026"
03M421,West Prep Academy,Junior High-Intermediate-Middle,"06,07,08,SE","3",212-280-8502,https://www.ms421.org,"2, 3 to 96th St; 1, B, C to 103rd St","M10, M104, M106, M11, M116, M3, M4, M5, M60-SBS, M7, M96",https://tools.nycenet.edu/snapshot/2019/03M421/EMS,40.799311,-73.965892,"150 West 105th Street, Manhattan NY 10025"
02M422,Quest to Learn,Secondary School,"06,07,08,09,10,11,12,SE","2",212-488-3645,https://www.q2l.org,"A, C, E, L to 14th St-8th Ave; 2, 3, F, M to 14th St; 1 to 18th St","M11, M12, M14A, M14D, M20, M23, M5, M7, X27, X28",https://tools.nycenet.edu/snapshot/2019/02M422/EMS,40.743494,-74.002644,"351 West 18th Street, Manhattan NY 10011"
02M442,"Ballet Tech, NYC Public School for Dance",K-8,"04,05,06,07,08","2",212-254-1803,https://www.ballettech.org,"6, N, R to 23rd St; 4, 5, L, Q to 14th St-Union Square; 1, 2, 3, F, M to 14th St - 6th Ave","BM1, BM2, BM3, BM4, BxM10, BxM11, BxM18, BxM3, BxM4, BxM6, BxM7, BxM8, BxM9, M1, M101, M102, M103, M14A, M14D, M15, M15-SBS, M2, M20, M23, M3, M34A-SBS, M5, M7, M9, QM21, X1, X10, X10B, X12, X14, X17, X2, X27, X28, X37, X38, X42, X5, X63, X64, X68, X7, X9",https://tools.nycenet.edu/snapshot/2019/02M442/EMS,40.738588,-73.98919,"890 Broadway, Manhattan NY 10003"
01M450,East Side Community School,Secondary School,"06,07,08,09,10,11,12,SE","1",212-460-8467,https://www.eschs.org,"L to 1st Ave; 6 to Astor Place","M1, M101, M102, M103, M14A, M14D, M15, M15-SBS, M2, M23, M3, M8, M9",https://tools.nycenet.edu/snapshot/2019/01M450/EMS,40.728947,-73.982474,"420 East 12th Street, Manhattan NY 10009"
05M499,Frederick Douglass Academy,Secondary School,"06,07,08,09,10,11,12,SE","5",212-491-4107,https://www.fda1.org,"A, B, C, D to 145th St; 3 to Harlem - 148 St","Bx13, Bx19, Bx6, M1, M10, M102, M2, M3, M7",https://tools.nycenet.edu/snapshot/2019/05M499/EMS,40.824025,-73.936032,"2581 7th Avenue, Manhattan NY 10039"
05M514,New Design Middle School,Junior High-Intermediate-Middle,"06,07,08,SE","5",212-281-6339,https://www.newdesignmiddle.org,"B, C to 135th St; 1 to 137th St - City College","Bx15, Bx19, M100, M101, M104, M11, M3, M4, M5, M60-SBS",https://tools.nycenet.edu/snapshot/2019/05M514/EMS,40.819714,-73.956698,"625 West 133rd Street, Manhattan NY 10027"
05M517,Teachers College Community School,K-8,"PK,0K,01,02,03,04,05,06,07,08,SE","5",212-316-8080,https://www.TCCSps517.org,"1, A, B, C, D to 125th St","Bx15, Bx33, M10, M100, M101, M104, M11, M2, M3, M4, M5, M60 SBS",https://tools.nycenet.edu/snapshot/2019/05M517/EMS,40.812655,-73.953601,"168 Morningside Avenue, Manhattan NY 10027"
06M528,I.S. 528 Bea Fuller Rodgers School,Junior High-Intermediate-Middle,"06,07,08,SE","6",212-740-4900,https://www.schools.nyc.gov/Find-a-School,"1, A to 181st St","Bx11, Bx13, Bx3, Bx35, Bx36, Bx7, M100, M101, M3, M4, M5, M98",https://tools.nycenet.edu/snapshot/2019/06M528/EMS,40.850489,-73.934428,"180 Wadsworth Avenue, Manhattan NY 10033"
01M539,"New Explorations into Science, Technology and Math",K-12 all grades,"0K,01,02,03,04,05,06,07,08,09,10,11,12,SE","1",212-677-5190,https://www.nestmk12.net,"F, J, M, Z to Delancey St-Essex St","B39, M14A, M14D, M21, M22, M8, M9",https://tools.nycenet.edu/snapshot/2019/01M539/EMS,40.719173,-73.979811,"111 Columbia Street, Manhattan NY 10002"
04M610,Young Women's Leadership School,Secondary School,"06,07,08,09,10,11,12,SE","4",212-289-7593,https://www.tywls.org,"6 to 103rd St; 2, 3 to Central Park North-110th St","BxM11, BxM2, BxM3, BxM4, M1, M101, M102, M103, M106, M116, M15, M15-SBS, M2, M3, M4, M98",https://tools.nycenet.edu/snapshot/2019/04M610/EMS,40.79281,-73.947074,"105 East 106th Street, New York NY 10029"
05M670,Thurgood Marshall Academy for Learning and Social,Secondary School,"06,07,08,09,10,11,12,SE","5",212-283-8055,https://www.tmanyc.org,"A, D to 125th St; 2, 3, B, C to 135th St","Bx15, Bx33, M1, M10, M100, M101, M102, M104, M11, M2, M3, M7",https://tools.nycenet.edu/snapshot/2019/05M670/EMS,40.814994,-73.94406,"200-214 West 135th Street, Manhattan NY 10030"
04M825,Isaac Newton Middle School for Math & Science,Junior High-Intermediate-Middle,"06,07,08,SE","4",212-860-6006,https://www.blackbinder.com,N/A,"BxM10, BxM6, BxM7, BxM8, BxM9, M101, M102, M103, M106, M116, M15, M15-SBS, M35, M98",https://tools.nycenet.edu/snapshot/2019/04M825/EMS,40.794462,-73.932786,"260 Pleasant Avenue, Manhattan NY 10029"
01M839,Tompkins Square Middle School,Junior High-Intermediate-Middle,"06,07,08,SE","1",212-995-1430,https://www.tsmsonline.org,"L to 1st Ave; J, M, Z to Delancey St-Essex St; F to Lower East Side-2 Ave","M14A, M14D, M15, M15-SBS, M21, M8, M9",https://tools.nycenet.edu/snapshot/2019/01M839/EMS,40.723399,-73.981584,"600 East 6th Street, Manhattan NY 10009"
03M859,Special Music School,K-12 all grades,"0K,01,02,03,04,05,06,07,08,09,10,11,12,SE","3",212-501-3318,https://www.kaufmanmusiccenter.org/sms,"A, D to 59th St-ColumBUS Circle; 2, 3, B, C to 72nd St; 1 to 66th St - Lincoln Center","BxM2, M10, M104, M11, M20, M5, M57, M66, M7, M72",https://tools.nycenet.edu/snapshot/2019/03M859/EMS,40.775538,-73.982916,"129 West 67th Street, Manhattan, NY 10023"
03M860,Frederick Douglass Academy II Secondary School,Secondary School,"06,07,08,09,10,11,12,SE","3",212-865-9260,https://www.fda2.org,"2, 3, B, C to 116th St","M1, M10, M102, M11, M116, M2, M3, M4, M7",https://tools.nycenet.edu/snapshot/2019/03M860/EMS,40.802489,-73.953925,"215 West 114th Street, Manhattan NY 10026"
03M862,Mott Hall II,Junior High-Intermediate-Middle,"06,07,08,SE","3",212-678-2960,https://www.motthall2.org,"1, B, C to Cathedral Parkway-110th St","M10, M104, M11, M116, M3, M4, M5, M60-SBS, M7",https://tools.nycenet.edu/snapshot/2019/03M862/EMS,40.802604,-73.965919,"234 West 109th Street, Manhattan NY 10025"
02M896,Lower Manhattan Community Middle School,Junior High-Intermediate-Middle,"06,07,08,SE","2",646-826-8100,https://www.lmc896.org,"N to South Ferry; J, Z to Broad St; E to World Trade Center; A, C to Fulton St-Broadway-Nassau; 4, 5 to Bowling Green; 2, 3 to Wall St; 1, R to Whitehall St-South Ferry; 1, R to Rector St","BM1, BM2, BM3, BM4, BxM18, M15, M15-SBS, M20, M5, M9, QM11, QM25, QM7, QM8, X1, X10, X10B, X11, X12, X14, X15, X17, X17A, X19, X2, X27, X28, X3, X37, X38, X4, X42, X5, X7, X8, X9",https://tools.nycenet.edu/snapshot/2019/02M896/EMS,40.705659,-74.01304,"26 Broadway, Manhattan NY 10004"
02M896,Lower Manhattan Community Middle School,Junior High-Intermediate-Middle,"06,07,08,SE","2",646-826-8100,https://www.lmc896.org,"N to South Ferry; J, Z to Broad St; E to World Trade Center; A, C to Fulton St-Broadway-Nassau; 4, 5 to Bowling Green; 2, 3 to Wall St; 1, R to Whitehall St-South Ferry; 1, R to Rector St","BM1, BM2, BM3, BM4, BxM18, M15, M15-SBS, M20, M5, M9, QM11, QM25, QM7, QM8, X1, X10, X10B, X11, X12, X14, X15, X17, X17A, X19, X2, X27, X28, X3, X37, X38, X4, X42, X5, X7, X8, X9",https://tools.nycenet.edu/snapshot/2019/02M896/EMS,40.705863,-74.013303,"26 Broadway, Manhattan NY 10004"
02M933,City Knoll Middle School,Junior High-Intermediate-Middle,"06,07,08,SE","2",212-695-9115,https://www.cityknollms.org,"1, 2, 3, A, C, E to 34th St - Penn Station","BxM2, M104, M11, M12, M20, M34A-SBS, M34-SBS, M4, M42, M7, Q32, X17J, X21, X22, X22A, X30, X31",https://tools.nycenet.edu/snapshot/2019/02M933/EMS,40.766095,-73.989592,"425 West 33rd Street, Manhattan NY 10001"
04M964,Central Park East II,K-8,"PK,0K,01,02,03,04,05,06,07,08,SE","4",212-860-5992,https://www.cpe2.org,6 to 103rd St,"BxM1, M101, M102, M103, M106, M15, M15-SBS, M31, M35, M86-SBS, M96, M98",https://tools.nycenet.edu/snapshot/2019/04M964/EMS,40.785467,-73.940839,"433 East 100 Street, Manhattan, NY 10029"
24Q005,I.S. 5 - The Walter Crowley Intermediate School,Junior High-Intermediate-Middle,"06,07,08,SE","24",718-205-6788,https://www.schools.nyc.gov/Find-a-School,R to Elmhurst Ave,"Q18, Q47, Q53, Q58, Q59, Q60",https://tools.nycenet.edu/snapshot/2019/24Q005/EMS,40.737674,-73.888116,"50-40 Jacobus Street, Queens NY 11373"
28Q008,J.H.S. 008 Richard S. Grossley,Junior High-Intermediate-Middle,"06,07,08,SE","28",718-739-6883,https://www.schools.nyc.gov/Find-a-School,N/A,"Q111, Q112, Q113, Q114, Q4, Q42, Q5, Q60, Q83, Q84, Q85, X64",https://tools.nycenet.edu/snapshot/2019/28Q008/EMS,40.697063,-73.786662,"108-35 167th Street, Queens NY 11433"
30Q010,I.S. 010 Horace Greeley,Junior High-Intermediate-Middle,"06,07,08,SE","30",718-278-7054,https://www.is10q.org,"M, R to 46th St","Q101, Q104, Q18, Q66",https://tools.nycenet.edu/snapshot/2019/30Q010/EMS,40.760253,-73.912011,"45-11 31st Ave, Queens NY 11103"
25Q025,I.S. 025 Adrien Block,Junior High-Intermediate-Middle,"06,07,08,SE","25",718-961-3480,https://www.adrienblockis25.com,N/A,"Q12, Q13, Q16, Q28, Q31, Q76, QM3",https://tools.nycenet.edu/snapshot/2019/25Q025/EMS,40.765023,-73.789641,"34-65 192nd Street, Queens NY 11358"
27Q042,P.S./M.S 042 R. Vernam,K-8,"PK,0K,01,02,03,04,05,06,07,08,SE","27",718-634-7914,https://www.schools.nyc.gov/Find-a-School,A to Beach 67th St-Gaston,"Q22, Q52, QM17",https://tools.nycenet.edu/snapshot/2019/27Q042/EMS,40.594659,-73.794573,"488 Beach 66th Street, Queens NY 11692"
27Q043,P.S. 043,K-8,"PK,0K,01,02,03,04,05,06,07,08,SE","27",718-327-5860,https://www.schools.nyc.gov/Find-a-School,A to Beach 36th St-Edgemere,"Q113, Q114, Q22, QM17",https://tools.nycenet.edu/snapshot/2019/27Q043/EMS,40.593245,-73.760825,"160 Beach 29th Street, Queens NY 11691"
27Q047,P.S. 047 Chris Galas,K-8,"PK,0K,01,02,03,04,05,06,07,08,SE","27",718-634-7167,https://www.schools.nyc.gov/Find-a-School,"A, S to Broad Channel","Q52, Q53, QM16, QM17",https://tools.nycenet.edu/snapshot/2019/27Q047/EMS,40.60622,-73.820954,"9 Power Road, Queens NY 11693"
24Q049,P.S. 049 Dorothy Bonawit Kole,K-8,"0K,01,02,03,04,05,06,07,08,SE","24",718-326-2111,https://www.49online.org,N/A,"BM5, Q11, Q21, Q29, Q38, Q47, Q52, Q53, Q54, QM15, QM24, QM25, QM34",https://tools.nycenet.edu/snapshot/2019/24Q049/EMS,40.719467,-73.875677,"63-60 80th Street, Queens NY 11379"
27Q053,M.S. 053 Brian Piccolo,Junior High-Intermediate-Middle,"06,07,08,09,SE","27",718-471-6900,https://www.MS53.org,A to Far Rockaway - Mott Ave,"Q113, Q114, Q22, QM17",https://tools.nycenet.edu/snapshot/2019/27Q053/EMS,40.603884,-73.749745,"10-45 Nameoke Street, Queens NY 11691"
29Q059,I.S. 059 Springfield Gardens,Junior High-Intermediate-Middle,"06,07,08,SE","29",718-527-3501,https://www.schools.nyc.gov/Find-a-School,N/A,"Q3, Q5, Q77, Q84, X63",https://tools.nycenet.edu/snapshot/2019/29Q059/EMS,40.681792,-73.752796,"132-55 Ridgedale Street, Queens NY 11413"
24Q061,I.S. 061 Leonardo Da Vinci,Junior High-Intermediate-Middle,"06,07,08,SE","24",718-760-3233,https://www.davinci61.com,N/A,"Q23, Q29, Q38, Q58, Q72, Q88, QM10, QM11, QM40",https://tools.nycenet.edu/snapshot/2019/24Q061/EMS,40.742199,-73.863169,"98-50 50th Avenue, Queens NY 11368"
26Q067,J.H.S. 067 Louis Pasteur,Junior High-Intermediate-Middle,"06,07,08,SE","26",718-423-8138,https://www.ms67q.com,N/A,"Q12, Q30, Q36, QM3, QM35, QM5, QM8",https://tools.nycenet.edu/snapshot/2019/26Q067/EMS,40.762191,-73.734623,"51-60 Marathon Parkway, Queens NY 11362"
28Q072,Catherine & Count Basie Middle School 72,Junior High-Intermediate-Middle,"06,07,08,SE","28",718-723-6200,https://www.schools.nyc.gov/Find-a-School,N/A,"Q111, Q113, Q114, Q6, Q85, QM21",https://tools.nycenet.edu/snapshot/2019/28Q072/EMS,40.675308,-73.775821,"133-25 Guy R Brewer Boulevard, Queens NY 11434"
24Q073,I.S. 73 - The Frank Sansivieri Intermediate School,Junior High-Intermediate-Middle,"06,07,08,SE","24",718-639-3817,https://www.is73.org,N/A,"Q18, Q47, Q58, Q59, Q67",https://tools.nycenet.edu/snapshot/2019/24Q073/EMS,40.728414,-73.893595,"70-02 54th Avenue, Queens NY 11378"
26Q074,J.H.S. 074 Nathaniel Hawthorne,Junior High-Intermediate-Middle,"06,07,08,SE","26",718-631-6800,https://www.ms74.com,N/A,"Q30, Q76, Q88, QM35, QM5, QM8",https://tools.nycenet.edu/snapshot/2019/26Q074/EMS,40.744643,-73.766371,"61-15 Oceania Street, Queens NY 11364"
24Q077,I.S. 077,Junior High-Intermediate-Middle,"06,07,08,SE","24",718-366-7120,https://www.schools.nyc.gov/Find-a-School,"M to Forest Ave; L to Halsey St","B13, B20, B26, B38, B52, B54, Q39, Q55, Q58, QM24, QM25, QM34",https://tools.nycenet.edu/snapshot/2019/24Q077/EMS,40.699076,-73.902213,"976 Seneca Avenue, Queens NY 11385"
30Q078,P.S./I.S. 78Q,K-8,"PK,0K,01,02,03,04,05,06,07,08,SE","30",718-392-5402,https://www.ps78.com,"G to 21st St; 7 to Vernon Blvd-Jackson Ave","B32, B62, Q67",https://tools.nycenet.edu/snapshot/2019/30Q078/EMS,40.744474,-73.957022,"48-09 Center Boulevard, Queens NY 11109"
24Q087,P.S./I.S. 087 Middle Village,K-8,"PK,0K,01,02,03,04,05,06,07,08,SE","24",718-326-8243,https://www.schools.nyc.gov/Find-a-School,N/A,"Q29, Q38, Q47, Q54",https://tools.nycenet.edu/snapshot/2019/24Q087/EMS,40.711383,-73.871403,"67-54 80th Street, Queens NY 11379"
24Q093,I.S. 093 Ridgewood,Junior High-Intermediate-Middle,"06,07,08,SE","24",718-821-4882,https://www.is93.org,M to Forest Ave,"B13, B20, B38, Q38, Q39, Q54, Q55, Q58, Q67, QM24, QM25, QM34",https://tools.nycenet.edu/snapshot/2019/24Q093/EMS,40.705313,-73.903212,"66-56 Forest Avenue, Queens NY 11385"
24Q102,P.S. 102 Bayview,K-8,"PK,0K,01,02,03,04,05,06,07,08,SE","24",718-446-3308,https://www.ps102q.org,"M, R to Grand Ave - Newtown","Q11, Q21, Q29, Q38, Q47, Q52, Q53, Q58, Q59, Q60, Q88, QM10, QM11, QM12, QM15, QM24, QM25, QM34, QM40, QM42",https://tools.nycenet.edu/snapshot/2019/24Q102/EMS,40.732889,-73.878296,"55-24 Van Horn Street, Queens NY 11373"
27Q105,P.S. 105 The Bay School,K-8,"PK,0K,01,02,03,04,05,06,07,08,SE","27",718-474-8615,https://www.schools.nyc.gov/Find-a-School,A to Beach 44th St-Frank Ave,"Q22, QM17",https://tools.nycenet.edu/snapshot/2019/27Q105/EMS,40.596078,-73.780732,"420 Beach 51st Street, Queens NY 11691"
29Q109,Jean Nuzzi Intermediate School,Junior High-Intermediate-Middle,"06,07,08,SE","29",718-465-0651,https://www.schools.nyc.gov/Find-a-School,N/A,"Q1, Q110, Q27, Q36, Q43, Q88, X68",https://tools.nycenet.edu/snapshot/2019/29Q109/EMS,40.719916,-73.746524,"213-10 92nd Avenue, Queens NY 11428"
30Q111,P.S. 111 Jacob Blackwell,K-8,"PK,0K,01,02,03,04,05,06,07,08,SE","30",718-786-2073,https://www.ps111q.org,F to 21st St - Queensbridge,"Q100, Q102, Q103, Q104, Q66, Q69",https://tools.nycenet.edu/snapshot/2019/30Q111/EMS,40.758358,-73.939077,"37-15 13th Street, Queens NY 11101"
24Q113,P.S./I.S. 113 Anthony J. Pranzo,K-8,"PK,0K,01,02,03,04,05,06,07,08,SE","24",718-847-0724,https://www.schools.nyc.gov/Find-a-School,N/A,"BM5, Q11, Q21, Q23, Q29, Q47, Q52, Q53, Q54, Q55, QM12, QM15, QM42",https://tools.nycenet.edu/snapshot/2019/24Q113/EMS,40.705435,-73.861464,"78-23 87th Street, Queens NY 11385"
27Q114,P.S./M.S. 114 Belle Harbor,K-8,"PK,0K,01,02,03,04,05,06,07,08,SE","27",718-634-3382,https://www.belleharborschool.org,N/A,"Q22, Q35, QM16",https://tools.nycenet.edu/snapshot/2019/27Q114/EMS,40.577614,-73.854499,"134-01 Cronston Avenue, Queens NY 11694"
29Q116,P.S./I.S. 116 William C. Hughley,K-8,"PK,0K,01,02,03,04,05,06,07,08,SE","29",718-526-4884,https://www.schools.nyc.gov/Find-a-School,N/A,"Q110, Q4, Q42, Q5, Q83, Q84, Q85, X64",https://tools.nycenet.edu/snapshot/2019/29Q116/EMS,40.701005,-73.781691,"107-25 Wren Place, Queens NY 11433"
24Q119,P.S./I.S. 119 The Glendale,K-8,"0K,01,02,03,04,05,06,07,08,SE","24",718-326-8261,https://www.psis119.org,N/A,"Q29, Q47, Q54, Q55, QM24, QM25, QM34",https://tools.nycenet.edu/snapshot/2019/24Q119/EMS,40.705106,-73.875032,"74-01 78th Avenue, Queens NY 11385"
30Q122,P.S. 122 Mamie Fay,K-8,"PK,0K,01,02,03,04,05,06,07,08,SE","30",718-721-6410,https://www.mamiefayps122.wordpress.com,"N, Q to Astoria - Ditmars Blvd","Q100, Q69",https://tools.nycenet.edu/snapshot/2019/30Q122/EMS,40.780758,-73.915986,"21-21 Ditmars Boulevard, Queens NY 11105"
27Q124,P.S. 124 Osmond A Church,K-8,"0K,01,02,03,04,05,06,07,08,SE","27",718-529-2580,https://www.ps124q.weebly.com,N/A,"B15, Q10, Q37, QM18",https://tools.nycenet.edu/snapshot/2019/27Q124/EMS,40.665406,-73.811057,"129-15 150th Avenue, Queens NY 11420"
24Q125,I.S. 125 Thom J. McCann Woodside,Junior High-Intermediate-Middle,"06,07,08,SE","24",718-937-0320,https://www.is125q.org,7 to 46th St,"B24, Q104, Q32, Q39, Q60, Q67",https://tools.nycenet.edu/snapshot/2019/24Q125/EMS,40.740549,-73.918548,"46-02 47th Avenue, Queens NY 11377"
30Q126,Albert Shanker School for Visual and Performing Ar,Junior High-Intermediate-Middle,"06,07,08,SE","30",718-274-8316,https://www.is126q.com,"N, Q to Broadway","Q100, Q102, Q103, Q104, Q18, Q19, Q66, Q69",https://tools.nycenet.edu/snapshot/2019/30Q126/EMS,40.766087,-73.930136,"31-51 21st Street, Queens NY 11106"
30Q127,P.S. 127 Aerospace Science Magnet School,K-8,"PK,0K,01,02,03,04,05,06,07,08,SE","30",718-446-4700,https://www.schools.nyc.gov/Find-a-School,N/A,"M60-SBS, Q19, Q23, Q33, Q48, Q49, Q72",https://tools.nycenet.edu/snapshot/2019/30Q127/EMS,40.765732,-73.870789,"98-01 25th Avenue, Queens NY 11369"
24Q128,"P.S. 128 The Lorraine Tuzzo, Juniper Valley Elemen",K-8,"0K,01,02,03,04,05,06,07,08,SE","24",718-326-6210,https://www.psis128q.org,M to Middle Village - Metropolitan Ave,"Q38, Q54, Q67, QM24, QM25, QM34",https://tools.nycenet.edu/snapshot/2019/24Q128/EMS,40.714816,-73.885964,"69-10 65th Drive, Queens NY 11379"
27Q137,M.S. 137 America's School of Heroes,Junior High-Intermediate-Middle,"06,07,08,SE","27",718-659-0471,https://www.heroesofms137.org,A to Rockaway Blvd,"BM5, Q11, Q112, Q21, Q37, Q41, Q52, Q53, Q7, QM15",https://tools.nycenet.edu/snapshot/2019/27Q137/EMS,40.678096,-73.839634,"109-15 98th Street, Queens NY 11417"
29Q138,P.S./M.S. 138 Sunrise,K-8,"PK,0K,01,02,03,04,05,06,07,08,SE","29",718-528-9053,https://www.schools.nyc.gov/Find-a-School,N/A,"Q111, Q5, Q85, X63",https://tools.nycenet.edu/snapshot/2019/29Q138/EMS,40.660154,-73.734131,"251-11 Weller Avenue, Queens NY 11422"
30Q141,I.S. 141 The Steinway,Junior High-Intermediate-Middle,"06,07,08,SE","30",718-278-6403,https://www.IS141.org,"N, Q to Astoria - Ditmars Blvd","Q100, Q101, Q19, Q69",https://tools.nycenet.edu/snapshot/2019/30Q141/EMS,40.77572,-73.904324,"37-11 21st Avenue, Queens NY 11105"
30Q145,I.S. 145 Joseph Pulitzer,Junior High-Intermediate-Middle,"06,07,08,SE","30",718-457-1242,https://www.is145.schoolwires.net,7 to 82nd St-Jackson Heights,"Q32, Q33, Q47, Q49, Q66, QM3",https://tools.nycenet.edu/snapshot/2019/30Q145/EMS,40.754155,-73.887285,"33-34 80th Street, Queens NY 11372"
27Q146,P.S. 146 Howard Beach,K-8,"PK,0K,01,02,03,04,05,06,07,08,SE","27",718-659-3140,https://www.ps146q.org,A to Howard Beach - JFK Airport,"B15, Q11, Q21, Q41, Q52, Q53, QM15, QM16, QM17",https://tools.nycenet.edu/snapshot/2019/27Q146/EMS,40.660561,-73.835028,"98-01 159th Avenue, Queens NY 11414"
29Q147,P.S./M.S. 147 Ronald McNair,K-8,"PK,0K,01,02,03,04,05,06,07,08,SE","29",718-528-2420,https://www.psms147q.com,N/A,"Q27, Q4, Q77, Q83, X64",https://tools.nycenet.edu/snapshot/2019/29Q147/EMS,40.69812,-73.740315,"218-01 116th Avenue, Queens NY 11411"
28Q157,J.H.S. 157 Stephen A. Halsey,Junior High-Intermediate-Middle,"06,07,08,09,SE","28",718-830-4910,https://www.schools.nyc.gov/Find-a-School,"M, R to 67th Ave","Q23, Q38, Q58, Q60, Q72, Q88, QM10, QM11, QM12, QM18, QM40, QM42",https://tools.nycenet.edu/snapshot/2019/28Q157/EMS,40.73248,-73.852995,"63-55 102nd Street, Queens NY 11374"
26Q158,M.S. 158 Marie Curie,Junior High-Intermediate-Middle,"06,07,08,SE","26",718-423-8100,https://www.ms158q.com,N/A,"Q12, Q13, Q27, Q31, Q76, QM3",https://tools.nycenet.edu/snapshot/2019/26Q158/EMS,40.756322,-73.771674,"46-35 Oceania Street, Queens NY 11361"
25Q164,P.S. 164 Queens Valley,K-8,"PK,0K,01,02,03,04,05,06,07,08,SE","25",718-544-1083,https://www.psms164.com,N/A,"Q20A, Q20B, Q44-SBS, Q46, QM1, QM31, QM35, QM36, QM5, QM6, QM7, QM8",https://tools.nycenet.edu/snapshot/2019/25Q164/EMS,40.721565,-73.823392,"138-01 77th Avenue, Queens NY 11367"
28Q167,Metropolitan Expeditionary Learning School,Secondary School,"06,07,08,09,10,11,12,SE","28",718-286-3500,https://www.metropolitanels.com,N/A,"BM5, Q11, Q21, Q23, Q52, Q53, Q54, Q55, QM12, QM15, QM42",https://tools.nycenet.edu/snapshot/2019/28Q167/EMS,40.708409,-73.855572,"91-30 Metropolitan Avenue, Queens NY 11375"
26Q172,Irwin Altman Middle School 172,Junior High-Intermediate-Middle,"06,07,08,SE","26",718-831-4000,https://www.MS172.org,N/A,"Q36, Q43, Q46, QM35, QM36, QM5, QM6, QM8, X68",https://tools.nycenet.edu/snapshot/2019/26Q172/EMS,40.74154,-73.713457,"81-14 257th Street, Queens NY 11004"
26Q178,P.S./ IS 178 Holliswood,K-8,"PK,0K,01,02,03,04,05,06,07,08,SE","26",718-464-5763,https://www.holliswood178.org,N/A,"Q17, Q46, QM1, QM31, QM35, QM36, QM5, QM6, QM7, QM8, S51, S52, S66, S74, S76, S78, S81, S84, S86",https://tools.nycenet.edu/snapshot/2019/26Q178/EMS,40.723784,-73.777107,"189-10 Radnor Road, Queens NY 11423"
27Q183,P.S. 183 Dr. Richard R. Green,K-8,"PK,0K,01,02,03,04,05,06,07,08,SE","27",718-634-9459,https://www.schools.nyc.gov/Find-a-School,"S to Beach 90th St-Holland; A to Beach 67th St-Gaston","Q22, Q52",https://tools.nycenet.edu/snapshot/2019/27Q183/EMS,40.58913,-73.80595,"2-45 Beach 79th Street, Queens NY 11693"
25Q185,J.H.S. 185 Edward Bleeker,Junior High-Intermediate-Middle,"06,07,08,SE","25",718-445-3232,https://www.jhs185.org,N/A,"Q15, Q15A, Q16, Q20A, Q20B, Q34, Q44-SBS, QM2, QM20, QM32",https://tools.nycenet.edu/snapshot/2019/25Q185/EMS,40.774897,-73.818551,"147-26 25th Drive, Queens NY 11354"
25Q189,J.H.S. 189 Daniel Carter Beard,Junior High-Intermediate-Middle,"06,07,08,SE","25",718-359-6676,https://www.schools.nyc.gov/Find-a-School,7 to Flushing-Main St,"Q12, Q13, Q15, Q15A, Q16, Q17, Q25, Q26, Q27, Q28, Q34, Q48, Q65, QM3",https://tools.nycenet.edu/snapshot/2019/25Q189/EMS,40.760112,-73.818345,"144-80 Barclay Avenue, Queens NY 11355"
28Q190,J.H.S. 190 Russell Sage,Junior High-Intermediate-Middle,"06,07,08,SE","28",718-830-4970,https://www.schools.nyc.gov/Find-a-School,"M, R to 67th Ave; E, F to Forest Hills - 71st Ave","Q23, Q60, Q64, QM11, QM12, QM18, QM4, QM42, QM44",https://tools.nycenet.edu/snapshot/2019/28Q190/EMS,40.723639,-73.851896,"68-17 Austin Street, Queens NY 11375"
29Q192,I.S. 192 The Linden,Junior High-Intermediate-Middle,"06,07,08,SE","29",718-479-5540,https://www.is192q.com,N/A,"Q2, Q4, Q77, Q83",https://tools.nycenet.edu/snapshot/2019/29Q192/EMS,40.705852,-73.752789,"109-89 204th Street, Queens NY 11412"
25Q194,J.H.S. 194 William Carr,Junior High-Intermediate-Middle,"06,07,08,SE","25",718-746-0818,https://www.schools.nyc.gov/Find-a-School,N/A,"Q15, Q15A, Q16, Q76, QM2, QM20, QM32",https://tools.nycenet.edu/snapshot/2019/25Q194/EMS,40.783069,-73.807108,"154-60 17th Avenue, Queens NY 11357"
25Q200,P.S./M.S. 200 - The Magnet School of Global Studie,K-8,"PK,0K,01,02,03,04,05,06,07,08,SE","25",718-969-7780,https://www.globalstudiesandleadership.org,N/A,"Q17, Q25, Q34, Q64, Q65, Q88, QM4, QM44",https://tools.nycenet.edu/snapshot/2019/25Q200/EMS,40.731315,-73.805474,"70-10 164th Street, Queens NY 11365"
27Q202,J.H.S. 202 Robert H. Goddard,Junior High-Intermediate-Middle,"06,07,08,SE","27",718-848-0001,https://www.ms202q.org,N/A,"B15, BM5, Q11, Q21, Q41, Q7, QM15",https://tools.nycenet.edu/snapshot/2019/27Q202/EMS,40.671148,-73.845803,"138-30 Lafayette Street, Queens NY 11417"
30Q204,I.S. 204 Oliver W. Holmes,Junior High-Intermediate-Middle,"06,07,08,SE","30",718-937-1463,https://www.schools.nyc.gov/Find-a-School,"N, Q to 36 Ave-Washington Ave; M, R to 36th St; F to 21st St - Queensbridge; E to Queens Plaza","Q100, Q101, Q102, Q103, Q104, Q66, Q69",https://tools.nycenet.edu/snapshot/2019/30Q204/EMS,40.756479,-73.932337,"36-41 28th Street, Queens NY 11106"
27Q207,P.S. 207 Rockwood Park,K-8,"PK,0K,01,02,03,04,05,06,07,08,SE","27",718-848-2700,https://www.schools.nyc.gov/Find-a-School,N/A,"Q21, Q41, Q52, Q53, QM15, QM16, QM17",https://tools.nycenet.edu/snapshot/2019/27Q207/EMS,40.65757,-73.844042,"159-15 88th Street, Queens NY 11414"
29Q208,P.S./I.S. 208,K-8,"0K,01,02,03,04,05,06,07,08,SE","29",718-468-6420,https://www.schools.nyc.gov/Find-a-School,N/A,"Q36, Q43, Q46, QM36, QM6",https://tools.nycenet.edu/snapshot/2019/29Q208/EMS,40.744352,-73.72764,"74-30 Commonwealth Blvd, Queens NY 11426"
27Q210,J.H.S. 210 Elizabeth Blackwell,Junior High-Intermediate-Middle,"06,07,08,SE","27",718-845-5942,https://www.ms210q.schoolwires.net,A to Rockaway Blvd,"Q11, Q112, Q21, Q24, Q37, Q41, Q52, Q53, Q7, Q8, QM15",https://tools.nycenet.edu/snapshot/2019/27Q210/EMS,40.684876,-73.847578,"93-11 101st Avenue, Queens NY 11416"
26Q216,J.H.S. 216 George J. Ryan,Junior High-Intermediate-Middle,"06,07,08,SE","26",718-358-2005,https://www.ryan216.org,N/A,"Q17, Q30, Q31, Q88, QM1, QM31, QM35, QM5, QM7, QM8",https://tools.nycenet.edu/snapshot/2019/26Q216/EMS,40.737194,-73.794253,"64-20 175th Street, Queens NY 11365"
28Q217,J.H.S. 217 Robert A. Van Wyck,Junior High-Intermediate-Middle,"06,07,08,SE","28",718-657-1120,https://www.28q217.nycdoe.org,"F to Sutphin Blvd; E to Briarwood - Van Wyck Blvd","Q111, Q112, Q114, Q20A, Q20B, Q25, Q34, Q40, Q43, Q44-SBS, Q46, Q60, Q83, QM21",https://tools.nycenet.edu/snapshot/2019/28Q217/EMS,40.710447,-73.811723,"85-05 144th Street, Queens NY 11435"
25Q219,P.S. 219 Paul Klapper,K-8,"PK,0K,01,02,03,04,05,06,07,08,SE","25",718-793-2130,https://www.psms219.org,N/A,"Q20A, Q20B, Q25, Q34, Q44-SBS, Q64, Q88, QM4, QM44",https://tools.nycenet.edu/snapshot/2019/25Q219/EMS,40.737581,-73.824099,"144-39 Gravett Road, Queens NY 11367"
27Q226,J.H.S. 226 Virgil I. Grissom,Junior High-Intermediate-Middle,"06,07,08,SE","27",718-843-2260,https://www.virgilgrissom.com,N/A,"Q10, Q37, Q7, Q9, QM18",https://tools.nycenet.edu/snapshot/2019/27Q226/EMS,40.674782,-73.816909,"121-10 Rockaway Boulevard, Queens NY 11420"
30Q227,I.S. 227 Louis Armstrong,Junior High-Intermediate-Middle,"0K,05,06,07,08,SE","30",718-335-7500,https://www.armstrong227q.com,7 to Junction Blvd,"Q19, Q23, Q49, Q66, Q72, QM3",https://tools.nycenet.edu/snapshot/2019/30Q227/EMS,40.757849,-73.874662,"32-02 Junction Boulevard, Queens NY 11369"
30Q230,I.S. 230,Junior High-Intermediate-Middle,"06,07,08,SE","30",718-335-7648,https://www.schools.nyc.gov/Find-a-School,"M, R to 65th St; 7, E, F to Jackson Hts-Roosevelt Ave","Q32, Q33, Q47, Q49, Q53, Q66, Q70-SBS, QM3",https://tools.nycenet.edu/snapshot/2019/30Q230/EMS,40.752723,-73.892828,"73-10 34th Avenue, Queens NY 11372"
27Q232,P.S. 232 Lindenwood,K-8,"PK,0K,01,02,03,04,05,06,07,08,SE","27",718-848-9247,https://www.ps232q.org,N/A,"B15, BM5, Q11, Q21, Q41, Q7, QM15",https://tools.nycenet.edu/snapshot/2019/27Q232/EMS,40.665296,-73.850876,"153-23 83rd Street, Queens NY 11414"
30Q235,Academy for New Americans,Junior High-Intermediate-Middle,"06,07,08","30",718-956-4140,https://www.schools.nyc.gov/Find-a-School,"N, Q to 30 Ave-Grand Ave","M60-SBS, Q100, Q101, Q102, Q104, Q18, Q19, Q69",https://tools.nycenet.edu/snapshot/2019/30Q235/EMS,40.767053,-73.923047,"30-14 30th Street, Queens NY 11102"
30Q235,Academy for New Americans,Junior High-Intermediate-Middle,"06,07,08","30",718-956-4140,https://www.schools.nyc.gov/Find-a-School,"N, Q to 30 Ave-Grand Ave","M60-SBS, Q100, Q101, Q102, Q104, Q18, Q19, Q69",https://tools.nycenet.edu/snapshot/2019/30Q235/EMS,40.767116,-73.923022,"30-14 30th Street, Queens NY 11102"
25Q237,I.S. 237,Junior High-Intermediate-Middle,"06,07,08,SE","25",718-353-6464,https://www.rcis237.org,N/A,"Q17, Q20A, Q20B, Q25, Q27, Q34, Q44-SBS, Q65",https://tools.nycenet.edu/snapshot/2019/25Q237/EMS,40.749715,-73.821584,"46-21 Colden Street, Queens NY 11355"
29Q238,I.S. 238 - Susan B. Anthony Academy,Junior High-Intermediate-Middle,"06,07,08,SE","29",718-297-9821,https://www.schools.nyc.gov/Find-a-School,F to Jamaica - 179th St,"Q1, Q110, Q17, Q2, Q3, Q36, Q43, Q76, Q77, Q83, X68",https://tools.nycenet.edu/snapshot/2019/29Q238/EMS,40.712955,-73.77937,"88-15 182nd Street, Queens NY 11423"
25Q250,I.S. 250 The Robert F. Kennedy Community Middle Sc,Junior High-Intermediate-Middle,"06,07,08,SE","25",718-591-9000,https://www.rfk250.com,N/A,"Q25, Q34, Q46, Q64, Q65, QM1, QM31, QM35, QM36, QM5, QM6, QM7, QM8",https://tools.nycenet.edu/snapshot/2019/25Q250/EMS,40.723935,-73.80928,"158-40 76th Road, Queens NY 11366"
25Q252,"Queens School of Inquiry, The",Secondary School,"06,07,08,09,10,11,12,SE","25",718-380-6929,https://www.queensinquiry.com,N/A,"Q25, Q34, Q46, Q64, Q65, QM1, QM31, QM35, QM36, QM5, QM6, QM7, QM8",https://tools.nycenet.edu/snapshot/2019/25Q252/EMS,40.724487,-73.809221,"158-40 76th Road, Queens NY 11366"
29Q259,Pathways College Preparatory School: A College Boa,Secondary School,"06,07,08,09,10,11,12,SE","29",718-454-4957,https://www.pathwaysprep.org,N/A,"Q2, Q4, Q77, Q83",https://tools.nycenet.edu/snapshot/2019/29Q259/EMS,40.706213,-73.752986,"109-89 204th Street, Queens NY 11412"
27Q262,Channel View School for Research,Secondary School,"06,07,08,09,10,11,12,SE","27",718-634-1970,https://www.cvsr.info,"A, S to Beach 98th St-Playland","Q22, Q52, Q53, QM16, QM17",https://tools.nycenet.edu/snapshot/2019/27Q262/EMS,40.58617,-73.825323,"100-00 Beach Channel Drive, Queens NY 11694"
26Q266,P.S./I.S. 266,K-8,"PK,0K,01,02,03,04,05,06,07,08,SE","26",718-479-3920,https://www.http://psis266.org,N/A,"Q36, Q43, Q46, QM36, QM6",https://tools.nycenet.edu/snapshot/2019/26Q266/EMS,40.746203,-73.728587,"74-10 Commonwealth Boulevard, Queens NY 11426"
29Q268,P.S./I.S. 268,K-8,"0K,01,02,03,04,05,06,07,08,SE","29",718-206-3240,https://www.psis268q.org,F to Jamaica - 179th St,"Q1, Q110, Q17, Q2, Q20A, Q20B, Q24, Q3, Q30, Q31, Q36, Q4, Q41, Q42, Q43, Q44-SBS, Q5, Q54, Q56, Q6, Q76, Q77, Q8, Q83, Q84, Q85, Q9, X64, X68",https://tools.nycenet.edu/snapshot/2019/29Q268/EMS,40.707514,-73.784919,"92-07 175th Street, Queens NY 11433"
29Q270,The Gordon Parks School,K-8,"PK,0K,01,02,03,04,05,06,07,08,SE","29",718-341-8280,https://www.schools.nyc.gov/Find-a-School,N/A,"Q5, Q84, X63",https://tools.nycenet.edu/snapshot/2019/29Q270/EMS,40.674975,-73.736115,"233-15 Merrick Boulevard, Queens NY 11422"
25Q281,East-West School of International Studies,Secondary School,"06,07,08,09,10,11,12,SE","25",718-353-0009,https://www.ewsis.org,N/A,"Q17, Q20A, Q20B, Q25, Q27, Q34, Q44-SBS, Q65",https://tools.nycenet.edu/snapshot/2019/25Q281/EMS,40.749393,-73.821507,"46-21 Colden Street, Queens NY 11355"
27Q282,Knowledge and Power Preparatory Academy VI,Junior High-Intermediate-Middle,"06,07,08,SE","27",718-471-6934,https://www.schools.nyc.gov/Find-a-School,A to Beach 25th St-Wavecrest,"Q114, Q22, QM17",https://tools.nycenet.edu/snapshot/2019/27Q282/EMS,40.601336,-73.764012,"8-21 Bay 25th Street, Queens NY 11691"
29Q283,Preparatory Academy for Writers: A College Board S,Secondary School,"06,07,08,09,10,11,12,SE","29",718-949-8405,https://www.preparatoryacademyforwriters.com,N/A,"Q3, Q77, Q85",https://tools.nycenet.edu/snapshot/2019/29Q283/EMS,40.669061,-73.757942,"143-10 Springfield Boulevard, Queens NY 11413"
28Q284,York Early College Academy,Secondary School,"06,07,08,09,10,11,12,SE","28",718-262-8547,https://www.yorkearlycollegeacademy.com,N/A,"Q111, Q112, Q113, Q114, Q4, Q42, Q5, Q60, Q83, Q84, Q85, X64",https://tools.nycenet.edu/snapshot/2019/28Q284/EMS,40.697022,-73.786501,"108-35 167th Street, Queens NY 11433"
25Q285,World Journalism Preparatory: A College Board Scho,Secondary School,"06,07,08,09,10,11,12,SE","25",718-461-2219,https://www.wjps.org,N/A,"Q12, Q13, Q16, Q28, Q31, Q76, QM3",https://tools.nycenet.edu/snapshot/2019/25Q285/EMS,40.764633,-73.789315,"34-65 192nd Street, Queens NY 11358"
30Q286,"Young Women's Leadership School, Astoria",Secondary School,"06,07,08,09,10,11,12,SE","30",718-267-2839,https://www.tywls-astoria.org,"N, Q to 30 Ave-Grand Ave","Q100, Q103, Q18, Q69",https://tools.nycenet.edu/snapshot/2019/30Q286/EMS,40.770514,-73.923781,"23-15 Newtown Avenue, Queens NY 11102"
28Q287,The Emerson School,Junior High-Intermediate-Middle,"06,07,08,SE","28",718-657-4801,https://www.theemersonschool.com,N/A,"Q111, Q112, Q113, Q114, Q4, Q42, Q5, Q60, Q83, Q84, Q85, X64",https://tools.nycenet.edu/snapshot/2019/28Q287/EMS,40.697136,-73.786625,"108-35 167th Street, Queens NY 11433"
29Q289,Queens United Middle School,Junior High-Intermediate-Middle,"06,07,08,SE","29",718-723-3501,https://www.queensunited.org,N/A,"Q5, Q85, X63",https://tools.nycenet.edu/snapshot/2019/29Q289/EMS,40.672337,-73.743622,"229-02 137th Avenue, Queens NY 11413"
30Q291,Hunters Point Community Middle School,Junior High-Intermediate-Middle,"06,07,08,SE","30",718-609-3300,https://www.hunterspointcms.org,"G to 21st St; 7 to Vernon Blvd-Jackson Ave","B32, B43, B62, Q103",https://tools.nycenet.edu/snapshot/2019/30Q291/EMS,40.743124,-73.959254,"1-50 51st Avenue, Queens NY 11101"
25Q294,BELL Academy,Junior High-Intermediate-Middle,"06,07,08,SE","25",718-428-0587,https://www.thebellacademy.com,N/A,"Q13, Q16, Q28, QM2, QM20, QM32",https://tools.nycenet.edu/snapshot/2019/25Q294/EMS,40.782597,-73.778408,"18-25 212th Street, Queens NY 11360"
29Q295,P.S./I.S. 295,K-8,"PK,0K,01,02,03,04,05,06,07,08,SE","29",718-464-1433,https://www.psis295q.org,N/A,Q27,https://tools.nycenet.edu/snapshot/2019/29Q295/EMS,40.720338,-73.731577,"222-14 Jamaica Avenue, Queens NY 11428"
27Q297,Hawtree Creek Middle School,Junior High-Intermediate-Middle,"06,07,08,SE","27",718-659-3792,https://www.hcms297.org,N/A,"Q10, Q37, Q7, Q9, QM18",https://tools.nycenet.edu/snapshot/2019/27Q297/EMS,40.674921,-73.816975,"121-10 Rockaway Boulevard, Queens NY 11420"
30Q300,The 30th Avenue School (G&T Citywide),K-8,"0K,01,02,03,04,05,06,07,08,SE","30",718-726-0501,https://www.q300.org,"N, Q to 30 Ave-Grand Ave","M60-SBS, Q100, Q102, Q104, Q18, Q19, Q69",https://tools.nycenet.edu/snapshot/2019/30Q300/EMS,40.767912,-73.922745,"31-51 21st Street, Queens NY 11106"
27Q309,Academy of Medical Technology: A College Board Sch,Secondary School,"06,07,08,09,10,11,12,SE","27",718-471-3571,https://www.AMTNYC.org,A to Beach 25th St-Wavecrest,"Q114, Q22, QM17",https://tools.nycenet.edu/snapshot/2019/27Q309/EMS,40.601558,-73.763848,"8-21 Bay 25th Street, Queens NY 11691"
28Q310,Queens Collegiate: A College Board School,Secondary School,"06,07,08,09,10,11,12,SE","28",718-658-4016,https://www.queenscollegiate.wordpress.com,F to 169th St,"Q1, Q17, Q2, Q25, Q3, Q30, Q31, Q34, Q36, Q43, Q6, Q65, Q76, Q77, Q8, X68",https://tools.nycenet.edu/snapshot/2019/28Q310/EMS,40.714507,-73.79876,"167-01 Gothic Drive, Queens NY 11432"
24Q311,Corona Arts & Sciences Academy,Junior High-Intermediate-Middle,"06,07,08,SE","24",718-507-3820,https://www.CASA311.org,7 to 103rd St - Corona Plaza,"Q23, Q29, Q38, Q48, Q58, Q72",https://tools.nycenet.edu/snapshot/2019/24Q311/EMS,40.746174,-73.865303,"98-11 44th Avenue, Queens NY 11368"
24Q311,Corona Arts & Sciences Academy,Junior High-Intermediate-Middle,"06,07,08,SE","24",718-507-3820,https://www.CASA311.org,7 to 103rd St - Corona Plaza,"Q23, Q29, Q38, Q48, Q58, Q72",https://tools.nycenet.edu/snapshot/2019/24Q311/EMS,40.746049,-73.865065,"98-11 44th Avenue, Queens NY 11368"
27Q318,Waterside School For Leadership,Junior High-Intermediate-Middle,"06,07,08,SE","27",718-634-1128,https://www.watersideschoolforleadership.com,"A, S to Rockaway Park-Beach 116th","Q22, Q35, Q52, Q53, QM16",https://tools.nycenet.edu/snapshot/2019/27Q318/EMS,40.581209,-73.831035,"190 Beach 110th Street, Queens NY 11694"
27Q319,Village Academy,Junior High-Intermediate-Middle,"06,07,08,SE","27",718-471-6042,https://www.vanyc.org,A to Far Rockaway - Mott Ave,"Q113, Q114, Q22, QM17",https://tools.nycenet.edu/snapshot/2019/27Q319/EMS,40.604233,-73.750016,"10-45 Nameoke Street, Queens NY 11691"
27Q323,Scholars' Academy,Secondary School,"06,07,08,09,10,11,12,SE","27",718-474-6918,https://www.scholarsnyc.com/about-us/ms-admissions,"A, S to Beach 105th St-Seaside","Q22, Q52, Q53, QM16",https://tools.nycenet.edu/snapshot/2019/27Q323/EMS,40.584656,-73.825418,"320 Beach 104th Street, Queens NY 11694"
29Q327,Eagle Academy for Young Men III,Secondary School,"06,07,08,09,10,11,12,SE","29",718-480-2600,https://www.schools.nyc.gov/Find-a-School,N/A,"Q111, Q113, Q114, Q4, Q42, Q5, Q84, Q85, X63",https://tools.nycenet.edu/snapshot/2019/29Q327/EMS,40.691538,-73.778706,"171-10 Linden Boulevard, Queens NY 11434"
28Q332,Redwood Middle School,Junior High-Intermediate-Middle,"06,07,08,SE","28",718-276-4540,https://www.schools.nyc.gov/Find-a-School,N/A,"Q111, Q113, Q114, Q6, Q85, QM21",https://tools.nycenet.edu/snapshot/2019/28Q332/EMS,40.675209,-73.775849,"133-25 Guy R Brewer Boulevard, Queens NY 11434"
27Q333,Goldie Maple Academy,K-8,"PK,0K,01,02,03,04,05,06,07,08,SE","27",718-945-3300,https://www.schools.nyc.gov/Find-a-School,N/A,"Q22, QM17",https://tools.nycenet.edu/snapshot/2019/27Q333/EMS,40.593901,-73.786826,"3-65 Beach 56th Street, Queens NY 11692"
29Q355,Collaborative Arts Middle School,Junior High-Intermediate-Middle,"06,07,08,SE","29",718-977-6181,https://www.camsq355.org,N/A,"Q111, Q113, Q114, Q3, Q77, Q85",https://tools.nycenet.edu/snapshot/2019/29Q355/EMS,40.664584,-73.759415,"145-00 Springfield Boulevard, Queens NY 11413"
29Q356,Community Voices Middle School,Junior High-Intermediate-Middle,"06,07,08,SE","29",718-977-6180,https://www.covoms356.org,N/A,"Q111, Q113, Q114, Q3, Q77, Q85",https://tools.nycenet.edu/snapshot/2019/29Q356/EMS,40.66509,-73.75931,"145-00 Springfield Boulevard, Queens NY 11413"
28Q358,M.S. 358,Junior High-Intermediate-Middle,"06,07,08,SE","28",718-558-6240,https://www.ms358q.org,"F to 169th St; E, J, Z to Jamaica Center - Parsons / Archer","Q1, Q110, Q111, Q112, Q113, Q114, Q17, Q2, Q20A, Q20B, Q24, Q25, Q3, Q30, Q31, Q34, Q36, Q4, Q41, Q42, Q43, Q44-SBS, Q5, Q54, Q56, Q6, Q65, Q76, Q77, Q8, Q83, Q84, Q85, Q9, X68",https://tools.nycenet.edu/snapshot/2019/28Q358/EMS,40.708955,-73.797987,"88-08 164th Street, Queens NY 11432"
25Q379,College Point Collaborative,Junior High-Intermediate-Middle,"06,07,SE","25",631-729-1006,https://www.schools.nyc.gov/Find-a-School,N/A,"Q20B, Q25, Q65, Q76",https://tools.nycenet.edu/snapshot/2019/25Q379/EMS,40.784995,-73.843662,"124-06 14th Avenue, Queens, NY 11356"
25Q499,"The Queens College School for Math, Science and Te",K-8,"PK,0K,01,02,03,04,05,06,07,08","25",718-461-7462,https://www.ps499formst.weebly.com,N/A,"Q17, Q20A, Q20B, Q25, Q34, Q44-SBS, Q88",https://tools.nycenet.edu/snapshot/2019/25Q499/EMS,40.738603,-73.820876,"148-20 Reeves Avenue, Queens NY 11367"
24Q560,"Robert F. Wagner, Jr. Secondary School for Arts an",Secondary School,"06,07,08,09,10,11,12,SE","24",718-472-5671,https://www.rfwagner.org,"G to Court Sq - 23rd St; E, M, R to Queens Plaza; 7 to 33rd St","B24, B62, Q100, Q101, Q102, Q32, Q39, Q60, Q67, Q69",https://tools.nycenet.edu/snapshot/2019/24Q560/EMS,40.742406,-73.936188,"47-07 30th Place, Queens NY 11101"
28Q680,Queens Gateway to Health Sciences Secondary School,Secondary School,"06,07,08,09,10,11,12,SE","28",718-969-3155,https://www.queensgateway.com,N/A,"Q25, Q34, Q46, Q65, QM1, QM31, QM35, QM36, QM5, QM6, QM7, QM8",https://tools.nycenet.edu/snapshot/2019/28Q680/EMS,40.71822,-73.806122,"160-20 Goethals Avenue, Queens NY 11432"
28Q896,"Young Women's Leadership School, Queens",Secondary School,"06,07,08,09,10,11,12","28",718-725-0402,https://www.tywlsqueens.org,"F to Parsons Blvd; E, J, Z to Jamaica Center - Parsons / Archer","Q1, Q110, Q111, Q112, Q113, Q114, Q17, Q2, Q20A, Q20B, Q24, Q25, Q3, Q30, Q31, Q34, Q36, Q4, Q40, Q41, Q42, Q43, Q44-SBS, Q5, Q54, Q56, Q6, Q65, Q76, Q77, Q8, Q83, Q84, Q85, Q9, X68",https://tools.nycenet.edu/snapshot/2019/28Q896/EMS,40.708588,-73.804447,"150-91 87th Road, Queens NY 11432"
31R002,I.S. R002 George L. Egbert,Junior High-Intermediate-Middle,"06,07,08,SE","31",718-987-5336,https://www.egbert2.org,SIR to Jefferson Ave,"S51, S76, S78, S79-SBS, S81, X1, X2, X3, X4, X5, X7, X8, X9",https://tools.nycenet.edu/snapshot/2019/31R002/EMS,40.576461,-74.099774,"333 Midland Avenue, Staten Island NY 10306"
31R007,I.S. 007 Elias Bernstein,Junior High-Intermediate-Middle,"06,07,08,SE","31",718-697-8488,https://www.is7vikings.org,N/A,"S55, S56, S59, S78",https://tools.nycenet.edu/snapshot/2019/31R007/EMS,40.522961,-74.186057,"1270 Huguenot Avenue, Staten Island NY 10312"
31R024,I.S. 024 Myra S. Barnes,Junior High-Intermediate-Middle,"06,07,08,SE","31",718-982-4700,https://www.barnes24.org,SIR to Great Kills,"S54, S78, S79-SBS, X1, X4, X5, X7, X8",https://tools.nycenet.edu/snapshot/2019/31R024/EMS,40.545225,-74.145766,"225 Cleveland Avenue, Staten Island NY 10308"
31R027,I.S. 027 Anning S. Prall,Junior High-Intermediate-Middle,"06,07,08,SE","31",718-981-8800,https://www.N/A,N/A,"S44, S46, S48, S53, S54, S94, S96, S98, X14, X30",https://tools.nycenet.edu/snapshot/2019/31R027/EMS,40.628026,-74.117998,"11 Clove Lake Place, Staten Island NY 10310"
31R028,The Eagle Academy for Young Men of Staten Island,Secondary School,"06,07,08,09,10,11,SE","31",718-727-6201,https://www.schools.nyc.gov/Find-a-School,SIR to Clifton,"S51, S52, S66, S74, S76, S78, S84, S86",https://tools.nycenet.edu/snapshot/2019/31R028/EMS,40.62057,-74.080471,"101 Warren Street, Staten Island NY 10304"
31R034,I.S. 034 Tottenville,Junior High-Intermediate-Middle,"06,07,08,SE","31",718-477-4500,https://www.is34.org,N/A,"S59, S74, X17, X22, X22A",https://tools.nycenet.edu/snapshot/2019/31R034/EMS,40.508353,-74.243295,"528 Academy Avenue, Staten Island NY 10307"
31R048,P.S. 048 William G. Wilcox,K-8,"PK,0K,01,02,03,04,05,06,07,08,SE","31",718-447-8323,https://www.psis48.echalksites.com,SIR to Grasmere,"S53, S74, S76, S78, S84, S86, S93, X10, X14, X15",https://tools.nycenet.edu/snapshot/2019/31R048/EMS,40.603337,-74.091294,"1050 Targee Street, Staten Island NY 10304"
31R049,I.S. 49 Berta A. Dreyfus,Junior High-Intermediate-Middle,"06,07,08,SE","31",718-727-6040,https://www.berta49.org,SIR to Clifton,"S51, S52, S66, S74, S76, S78, S84, S86",https://tools.nycenet.edu/snapshot/2019/31R049/EMS,40.620685,-74.080747,"101 Warren Street, Staten Island NY 10304"
31R051,I.S. 051 Edwin Markham,Junior High-Intermediate-Middle,"06,07,08,SE","31",718-981-0502,https://www.is51.org,N/A,"S44, S48, S57, S59, S89, S94, S98, X10, X10B, X12, X14, X30, X42",https://tools.nycenet.edu/snapshot/2019/31R051/EMS,40.622871,-74.145591,"20 Houston Street, Staten Island NY 10302"
31R061,I.S. 061 William A Morris,Junior High-Intermediate-Middle,"06,07,08,SE","31",718-727-8481,https://www.williamamorrisis61.org,N/A,"S42, S44, S46, S48, S94, S96, S98, X30",https://tools.nycenet.edu/snapshot/2019/31R061/EMS,40.63464,-74.098201,"445 Castleton Avenue, Staten Island NY 10301"
31R063,Marsh Avenue School for Expeditionary Learning,Junior High-Intermediate-Middle,"06,07,08,SE","31",718-370-6850,https://www.maels.net,N/A,"S44, S55, S56, S59, S61, S79-SBS, S89, S91, S94, X17, X17A, X17J, X31",https://tools.nycenet.edu/snapshot/2019/31R063/EMS,40.581897,-74.159186,"100 Essex Drive, Staten Island NY 10314"
31R072,I.S. 072 Rocco Laurie,Junior High-Intermediate-Middle,"06,07,08,SE","31",718-698-5757,https://www.is72.org,N/A,"S44, S59, S61, S89, S91, S94, X17, X17A, X17J, X31",https://tools.nycenet.edu/snapshot/2019/31R072/EMS,40.592415,-74.158719,"33 Ferndale Avenue, Staten Island NY 10314"
31R075,I.S. 075 Frank D. Paulo,Junior High-Intermediate-Middle,"06,07,08,SE","31",718-356-0130,https://www.is75.org,N/A,"S56, X17, X17J, X19",https://tools.nycenet.edu/snapshot/2019/31R075/EMS,40.544397,-74.197248,"455 Huguenot Avenue, Staten Island NY 10312"
31R080,The Michael J. Petrides School,K-12 all grades,"PK,0K,01,02,03,04,05,06,07,08,09,10,11,12,SE","31",718-815-0186,https://www.petridesschool.com,N/A,"S53, S61, S62, S66, S78, S93, X14",https://tools.nycenet.edu/snapshot/2019/31R080/EMS,40.60773,-74.105882,"715 Ocean Terrace, Staten Island NY 10301"
31R861,Staten Island School of Civic Leadership,K-8,"PK,0K,01,02,03,04,05,06,07,08,SE","31",718-697-5250,https://www.sisclnyc.com,N/A,"S40, S46, S48, S90, S96, S98, X12, X17, X17A, X17J, X19, X30, X42",https://tools.nycenet.edu/snapshot/2019/31R861/EMS,40.620165,-74.164217,"280 Regis Drive, Staten Island NY 10314"
10X003,P.S. 3 Raul Julia Micro Society,K-8,"PK,0K,01,02,03,04,05,06,07,08,SE","10",718-584-1899,https://www.schools.nyc.gov/Find-a-School,N/A,"Bx12, Bx17, Bx19, Bx36, Bx40, Bx41, Bx41-SBS, Bx42, Bx9",https://tools.nycenet.edu/snapshot/2019/10X003/EMS,40.850054,-73.891907,"2100 Lafontaine Avenue, Bronx NY 10457"
09X004,P.S./M.S. 004 Crotona Park West,K-8,"PK,0K,01,02,03,04,05,06,07,08,SE","9",718-583-6655,https://www.schools.nyc.gov/Find-a-School,N/A,"Bx11, Bx15, Bx17, Bx21, Bx36, Bx40, Bx41, Bx41-SBS, Bx42",https://tools.nycenet.edu/snapshot/2019/09X004/EMS,40.841765,-73.898179,"1701 Fulton Avenue, Bronx NY 10457"
07X005,P.S. 5 Port Morris,K-8,"PK,0K,01,02,03,04,05,06,07,08,SE","7",718-292-2683,https://www.ps5x.org,"6 to East 149th St; 2, 5 to Jackson Ave","Bx15, Bx17, Bx19, Bx21, Bx4, Bx41, Bx41-SBS, Bx46, Bx4A",https://tools.nycenet.edu/snapshot/2019/07X005/EMS,40.813941,-73.908132,"564 Jackson Avenue, Bronx NY 10455"
10X015,P.S. X015 Institute for Environmental Learning,K-8,"0K,01,02,03,04,05,06,07,08,SE","10",718-563-0473,https://www.schools.nyc.gov/Find-a-School,"B, D to 182nd-183rd Sts; 4 to 183rd St","Bx1, Bx12, Bx12-SBS, Bx2, Bx3, Bx32, Bx36, Bx40, Bx42, BxM3",https://tools.nycenet.edu/snapshot/2019/10X015/EMS,40.859202,-73.909619,"2195 Andrews Avenue, Bronx NY 10453"
11X019,P.S. 019 Judith K. Weiss,K-8,"0K,01,02,03,04,05,06,07,08,SE","11",718-324-1924,https://www.ps19.us,N/A,"Bx16, Bx31, Bx34, BxM4",https://tools.nycenet.edu/snapshot/2019/11X019/EMS,40.899581,-73.867223,"4318 Katonah Avenue, Bronx NY 10470"
10X020,"PS/MS 20 P.O.George J. Werdann, III",K-8,"PK,0K,01,02,03,04,05,06,07,08,SE","10",718-515-9370,https://www.schools.nyc.gov/Find-a-School,"D to 205th St - Norwood; B to Bedford Park Blvd","Bx1, Bx10, Bx16, Bx2, Bx26, Bx28, Bx30, Bx34, Bx38, Bx41, Bx41-SBS, BxM4",https://tools.nycenet.edu/snapshot/2019/10X020/EMS,40.869757,-73.878751,"3050 Webster Avenue, Bronx NY 10467"
09X022,J.H.S. 022 Jordan L. Mott,Junior High-Intermediate-Middle,"06,07,08,SE","9",718-681-6850,https://www.schools.nyc.gov/Find-a-School,"4, B, D to 167th St","Bx1, Bx11, Bx15, Bx18, Bx2, Bx32, Bx35, Bx41, Bx41-SBS, BxM4",https://tools.nycenet.edu/snapshot/2019/09X022/EMS,40.832044,-73.914174,"270 East 167th Street, Bronx NY 10456"
07X029,P.S./M.S. 029 Melrose School,K-8,"PK,0K,01,02,03,04,05,06,07,08,SE","7",718-292-3785,https://www.psms29.org,"2, 5 to 3rd Ave-149th St","Bx1, Bx13, Bx15, Bx19, Bx2, Bx21, Bx32, Bx4, Bx41, Bx41-SBS, Bx4A, Bx6, BxM4",https://tools.nycenet.edu/snapshot/2019/07X029/EMS,40.821639,-73.91645,"758 Courtlandt Avenue, Bronx NY 10451"
07X031,P.S./M.S. 031 The William Lloyd Garrison,K-8,"PK,0K,01,02,03,04,05,06,07,08,SE","7",718-292-4397,https://www.psms31.org,"4, B, D to 161st St-Yankee Stadium; 2, 5 to 149th St-Grand Concourse","Bx1, Bx13, Bx15, Bx19, Bx2, Bx21, Bx32, Bx41, Bx41-SBS, Bx6, BxM4",https://tools.nycenet.edu/snapshot/2019/07X031/EMS,40.822815,-73.921349,"250 East 156th Street, Bronx NY 10451"
10X037,P.S. X037 - Multiple Intelligence School,K-8,"0K,01,02,03,04,05,06,07,08,SE","10",718-796-0360,https://www.schools.nyc.gov/Find-a-School,1 to 231st St,"Bx1, Bx10, Bx2, Bx20, Bx7, Bx9, BxM1, BxM18, BxM2",https://tools.nycenet.edu/snapshot/2019/10X037/EMS,40.877776,-73.913711,"360 West 230th Street, Bronx NY 10463"
10X045,Thomas C. Giordano Middle School 45,Junior High-Intermediate-Middle,"06,07,08,SE","10",718-584-1660,https://www.schools.nyc.gov/Find-a-School,N/A,"Bx12, Bx12-SBS, Bx15, Bx17, Bx19, Bx22, Bx34, Bx41, Bx41-SBS, Bx9",https://tools.nycenet.edu/snapshot/2019/10X045/EMS,40.858395,-73.887096,"2502 Lorillard Place, Bronx NY 10458"
08X071,P.S. 071 Rose E. Scala,K-8,"0K,01,02,03,04,05,06,07,08,SE","8",718-822-5351,https://www.schools.nyc.gov/Find-a-School,6 to Buhre Ave,"Bx12, Bx12-SBS, Bx23, Bx24, Bx29, Bx5, Bx8, BxM8, Q50",https://tools.nycenet.edu/snapshot/2019/08X071/EMS,40.845645,-73.82954,"3040 Roberts Avenue, Bronx NY 10461"
10X080,J.H.S. 080 The Mosholu Parkway,Junior High-Intermediate-Middle,"06,07,08,SE","10",718-405-6300,https://www.schools.nyc.gov/Find-a-School,"D to 205th St - Norwood; B to Bedford Park Blvd; 4 to Mosholu Parkway","Bx1, Bx10, Bx16, Bx2, Bx22, Bx26, Bx28, Bx30, Bx34, Bx38, Bx41, Bx41-SBS, BxM4",https://tools.nycenet.edu/snapshot/2019/10X080/EMS,40.876544,-73.880985,"149 East Mosholu Pkwy N, Bronx NY 10467"
10X080,J.H.S. 080 The Mosholu Parkway,Junior High-Intermediate-Middle,"06,07,08,SE","10",718-405-6300,https://www.schools.nyc.gov/Find-a-School,"D to 205th St - Norwood; B to Bedford Park Blvd; 4 to Mosholu Parkway","Bx1, Bx10, Bx16, Bx2, Bx22, Bx26, Bx28, Bx30, Bx34, Bx38, Bx41, Bx41-SBS, BxM4",https://tools.nycenet.edu/snapshot/2019/10X080/EMS,40.877022,-73.880977,"149 East Mosholu Pkwy N, Bronx NY 10467"
11X083,P.S. 083 Donald Hertz,K-8,"0K,01,02,03,04,05,06,07,08,SE","11",718-863-1993,https://www.ps83.org,"5 to Morris Park; 2 to Bronx Park East","Bx21, Bx22, Bx39, Bx8, BxM10",https://tools.nycenet.edu/snapshot/2019/11X083/EMS,40.849057,-73.858649,"950 Rhinelander Avenue, Bronx NY 10462"
11X089,P.S. 089 Bronx,K-8,"PK,0K,01,02,03,04,05,06,07,08,SE","11",718-653-0835,https://www.ps89x.com,"5 to Pelham Parkway; 2 to Allerton Ave","Bx12, Bx12-SBS, Bx26, Bx39, Bx8, BxM11",https://tools.nycenet.edu/snapshot/2019/11X089/EMS,40.862264,-73.859492,"980 Mace Avenue, Bronx NY 10469"
10X095,P.S. 095 Sheila Mencher,K-8,"0K,01,02,03,04,05,06,07,08,SE","10",718-796-9200,https://www.schools.nyc.gov/Find-a-School,"4 to Mosholu Parkway; 1 to 238th St","Bx1, Bx10, Bx2, Bx22, Bx26, Bx28, Bx3, Bx38, Bx9, BxM3",https://tools.nycenet.edu/snapshot/2019/10X095/EMS,40.883316,-73.89183,"3961 Hillman Avenue, Bronx NY 10463"
12X098,J.H.S. 098 Herman Ridder,Junior High-Intermediate-Middle,"06,07,08,SE","12",718-589-8200,https://www.schools.nyc.gov/Find-a-School,"2, 5 to 174th St","Bx11, Bx17, Bx19, Bx21, Bx36",https://tools.nycenet.edu/snapshot/2019/12X098/EMS,40.836,-73.890494,"1619 Boston Road, Bronx NY 10460"
08X101,M.S. X101 Edward R. Byrne,Junior High-Intermediate-Middle,"06,07,08,SE","8",718-829-6372,https://www.ms101.net Twitter @MS101_Bronx Instagram ms101_Bronx,N/A,"Bx40, Bx42, Bx5, Bx8, BxM8, BxM9, Q44-SBS, Q50",https://tools.nycenet.edu/snapshot/2019/08X101/EMS,40.826821,-73.829023,"2750 Lafayette Avenue, Bronx NY 10465"
09X117,I.S. 117 Joseph H. Wade,Junior High-Intermediate-Middle,"06,07,08,SE","9",718-583-7750,https://www.jhs117.org,"B, D to 174th-175th Sts; 4 to 176th St","Bx1, Bx18, Bx2, Bx3, Bx32, Bx36, Bx40, Bx41, Bx41-SBS, Bx42, BxM4",https://tools.nycenet.edu/snapshot/2019/09X117/EMS,40.848336,-73.909258,"1865 Morris Avenue, Bronx NY 10453"
10X118,J.H.S. 118 William W. Niles,Junior High-Intermediate-Middle,"06,07,08,SE","10",718-584-2330,https://www.ms118.info,N/A,"Bx12, Bx15, Bx17, Bx19, Bx36, Bx40, Bx41, Bx41-SBS, Bx42, Bx9",https://tools.nycenet.edu/snapshot/2019/10X118/EMS,40.848988,-73.892334,"577 East 179th Street, Bronx NY 10457"
08X123,J.H.S. 123 James M. Kieran,Junior High-Intermediate-Middle,"06,07,08,SE","8",718-328-2105,https://www.schools.nyc.gov/Find-a-School,6 to Morrison-Soundview Ave,"Bx27, Bx4, Bx4A, Bx5",https://tools.nycenet.edu/snapshot/2019/08X123/EMS,40.825072,-73.874044,"1025 Morrison Avenue, Bronx NY 10472"
11X127,J.H.S. 127 The Castle Hill,Junior High-Intermediate-Middle,"06,07,08,SE","11",718-892-8600,https://www.schools.nyc.gov/Find-a-School,6 to Castle Hill Ave,"Bx22, Bx4, Bx40, Bx42, Bx4A, BxM6, Q44-SBS",https://tools.nycenet.edu/snapshot/2019/11X127/EMS,40.838888,-73.853107,"1560 Purdy Street, Bronx NY 10462"
09X128,Mott Hall III,Junior High-Intermediate-Middle,"06,07,08,SE","9",718-842-6138,https://www.motthall3.com,N/A,"Bx11, Bx15, Bx17, Bx21, Bx35, Bx41, Bx41-SBS",https://tools.nycenet.edu/snapshot/2019/09X128/EMS,40.834629,-73.900553,"580 Crotona Park South, Bronx NY 10456"
12X129,M.S. 129 Academy for Independent Learning and Lead,Junior High-Intermediate-Middle,"06,07,08,SE","12",718-933-5976,https://www.ms129.org,"2, 5 to West Farms Sq - East Tremont Ave","Bx12, Bx15, Bx17, Bx19, Bx21, Bx36, Bx40, Bx42, Bx9, Q44-SBS",https://tools.nycenet.edu/snapshot/2019/12X129/EMS,40.846359,-73.886625,"2055 Mapes Avenue, Bronx NY 10460"
08X131,J.H.S. 131 Albert Einstein,Junior High-Intermediate-Middle,"06,07,08,SE","8",718-991-7490 ext. 236,https://www.is131.org,N/A,"Bx27, Bx36, Bx39, Bx5, BxM8",https://tools.nycenet.edu/snapshot/2019/08X131/EMS,40.822833,-73.860137,"885 Bolton Avenue, Bronx NY 10473"
10X141,Riverdale / Kingsbridge Academy (Middle School / H,Secondary School,"06,07,08,09,10,11,12,SE","10",718-796-8516,https://www.rka141.org,N/A,"Bx10, Bx20, Bx7, BxM1, BxM18, BxM2",https://tools.nycenet.edu/snapshot/2019/10X141/EMS,40.887668,-73.914063,"660 West 237th Street, Bronx NY 10463"
11X144,J.H.S. 144 Michelangelo,Junior High-Intermediate-Middle,"06,07,08,SE","11",718-794-9749,https://www.afterschool-jhs144.weebly.com,N/A,"Bx12, Bx12-SBS, Bx23, Bx26, Bx28, Bx29, Bx30, Bx31, Bx38, Bx5, BxM10, Q50",https://tools.nycenet.edu/snapshot/2019/11X144/EMS,40.863982,-73.836502,"2545 Gunther Avenue, Bronx NY 10469"
07X151,J.H.S. 151 Lou Gehrig,Junior High-Intermediate-Middle,"06,07,08,SE","7",718-292-0260,https://www.is151.org,"4, B, D to 161st St-Yankee Stadium; 2, 5 to 149th St-Grand Concourse","Bx1, Bx13, Bx15, Bx19, Bx2, Bx21, Bx32, Bx41, Bx41-SBS, Bx6, BxM4",https://tools.nycenet.edu/snapshot/2019/07X151/EMS,40.822762,-73.920901,"250 East 156th Street, Bronx NY 10451"
11X175,P.S. 175 City Island,K-8,"0K,01,02,03,04,05,06,07,08,SE","11",718-885-1093,https://www.schools.nyc.gov/Find-a-School,N/A,"Bx29, BxM8",https://tools.nycenet.edu/snapshot/2019/11X175/EMS,40.844464,-73.783776,"200 City Island Avenue, Bronx NY 10464"
11X180,M.S. 180 Dr. Daniel Hale Williams,Junior High-Intermediate-Middle,"06,07,08,SE","11",718-904-5650,https://www.schools.nyc.gov/Find-a-School,5 to Baychester Ave,"Bx12, Bx12-SBS, Bx23, Bx26, Bx28, Bx29, Bx30, Bx38, Bx5, BxM7, Q50",https://tools.nycenet.edu/snapshot/2019/11X180/EMS,40.87381,-73.831479,"700 Baychester Avenue, Bronx NY 10475"
11X181,I.S. 181 Pablo Casals,Junior High-Intermediate-Middle,"06,07,08,SE","11",718-904-5600,https://www.ms181info.weebly.com,5 to Baychester Ave,"Bx12, Bx12-SBS, Bx23, Bx26, Bx28, Bx30, Bx38, Bx5, BxM7, Q50",https://tools.nycenet.edu/snapshot/2019/11X181/EMS,40.874155,-73.831616,"800 Baychester Avenue, Bronx NY 10475"
12X190,E.S.M.T- I.S. 190,Junior High-Intermediate-Middle,"06,07,08,SE","12",718-620-9423,https://www.schools.nyc.gov/Find-a-School,"2, 5 to 174th St","Bx11, Bx15, Bx17, Bx19, Bx21, Bx36, Bx41",https://tools.nycenet.edu/snapshot/2019/12X190/EMS,40.836197,-73.892724,"1550 Crotona Park East, Bronx NY 10460"
11X194,P.S./M.S. 194,K-8,"0K,01,02,03,04,05,06,07,08,SE","11",718-892-5270,https://www.schools.nyc.gov/Find-a-School,6 to Zerega Ave,"Bx21, Bx22, Bx24, Bx31, Bx4, Bx40, Bx42, Bx4A, Bx5, Bx8, Q44-SBS",https://tools.nycenet.edu/snapshot/2019/11X194/EMS,40.835463,-73.846829,"2365 Waterbury Avenue, Bronx NY 10462"
10X206,I.S. 206 Ann Mersereau,Junior High-Intermediate-Middle,"06,07,08,SE","10",718-584-1570,https://www.is206B.org,"B, D to 182nd-183rd Sts; 4 to 183rd St","Bx1, Bx12, Bx12-SBS, Bx2, Bx3, Bx32, Bx40, Bx42, BxM3, BxM4",https://tools.nycenet.edu/snapshot/2019/10X206/EMS,40.859824,-73.906461,"2280 Aqueduct Avenue, Bronx NY 10468"
12X211,P.S. 211,K-8,"PK,0K,01,02,03,04,05,06,07,08,SE","12",718-901-0436,https://www.schools.nyc.gov/Find-a-School,"2, 5 to 174th St","Bx12, Bx15, Bx17, Bx19, Bx21, Bx36, Bx40, Bx42, Bx9",https://tools.nycenet.edu/snapshot/2019/12X211/EMS,40.843723,-73.890093,"1919 Prospect Avenue, Bronx NY 10457"
12X214,P.S. 214,K-8,"PK,0K,01,02,03,04,05,06,07,08,SE","12",718-589-6728,https://www.schools.nyc.gov/Find-a-School,"2, 5 to West Farms Sq - East Tremont Ave","Bx19, Bx21, Bx36, Bx40, Bx42, Bx9, BxM10, Q44-SBS",https://tools.nycenet.edu/snapshot/2019/12X214/EMS,40.839479,-73.880118,"1970 West Farms Road, Bronx NY 10460"
09X215,Kappa,Junior High-Intermediate-Middle,"06,07,08,SE","9",718-590-5455,https://www.schools.nyc.gov/Find-a-School,N/A,"Bx11, Bx15, Bx17, Bx21, Bx32, Bx35, Bx41, Bx41-SBS",https://tools.nycenet.edu/snapshot/2019/09X215/EMS,40.833377,-73.903719,"3630 Third Avenue, Bronx NY 10456"
12X217,School of Performing Arts,Junior High-Intermediate-Middle,"06,07,08,SE","12",718-589-4844,https://www.is217.org,"6 to Hunts Point Ave; 2, 5 to Intervale Ave","Bx11, Bx17, Bx19, Bx27, Bx35, Bx4, Bx46, Bx4A, Bx5, Bx6",https://tools.nycenet.edu/snapshot/2019/12X217/EMS,40.822318,-73.894216,"977 Fox Street, Bronx NY 10459"
09X218,P.S./I.S. 218 Rafael Hernandez Dual Language Magne,K-8,"0K,01,02,03,04,05,06,07,08,SE","9",718-410-7230,https://www.rhdl218.org,"4, B, D to 167th St","Bx1, Bx11, Bx13, Bx18, Bx2, Bx32, Bx35, BxM4",https://tools.nycenet.edu/snapshot/2019/09X218/EMS,40.835809,-73.919354,"1220 Gerard Avenue, Bronx NY 10452"
09X219,I.S. 219 New Venture School,Junior High-Intermediate-Middle,"06,07,08,SE","9",718-681-7093,https://www.schools.nyc.gov/Find-a-School,N/A,"Bx11, Bx15, Bx17, Bx21, Bx32, Bx35, Bx41, Bx41-SBS",https://tools.nycenet.edu/snapshot/2019/09X219/EMS,40.833765,-73.903704,"3630 Third Avenue, Bronx NY 10456"
07X221,South Bronx Preparatory: A College Board School,Secondary School,"06,07,08,09,10,11,12,SE","7",718-292-2211,https://www.southbronxprep.net,"6 to 3rd Ave - 138th St; 4 to 138th St - Grand Concourse; 2, 5 to 3rd Ave-149th St","Bx1, Bx15, Bx17, Bx19, Bx2, Bx21, Bx32, Bx33, Bx4, Bx41, Bx41-SBS, Bx4A",https://tools.nycenet.edu/snapshot/2019/07X221/EMS,40.813897,-73.920682,"360 East 145th Street, Bronx NY 10454"
07X223,The Laboratory School of Finance and Technology: X,Secondary School,"06,07,08,09,10,11,12,SE","7",718-585-8202,https://www.ms223.org,"6 to 3rd Ave - 138th St; 4 to 138th St - Grand Concourse; 2, 5 to 3rd Ave-149th St","Bx1, Bx15, Bx17, Bx19, Bx2, Bx21, Bx32, Bx33, Bx4, Bx41, Bx41-SBS, Bx4A",https://tools.nycenet.edu/snapshot/2019/07X223/EMS,40.813577,-73.920767,"360 East 145th Street, Bronx NY 10454"
07X224,P.S./I.S. 224,Junior High-Intermediate-Middle,"06,07,08,SE","7",718-665-9804,https://www.schools.nyc.gov/Find-a-School,"6 to Brook Ave; 2, 5 to 3rd Ave-149th St","Bx1, Bx15, Bx17, Bx19, Bx2, Bx21, Bx32, Bx33, Bx4, Bx41, Bx41-SBS, Bx4A",https://tools.nycenet.edu/snapshot/2019/07X224/EMS,40.810225,-73.918591,"345 Brook Avenue, Bronx NY 10454"
10X225,Theatre Arts Production Company School,Secondary School,"06,07,08,09,10,11,12,SE","10",718-584-0832,https://www.tapconyc.org,"B, D to 182nd-183rd Sts; 4 to 183rd St","Bx1, Bx15, Bx17, Bx2, Bx32, Bx36, Bx40, Bx41, Bx41-SBS, Bx42, BxM4",https://tools.nycenet.edu/snapshot/2019/10X225/EMS,40.854089,-73.897583,"2225 Webster Avenue, Bronx NY 10457"
10X228,Jonas Bronck Academy,Junior High-Intermediate-Middle,"06,07,08,SE","10",718-365-2502,https://www.jonasbronckacademy.org,"B, D to Fordham Rd","Bx1, Bx12, Bx12-SBS, Bx15, Bx17, Bx2, Bx22, Bx28, Bx32, Bx34, Bx38, Bx41, Bx41-SBS, Bx9, BxM4",https://tools.nycenet.edu/snapshot/2019/10X228/EMS,40.861195,-73.891328,"400 East Fordham Road, Bronx NY 10458"
09X229,I.S. 229 Roland Patterson,Junior High-Intermediate-Middle,"06,07,08,SE","9",718-583-6266,https://www.schools.nyc.gov/Find-a-School,1 to 191st St,"Bx18, Bx3, Bx36, Bx40, Bx42, M100, M101, M3",https://tools.nycenet.edu/snapshot/2019/09X229/EMS,40.852372,-73.921719,"275 Harlem River Park Bridge, Bronx NY 10453"
09X231,Eagle Academy for Young Men,Secondary School,"06,07,08,09,10,11,12,SE","9",718-466-8000,https://www.eaglebronx.org,N/A,"Bx15, Bx17, Bx36, Bx40, Bx41, Bx41-SBS, Bx42",https://tools.nycenet.edu/snapshot/2019/09X231/EMS,40.845418,-73.8974,"4143 Third Avenue, Bronx NY 10457"
09X232,I.S. 232,Junior High-Intermediate-Middle,"06,07,08,SE","9",718-583-7007,https://www.schools.nyc.gov/Find-a-School,"B, D to 174th-175th Sts; 4 to 176th St","Bx1, Bx18, Bx2, Bx3, Bx32, Bx36, Bx40, Bx42, BxM4",https://tools.nycenet.edu/snapshot/2019/09X232/EMS,40.849144,-73.915444,"1700 Macombs Road, Bronx NY 10453"
09X241,Urban Assembly School for Applied Math and Science,Secondary School,"06,07,08,09,10,11,12,SE","9",718-466-7800,https://www.amsbronx.org,N/A,"Bx11, Bx15, Bx17, Bx21, Bx32, Bx41, Bx41-SBS",https://tools.nycenet.edu/snapshot/2019/09X241/EMS,40.839698,-73.901601,"1595 Bathgate Avenue, Bronx NY 10457"
12X242,Mott Hall V,Secondary School,"06,07,08,09,10,11,12,SE","12",718-620-8160,https://www.motthallv.org,6 to Elder Ave,"Bx11, Bx27, Bx36, Bx4, Bx4A, Q44-SBS",https://tools.nycenet.edu/snapshot/2019/12X242/EMS,40.832659,-73.878103,"1551 East 172nd Street, Bronx NY 10472"
10X243,West Bronx Academy for the Future,Secondary School,"06,07,08,09,10,11,12,SE","10",718-563-7139,https://www.westbronxacademy.org,"B, D to Fordham Rd","Bx1, Bx12, Bx12-SBS, Bx15, Bx17, Bx19, Bx2, Bx22, Bx28, Bx34, Bx38, Bx41, Bx41-SBS, Bx9, BxM4",https://tools.nycenet.edu/snapshot/2019/10X243/EMS,40.859603,-73.888685,"500 East Fordham Road, Bronx NY 10458"
10X244,The New School for Leadership and Journalism,Junior High-Intermediate-Middle,"06,07,08,SE","10",718-601-2869,https://www.ms244.org,1 to 231st St,"Bx1, Bx10, Bx2, Bx20, Bx22, Bx26, Bx3, Bx32, Bx7, Bx9, BxM1, BxM18, BxM2, BxM3",https://tools.nycenet.edu/snapshot/2019/10X244/EMS,40.875491,-73.901322,"120 West 231st Street, Bronx NY 10463"
10X254,I.S. 254,Junior High-Intermediate-Middle,"06,07,08,SE","10",718-220-8700,https://www.schools.nyc.gov/Find-a-School,"B, D to Fordham Rd","Bx1, Bx12, Bx12-SBS, Bx15, Bx17, Bx19, Bx2, Bx22, Bx28, Bx34, Bx38, Bx41, Bx41-SBS, Bx9, BxM4",https://tools.nycenet.edu/snapshot/2019/10X254/EMS,40.858483,-73.890174,"2452 Washington Avenue, Bronx NY 10458"
12X267,Bronx Latin,Secondary School,"05,06,07,08,09,10,11,12,SE","12",718-991-6349,https://www.bronxlatin.com,"2, 5 to Intervale Ave","Bx11, Bx15, Bx17, Bx19, Bx21, Bx27, Bx35, Bx4, Bx4A, Bx5, Bx6",https://tools.nycenet.edu/snapshot/2019/12X267/EMS,40.82697,-73.900486,"800 Home Street, Bronx NY 10456"
08X269,Bronx Studio School for Writers and Artists,Secondary School,"06,07,08,09,10,11,12,SE","8",718-893-5158,https://www.schools.nyc.gov/Find-a-School,"6 to Hunts Point Ave; 2, 5 to Intervale Ave","Bx11, Bx17, Bx19, Bx27, Bx35, Bx4, Bx46, Bx4A, Bx5, Bx6",https://tools.nycenet.edu/snapshot/2019/08X269/EMS,40.820539,-73.892959,"928 Simpson Street, Bronx NY 10459"
12X271,East Bronx Academy for the Future,Secondary School,"06,07,08,09,10,11,12,SE","12",718-861-8641,https://www.eastbronxacademy.org,"2, 5 to 174th St","Bx11, Bx17, Bx19, Bx21, Bx36, Bx40, Bx42, Bx9",https://tools.nycenet.edu/snapshot/2019/12X271/EMS,40.83666,-73.887719,"1716 Southern Boulevard, Bronx NY 10460"
12X273,Frederick Douglass Academy V. Middle School,Junior High-Intermediate-Middle,"06,07,08,SE","12",718-561-1617,https://www.fdavms.org,N/A,"Bx12, Bx15, Bx17, Bx19, Bx36, Bx40, Bx42, Bx9",https://tools.nycenet.edu/snapshot/2019/12X273/EMS,40.848731,-73.888851,"2111 Crotona Avenue, Bronx NY 10457"
10X279,"P.S. 279 Captain Manuel Rivera, Jr.",K-8,"0K,01,02,03,04,05,06,07,08,SE","10",718-584-6004,https://www.schools.nyc.gov/Find-a-School,"B, D to 182nd-183rd Sts; 4 to Burnside Ave","Bx1, Bx2, Bx3, Bx32, Bx36, Bx40, Bx41, Bx41-SBS, Bx42, BxM4",https://tools.nycenet.edu/snapshot/2019/10X279/EMS,40.854444,-73.904828,"2100 Walton Avenue, Bronx NY 10453"
10X280,P.S./M.S. 280 Mosholu Parkway,K-8,"0K,01,02,03,04,05,06,07,08,SE","10",718-405-6360,https://www.psms280.com,"D to 205th St - Norwood; B to Bedford Park Blvd; 4 to Mosholu Parkway","Bx1, Bx10, Bx16, Bx2, Bx22, Bx26, Bx28, Bx30, Bx34, Bx38, Bx41, Bx41-SBS, BxM4",https://tools.nycenet.edu/snapshot/2019/10X280/EMS,40.877102,-73.881345,"3202 Steuben Avenue, Bronx NY 10467"
10X280,P.S./M.S. 280 Mosholu Parkway,K-8,"0K,01,02,03,04,05,06,07,08,SE","10",718-405-6360,https://www.psms280.com,"D to 205th St - Norwood; B to Bedford Park Blvd; 4 to Mosholu Parkway","Bx1, Bx10, Bx16, Bx2, Bx22, Bx26, Bx28, Bx30, Bx34, Bx38, Bx41, Bx41-SBS, BxM4",https://tools.nycenet.edu/snapshot/2019/10X280/EMS,40.876755,-73.881226,"3202 Steuben Avenue, Bronx NY 10467"
12X286,Fannie Lou Hamer Middle School,Junior High-Intermediate-Middle,"06,07,08,SE","12",718-860-2707,https://www.schools.nyc.gov/Find-a-School,"6 to Whitlock Ave; 2, 5 to Freeman St","Bx11, Bx19, Bx21, Bx27, Bx35, Bx36, Bx4, Bx4A",https://tools.nycenet.edu/snapshot/2019/12X286/EMS,40.831704,-73.886529,"1001 Jennings Street, Bronx NY 10460"
11X287,North Bronx School of Empowerment,Junior High-Intermediate-Middle,"06,07,08,SE","11",718-652-0519,https://www.schools.nyc.gov/Find-a-School,"2, 5 to 219th St","Bx28, Bx30, Bx38, Bx39, Bx41, Bx41-SBS, Bx8, BxM11",https://tools.nycenet.edu/snapshot/2019/11X287/EMS,40.880659,-73.860084,"3710 Barnes Avenue, Bronx NY 10467"
07X296,South Bronx Academy for Applied Media,Junior High-Intermediate-Middle,"06,07,08,SE","7",718-401-0059,https://www.sbaam296.org,"6 to East 149th St; 2, 5 to Prospect Ave; 2, 5 to Jackson Ave","Bx13, Bx15, Bx17, Bx19, Bx21, Bx4, Bx46, Bx4A, Bx6",https://tools.nycenet.edu/snapshot/2019/07X296/EMS,40.818677,-73.905449,"778 Forest Avenue, Bronx NY 10456"
07X298,Academy of Public Relations,Junior High-Intermediate-Middle,"06,07,08,SE","7",718-665-8866,https://www.schools.nyc.gov/Find-a-School,"6 to East 149th St; 2, 5 to Prospect Ave; 2, 5 to Jackson Ave","Bx13, Bx15, Bx17, Bx19, Bx21, Bx4, Bx46, Bx4A, Bx6",https://tools.nycenet.edu/snapshot/2019/07X298/EMS,40.818478,-73.905106,"778 Forest Avenue, Bronx NY 10456"
08X301,M.S. 301 Paul L. Dunbar,Junior High-Intermediate-Middle,"06,07,08,SE","8",718-585-2950,https://www.schools.nyc.gov/Find-a-School,"2, 5 to Prospect Ave","Bx13, Bx15, Bx17, Bx21, Bx4, Bx41, Bx41-SBS, Bx46, Bx4A, Bx6",https://tools.nycenet.edu/snapshot/2019/08X301/EMS,40.822244,-73.906849,"890 Cauldwell Avenue, Bronx NY 10456"
08X302,M.S. 302 Luisa Dessus Cruz,Junior High-Intermediate-Middle,"06,07,08,SE","8",718-292-6070,https://www.schools.nyc.gov/Find-a-School,"6 to East 149th St; 2, 5 to Prospect Ave","Bx17, Bx19, Bx4, Bx46, Bx4A, Bx6",https://tools.nycenet.edu/snapshot/2019/08X302/EMS,40.816009,-73.901558,"681 Kelly Street, Bronx NY 10455"
09X303,I.S. X303 Leadership & Community Service,Junior High-Intermediate-Middle,"06,07,08,SE","9",718-583-5466,https://www.schools.nyc.gov/Find-a-School,"B, D to 174th-175th Sts; 4 to 176th St","Bx1, Bx18, Bx2, Bx3, Bx32, Bx36, Bx40, Bx42, BxM4",https://tools.nycenet.edu/snapshot/2019/09X303/EMS,40.849683,-73.915405,"1700 Macombs Road, Bronx NY 10453"
10X308,Bronx Dance Academy School,Junior High-Intermediate-Middle,"06,07,08,SE","10",718-515-0410,https://www.schools.nyc.gov/Find-a-School,4 to Woodlawn,"Bx10, Bx16, Bx28, Bx30, Bx34, Bx38, BxM4",https://tools.nycenet.edu/snapshot/2019/10X308/EMS,40.885548,-73.87793,"3617 Bainbridge Avenue, Bronx NY 10467"
09X313,I.S. 313 School of Leadership Development,Junior High-Intermediate-Middle,"06,07,08,SE","9",718-583-1736,https://www.schools.nyc.gov/Find-a-School,"B, D to 170th St","Bx1, Bx11, Bx15, Bx17, Bx18, Bx2, Bx32, Bx41, Bx41-SBS, BxM4",https://tools.nycenet.edu/snapshot/2019/09X313/EMS,40.84067,-73.904446,"1600 Webster Avenue, Bronx NY 10457"
10X315,P.S. 315 Lab School,K-8,"0K,01,02,03,04,05,06,07,08","10",(929) 237-7750,https://www.schools.nyc.gov/Find-a-School,"B, D to 182nd-183rd Sts; 4 to 183rd St","Bx1, Bx12, Bx12-SBS, Bx2, Bx3, Bx32, Bx36, Bx40, Bx41, Bx42, BxM3, BxM4",https://tools.nycenet.edu/snapshot/2019/10X315/EMS,40.873855,-73.899955,"2865 Claflin Avenue Bronx, New York, 10468"
12X316,Kappa III,Junior High-Intermediate-Middle,"06,07,08,SE","12",718-561-3580,https://www.kappaiiischool.org,"2, 5 to West Farms Sq - East Tremont Ave","Bx12, Bx15, Bx17, Bx19, Bx21, Bx36, Bx40, Bx42, Bx9, Q44-SBS",https://tools.nycenet.edu/snapshot/2019/12X316/EMS,40.846236,-73.886891,"2055 Mapes Avenue, Bronx NY 10460"
12X318,"I.S. X318 Math, Science & Technology Through Arts",Junior High-Intermediate-Middle,"06,07,08,SE","12",718-294-8504,https://www.is318.org,"2, 5 to 174th St","Bx12, Bx15, Bx17, Bx19, Bx21, Bx36, Bx40, Bx42, Bx9",https://tools.nycenet.edu/snapshot/2019/12X318/EMS,40.843813,-73.8904,"1919 Prospect Avenue, Bronx NY 10457"
09X323,Bronx Writing Academy,Junior High-Intermediate-Middle,"06,07,08,SE","9",718-293-9048,https://www.bronxwritingacademy.net,"4, B, D to 167th St","Bx1, Bx11, Bx15, Bx18, Bx2, Bx32, Bx35, Bx41, Bx41-SBS, BxM4",https://tools.nycenet.edu/snapshot/2019/09X323/EMS,40.832261,-73.914116,"270 East 167th Street, Bronx NY 10456"
09X324,Bronx Early College Academy for Teaching & Learnin,Secondary School,"06,07,08,09,10,11,12,SE","9",718-681-8287,https://www.schools.nyc.gov/Find-a-School,"B, D to 167th St; 4, D to 161st St-Yankee Stadium","Bx1, Bx13, Bx2, Bx32, Bx35, Bx41, Bx41-SBS, Bx6, BxM4",https://tools.nycenet.edu/snapshot/2019/09X324/EMS,40.82776,-73.917705,"250 East 164th Street, Bronx NY 10456"
11X326,Bronx Green Middle School,Junior High-Intermediate-Middle,"06,07,08,SE","11",718-325-6593,https://www.bgms.org,"2, 5 to Allerton Ave","Bx12, Bx12-SBS, Bx22, Bx26, Bx39, Bx8, BxM11",https://tools.nycenet.edu/snapshot/2019/11X326/EMS,40.86182,-73.864974,"2441 Wallace Avenue, Bronx NY 10467"
09X327,Comprehensive Model School Project M.S. 327,Secondary School,"06,07,08,09,10,11,12,SE","9",718-294-8111,https://www.schools.nyc.gov/Find-a-School,"B, D to 170th St; 4 to Mt Eden Ave","Bx1, Bx11, Bx13, Bx18, Bx2, Bx3, Bx32, Bx35, Bx36, BxM4",https://tools.nycenet.edu/snapshot/2019/09X327/EMS,40.842785,-73.916069,"1501 Jerome Avenue, Bronx NY 10452"
09X328,New Millennium Bronx Academy of the Arts,Junior High-Intermediate-Middle,"06,07,08,SE","9",718-588-8308,https://www.schools.nyc.gov/Find-a-School,"B, D to 167th St","Bx1, Bx13, Bx15, Bx2, Bx21, Bx32, Bx35, Bx41, Bx41-SBS, Bx6, BxM4",https://tools.nycenet.edu/snapshot/2019/09X328/EMS,40.827258,-73.91415,"1000 Teller Avenue, Bronx NY 10456"
10X331,The Bronx School of Young Leaders,Junior High-Intermediate-Middle,"06,07,08,SE","10",718-583-4146,https://www.schools.nyc.gov/Find-a-School,"B, D to Tremont Ave; 4 to Burnside Ave; 4 to 176th St","Bx1, Bx18, Bx2, Bx3, Bx32, Bx36, Bx40, Bx42, BxM4",https://tools.nycenet.edu/snapshot/2019/10X331/EMS,40.850765,-73.910567,"40 West Tremont Avenue, Bronx NY 10453"
08X337,The School for Inquiry and Social Justice,Junior High-Intermediate-Middle,"06,07,08,SE","8",718-860-4181,https://www.schools.nyc.gov/Find-a-School,6 to Morrison-Soundview Ave,"Bx27, Bx4, Bx4A, Bx5",https://tools.nycenet.edu/snapshot/2019/08X337/EMS,40.824865,-73.874247,"1025 Morrison Avenue, Bronx NY 10472"
09X339,I.S. 339,Junior High-Intermediate-Middle,"06,07,08,SE","9",718-583-6767,https://www.is339.org,"B, D to 170th St","Bx1, Bx11, Bx15, Bx17, Bx18, Bx2, Bx32, Bx41, Bx41-SBS, BxM4",https://tools.nycenet.edu/snapshot/2019/09X339/EMS,40.840569,-73.904298,"1600 Webster Avenue, Bronx NY 10457"
12X341,Accion Academy,Junior High-Intermediate-Middle,"06,07,08,SE","12",718-294-0514,https://www.accionacademy.com,"2, 5 to 174th St","Bx15, Bx17, Bx19, Bx21, Bx36, Bx40, Bx42, Bx9",https://tools.nycenet.edu/snapshot/2019/12X341/EMS,40.822095,-73.89412,"977 Fox Street, Bronx NY 10459"
10X342,International School for Liberal Arts,Secondary School,"06,07,08,09,10,11,12,SE","10",718-329-8570,https://www.islaschool.com,"4, B, D to Kingsbridge Rd","Bx1, Bx10, Bx2, Bx22, Bx26, Bx28, Bx3, Bx32, Bx34, Bx38, Bx9, BxM3, BxM4",https://tools.nycenet.edu/snapshot/2019/10X342/EMS,40.869144,-73.897054,"2780 Reservoir Avenue, Bronx NY 10468"
07X343,Academy of Applied Mathematics and Technology,Junior High-Intermediate-Middle,"06,07,08,SE","7",718-292-3883,https://www.MS343.com,"6 to Brook Ave; 2, 5 to 3rd Ave-149th St","Bx1, Bx15, Bx17, Bx19, Bx2, Bx21, Bx32, Bx33, Bx4, Bx41, Bx41-SBS, Bx4A",https://tools.nycenet.edu/snapshot/2019/07X343/EMS,40.810397,-73.919006,"345 Brook Avenue, Bronx NY 10454"
09X350,New Directions Secondary School,Secondary School,"06,07,08,09,10,11,12,SE","9",718-410-4343,https://www.ndssbx.org,"4, B, D to 170th St","Bx1, Bx11, Bx15, Bx18, Bx2, Bx32, Bx35, Bx41, Bx41-SBS, BxM4",https://tools.nycenet.edu/snapshot/2019/09X350/EMS,40.839511,-73.911123,"240 East 172nd Street, Bronx NY 10457"
11X355,Bronx Alliance Middle School,Junior High-Intermediate-Middle,"06,07,08,SE","11",718-652-2060,https://www.BronxAlliance.org,"5 to Eastchester - Dyre Ave; 5 to Baychester Ave","Bx16, Bx30, Bx31",https://tools.nycenet.edu/snapshot/2019/11X355/EMS,40.886086,-73.839707,"3750 Baychester Avenue, Bronx NY 10466"
09X361,The Highbridge Green School,Junior High-Intermediate-Middle,"06,07,08,SE","9",718-410-5770,https://www.highbridgegreen.com,4 to 167th St,"Bx11, Bx13, Bx18, Bx35, M101, M2",https://tools.nycenet.edu/snapshot/2019/09X361/EMS,40.838101,-73.928172,"200 West 167th Street, Bronx NY 10452"
10X363,Academy For Personal Leadership And Excellence,Junior High-Intermediate-Middle,"06,07,08,09,SE","10",718-220-3139,https://www.ms363aple.org,"B, D to Fordham Rd; 4 to 183rd St","Bx1, Bx12, Bx12-SBS, Bx15, Bx17, Bx2, Bx22, Bx28, Bx3, Bx32, Bx34, Bx38, Bx41, Bx41-SBS, Bx9, BxM4",https://tools.nycenet.edu/snapshot/2019/10X363/EMS,40.859331,-73.900417,"120 East 184th Street, Bronx NY 10468"
08X367,"Archimedes Academy for Math, Science and Technolog",Secondary School,"06,07,08,09,10,11,12,SE","8",718-617-5046,https://www.archimedesacademy.org,N/A,"Bx22, Bx27, Bx36, Bx39, Bx5",https://tools.nycenet.edu/snapshot/2019/08X367/EMS,40.814865,-73.856148,"456 White Plains Road, Bronx NY 10473"
10X368,In-Tech Academy (M.S. / High School 368),Secondary School,"06,07,08,09,10,11,12,SE","10",718-432-4300,https://www.in-techacademy.org,1 to Marble Hill - 225th St,"Bx1, Bx10, Bx2, Bx20, Bx7, Bx9, BxM1, BxM18, BxM2, M100",https://tools.nycenet.edu/snapshot/2019/10X368/EMS,40.878041,-73.913842,"2975 Tibbett Avenue, Bronx NY 10463"
11X370,Leaders of Tomorrow,Junior High-Intermediate-Middle,"06,07,08,SE","11",718-994-1028,https://www.schools.nyc.gov/Find-a-School,"2, 5 to 219th St","Bx28, Bx30, Bx38, Bx39, Bx41, Bx41-SBS, Bx8, BxM11",https://tools.nycenet.edu/snapshot/2019/11X370/EMS,40.880572,-73.860405,"3710 Barnes Avenue, Bronx NY 10467"
08X371,Urban Institute of Mathematics,Junior High-Intermediate-Middle,"06,07,08,SE","8",718-823-6042,https://www.uimx371.wix.com/uimx371,N/A,"Bx40, Bx42, Bx8, BxM9",https://tools.nycenet.edu/snapshot/2019/08X371/EMS,40.826677,-73.817998,"650 Hollywood Avenue, Bronx NY 10465"
08X375,The Bronx Mathematics Preparatory School,Junior High-Intermediate-Middle,"06,07,08,SE","8",718-542-5063,https://www.bronxmath.org,N/A,"Bx22, Bx27, Bx36, Bx39, Bx5",https://tools.nycenet.edu/snapshot/2019/08X375/EMS,40.815257,-73.855866,"456 White Plains Road, Bronx NY 10473"
08X376,Antonia Pantoja Preparatory Academy: A College Boa,Secondary School,"06,07,08,09,10,11,12,SE","8",718-824-3152,https://www.schools.nyc.gov/Find-a-School,N/A,"Bx22, Bx27, Bx36, Bx39, Bx5, BxM8",https://tools.nycenet.edu/snapshot/2019/08X376/EMS,40.82111,-73.856151,"1980 Lafayette Avenue, Bronx NY 10473"
12X383,Emolior Academy,Junior High-Intermediate-Middle,"06,07,08,SE","12",718-842-2670,https://www.schools.nyc.gov/Find-a-School,"2, 5 to West Farms Sq - East Tremont Ave","Bx19, Bx21, Bx36, Bx40, Bx42, Bx9, BxM10, Q44-SBS",https://tools.nycenet.edu/snapshot/2019/12X383/EMS,40.839165,-73.880045,"1970 West Farms Road, Bronx NY 10460"
10X390,M.S. 390,Junior High-Intermediate-Middle,"06,07,08,09,SE","10",718-583-5501,https://www.ms390.com,"B, D to Tremont Ave; 4 to Burnside Ave","Bx1, Bx12, Bx12-SBS, Bx18, Bx2, Bx3, Bx32, Bx36, Bx40, Bx42",https://tools.nycenet.edu/snapshot/2019/10X390/EMS,40.854537,-73.913089,"1930 Andrews Avenue, Bronx NY 10453"
10X391,The Angelo Patri Middle School,Junior High-Intermediate-Middle,"06,07,08,SE","10",718-584-1295,https://www.theangelopatrischool.org,"B, D to 182nd-183rd Sts; 4 to 183rd St","Bx1, Bx15, Bx17, Bx2, Bx32, Bx36, Bx40, Bx41, Bx41-SBS, Bx42, BxM4",https://tools.nycenet.edu/snapshot/2019/10X391/EMS,40.85443,-73.897515,"2225 Webster Avenue, Bronx NY 10457"
09X413,Bronx High School for Medical Science,Secondary School,"06,07,08,09,10,11,12,SE","9",718-410-4040,https://www.schools.nyc.gov/Find-a-School,"4, B, D to 170th St","Bx1, Bx11, Bx15, Bx18, Bx2, Bx32, Bx35, Bx41, Bx41-SBS, BxM4",https://tools.nycenet.edu/snapshot/2019/09X413/EMS,40.839529,-73.911268,"240 East 172nd Street, Bronx NY 10457"
08X424,The Hunts Point School,Junior High-Intermediate-Middle,"06,07,08,SE","8",718-328-1972,https://www.ms424.org,6 to Hunts Point Ave,"Bx19, Bx46, Bx5, Bx6",https://tools.nycenet.edu/snapshot/2019/08X424/EMS,40.815986,-73.885441,"730 Bryant Avenue, Bronx NY 10474"
10X447,Creston Academy,Junior High-Intermediate-Middle,"06,07,08,SE","10",718-367-5035,https://www.schools.nyc.gov/Find-a-School,"B, D to 182nd-183rd Sts; 4 to 183rd St","Bx1, Bx2, Bx3, Bx32, Bx36, Bx40, Bx41, Bx41-SBS, Bx42, BxM4",https://tools.nycenet.edu/snapshot/2019/10X447/EMS,40.855626,-73.903032,"125 East 181st Street, Bronx NY 10453"
08X448,Soundview Academy for Culture and Scholarship,Junior High-Intermediate-Middle,"06,07,08,SE","8",718-991-4027,https://www.soundviewacademy.org,N/A,"Bx27, Bx36, Bx39, Bx5, BxM8",https://tools.nycenet.edu/snapshot/2019/08X448/EMS,40.822873,-73.860248,"885 Bolton Avenue, Bronx NY 10473"
09X454,Science and Technology Academy: A Mott Hall School,Junior High-Intermediate-Middle,"06,07,08,SE","9",718-293-4017,https://www.motthallsta.org,"B, D to 167th St; 4, D to 161st St-Yankee Stadium","Bx1, Bx13, Bx2, Bx32, Bx35, Bx41, Bx41-SBS, Bx6, BxM4",https://tools.nycenet.edu/snapshot/2019/09X454/EMS,40.827884,-73.917454,"250 East 164th Street, Bronx NY 10456"
11X462,Cornerstone Academy for Social Action Middle Schoo,Junior High-Intermediate-Middle,"06,07,08,SE","11",718-794-7970,https://www.casamiddleschool.org,5 to Eastchester - Dyre Ave,"Bx16, Bx23, Bx26, Bx28, Bx30, Bx38, BxM7, Q50",https://tools.nycenet.edu/snapshot/2019/11X462/EMS,40.882549,-73.830452,"3441 Steenwick Avenue, Bronx NY 10475"
08X467,Mott Hall Community School,Junior High-Intermediate-Middle,"06,07,08,SE","8",718-829-3254,https://www.mhcsbronx.org,N/A,"Bx40, Bx42, Bx8, BxM9",https://tools.nycenet.edu/snapshot/2019/08X467/EMS,40.826951,-73.818282,"650 Hollywood Avenue, Bronx NY 10465"
11X468,Pelham Academy of Academics and Community Engageme,Junior High-Intermediate-Middle,"06,07,08,SE","11",718-881-3136,https://www.schools.nyc.gov/Find-a-School,"2, 5 to Allerton Ave","Bx12, Bx12-SBS, Bx22, Bx26, Bx39, Bx8, BxM11",https://tools.nycenet.edu/snapshot/2019/11X468/EMS,40.861936,-73.864806,"2441 Wallace Avenue, Bronx NY 10467"
11X498,P.S./M.S. 11X498 - Van Nest Academy,K-8,"0K,01,02,03,04,05,06,07,08,SE","11",718-409-3001,https://www.498vannestacademy.org,N/A,"Bx21, Bx22, Bx39, Bx40, Bx42, Bx4A, Bx8, BxM10, BxM6",https://tools.nycenet.edu/snapshot/2019/11X498/EMS,40.844906,-73.858269,"1640 Bronxdale Ave, Bronx NY 10462"
07X500,Hostos-Lincoln Academy of Science,Secondary School,"06,07,08,09,10,11,12,SE","7",718-402-5640,https://www.schools.nyc.gov/Find-a-School,"6 to East 149th St; 2, 5 to Jackson Ave","Bx15, Bx17, Bx19, Bx2, Bx21, Bx4, Bx41, Bx41-SBS, Bx4A",https://tools.nycenet.edu/snapshot/2019/07X500/EMS,40.814608,-73.911973,"600 Saint Ann's Avenue, Bronx NY 10455"
09X505,"Bronx School for Law, Government and Justice",Secondary School,"06,07,08,09,10,11,12,SE","9",718-410-3430,https://www.bronxlgj.org,"4, B, D to 161st St-Yankee Stadium","Bx1, Bx13, Bx2, Bx32, Bx35, Bx41, Bx41-SBS, Bx6, BxM4",https://tools.nycenet.edu/snapshot/2019/09X505/EMS,40.827427,-73.919269,"244 East 163rd Street, Bronx NY 10451"
11X529,One World Middle School at Edenwald,Junior High-Intermediate-Middle,"06,07,08,SE","11",718-515-6780,https://www.schools.nyc.gov/Find-a-School,"5 to Eastchester - Dyre Ave; 5 to Baychester Ave","Bx16, Bx30, Bx31",https://tools.nycenet.edu/snapshot/2019/11X529/EMS,40.885869,-73.839562,"3750 Baychester Avenue, Bronx NY 10466"
11X532,Baychester Middle School,Junior High-Intermediate-Middle,"06,07,08,SE","11",718-547-1890,https://www.baychesterwaves.org,"5 to Eastchester - Dyre Ave; 5 to Baychester Ave","Bx16, Bx30, Bx31",https://tools.nycenet.edu/snapshot/2019/11X532/EMS,40.885806,-73.83982,"3750 Baychester Avenue, Bronx NY 10466"
07X551,The Urban Assembly Bronx Academy of Letters,Secondary School,"06,07,08,09,10,11,12,SE","7",718-401-4891,https://www.bronxletters.org,"6 to 3rd Ave - 138th St; 4, 5 to 138th St - Grand Concourse; 2 to 149th St-Grand Concourse","Bx1, Bx13, Bx15, Bx19, Bx2, Bx21, Bx32, Bx33, Bx41, Bx41-SBS",https://tools.nycenet.edu/snapshot/2019/07X551/EMS,40.8135,-73.925874,"339 Morris Avenue, Bronx NY 10451"
11X556,Bronx Park Middle School,Junior High-Intermediate-Middle,"06,07,08,SE","11",718-652-6090,https://www.bronxparkms.info,"2, 5 to Allerton Ave","Bx12, Bx12-SBS, Bx22, Bx26, Bx39, Bx8, BxM11",https://tools.nycenet.edu/snapshot/2019/11X556/EMS,40.861954,-73.865173,"2441 Wallace Avenue, Bronx NY 10467"
08X562,Blueprint Middle School,Junior High-Intermediate-Middle,"06,07,08,SE","8",718-822-2780,https://www.schools.nyc.gov/Find-a-School,6 to Parkchester,"Bx22, Bx36, Bx39, Bx4, Bx4A, Bx5, BxM6, BxM8, Q44-SBS",https://tools.nycenet.edu/snapshot/2019/08X562/EMS,40.82942,-73.857991,"1111 Pugsley Avenue, Bronx NY 10472"
11X566,Pelham Gardens Middle School,Junior High-Intermediate-Middle,"06,07,08,SE","11",718-794-9750,https://www.pgms566.org,N/A,"Bx12, Bx12-SBS, Bx23, Bx26, Bx28, Bx29, Bx30, Bx31, Bx38, Bx5, BxM10, Q50",https://tools.nycenet.edu/snapshot/2019/11X566/EMS,40.863968,-73.836741,"2545 Gunther Avenue, Bronx NY 10469"
09X568,Young Women's Leadership School of the Bronx,Secondary School,"06,07,08,09,10,11,12,SE","9",718-731-2590,https://www.tywlsbronx.org,"B, D to 174th-175th Sts; 4 to 176th St","Bx1, Bx18, Bx2, Bx3, Bx32, Bx36, Bx40, Bx41, Bx41-SBS, Bx42, BxM4",https://tools.nycenet.edu/snapshot/2019/09X568/EMS,40.848832,-73.908943,"1865 Morris Avenue, Bronx NY 10453"
07X584,I.S. 584,Junior High-Intermediate-Middle,"06,07,08,SE","7",718-742-2900,https://www.is584bronx.org,"2, 5 to Jackson Ave; 6 to East 149th","Bx15, Bx17, Bx19, Bx2, Bx21, Bx4, Bx41, Bx41-SBS, Bx4A",https://tools.nycenet.edu/snapshot/2019/07X584/EMS,40.814795,-73.912165,"600 Saint Ann's Avenue, Bronx NY 10455"
09X593,South Bronx International Middle School,Junior High-Intermediate-Middle,"06,07,SE","9",718-588-8221,https://www.internationalmiddle593.org,"B, D, 4 to 161st St.; B,D to 167th St","Bx1, Bx13, Bx15, Bx2, Bx21, Bx32, Bx35, Bx41, Bx41-SBS",https://tools.nycenet.edu/snapshot/2019/09X593/EMS,40.827277,-73.914096,"1000 Teller Avenue, Bronx NY 10456"
09X594,M.S. 594,Junior High-Intermediate-Middle,"06,07,08,SE","9",718 588 8221,https://www.schools.nyc.gov/Find-a-School,"B, D, 4 to 161st St.; B,D to 167th St","Bx1, Bx13, Bx15, Bx2, Bx21, Bx32, Bx35, Bx41, Bx41-SBS, Bx6, BxM",https://tools.nycenet.edu/snapshot/2019/09X594/EMS,40.82718,-73.913818,"1000 Teller Avenue, Bronx NY 10456"
